{"type": "FeatureCollection", "features": [{"type": "Feature", "properties": {"id": "a_busstopp.101000020", "no": 101000020, "hstname": "U Hermannplatz/Urbanstr.", "anzlinien": 3, "code": "UHPU01"}, "geometry": {"type": "MultiPoint", "coordinates": [[13.424134, 52.48839294]]}}, {"type": "Feature", "properties": {"id": "a_busstopp.101000116", "no": 101000116, "hstname": "Brockenstr.", "anzlinien": 1, "code": "BROC01"}, "geometry": {"type": "MultiPoint", "coordinates": [[13.4511041, 52.48392374]]}}, {"type": "Feature", "properties": {"id": "a_busstopp.101000226", "no": 101000226, "hstname": "U Rathaus Neukölln", "anzlinien": 1, "code": "URNK02N"}, "geometry": {"type": "MultiPoint", "coordinates": [[13.4343605, 52.48144804]]}}, {"type": "Feature", "properties": {"id": "a_busstopp.101000227", "no": 101000227, "hstname": "U Rathaus Neukölln", "anzlinien": 2, "code": "URNK03"}, "geometry": {"type": "MultiPoint", "coordinates": [[13.4365566, 52.48110104]]}}, {"type": "Feature", "properties": {"id": "a_busstopp.101000228", "no": 101000228, "hstname": "U Rathaus Neukölln/A.-Scholz-Pl.", "anzlinien": 3, "code": "URNA01"}, "geometry": {"type": "MultiPoint", "coordinates": [[13.4361469, 52.48020084]]}}, {"type": "Feature", "properties": {"id": "a_busstopp.101000229", "no": 101000229, "hstname": "Morusstr.", "anzlinien": 2, "code": "MORU01"}, "geometry": {"type": "MultiPoint", "coordinates": [[13.4322189, 52.47841864]]}}, {"type": "Feature", "properties": {"id": "a_busstopp.101000230", "no": 101000230, "hstname": "Herrfurthstr.", "anzlinien": 2, "code": "HRRF01"}, "geometry": {"type": "MultiPoint", "coordinates": [[13.4269851, 52.47776204]]}}, {"type": "Feature", "properties": {"id": "a_busstopp.101000231", "no": 101000231, "hstname": "U Boddinstr.", "anzlinien": 3, "code": "UBOD02"}, "geometry": {"type": "MultiPoint", "coordinates": [[13.4257396, 52.47913844]]}}, {"type": "Feature", "properties": {"id": "a_busstopp.101000232", "no": 101000232, "hstname": "Fontanestr./Flughafenstr.", "anzlinien": 1, "code": "FOFL01"}, "geometry": {"type": "MultiPoint", "coordinates": [[13.4204326, 52.48028234]]}}, {"type": "Feature", "properties": {"id": "a_busstopp.101000233", "no": 101000233, "hstname": "Friedhöfe Columbiadamm", "anzlinien": 1, "code": "FHCO01"}, "geometry": {"type": "MultiPoint", "coordinates": [[13.4086997, 52.48217014]]}}, {"type": "Feature", "properties": {"id": "a_busstopp.101000257", "no": 101000257, "hstname": "Sommerbad Neukölln", "anzlinien": 1, "code": "SONK01"}, "geometry": {"type": "MultiPoint", "coordinates": [[13.4159701, 52.48053604]]}}, {"type": "Feature", "properties": {"id": "a_busstopp.101000258", "no": 101000258, "hstname": "Sommerbad Neukölln", "anzlinien": 1, "code": "SONK02"}, "geometry": {"type": "MultiPoint", "coordinates": [[13.4150931, 52.48079504]]}}, {"type": "Feature", "properties": {"id": "a_busstopp.101000263", "no": 101000263, "hstname": "Erkstr.", "anzlinien": 2, "code": "ERKS01"}, "geometry": {"type": "MultiPoint", "coordinates": [[13.4399033, 52.48153684]]}}, {"type": "Feature", "properties": {"id": "a_busstopp.101000266", "no": 101000266, "hstname": "Erkstr.", "anzlinien": 2, "code": "ERKS02"}, "geometry": {"type": "MultiPoint", "coordinates": [[13.4403903, 52.48194204]]}}, {"type": "Feature", "properties": {"id": "a_busstopp.101000454", "no": 101000454, "hstname": "Buschkrug", "anzlinien": 1, "code": "BUKR01"}, "geometry": {"type": "MultiPoint", "coordinates": [[13.4512354, 52.45420404]]}}, {"type": "Feature", "properties": {"id": "a_busstopp.101000530", "no": 101000530, "hstname": "Treptower Brücke", "anzlinien": 1, "code": "TWBR01"}, "geometry": {"type": "MultiPoint", "coordinates": [[13.4526593, 52.48149164]]}}, {"type": "Feature", "properties": {"id": "a_busstopp.101000562", "no": 101000562, "hstname": "Rohdestr.", "anzlinien": 1, "code": "RHDE01"}, "geometry": {"type": "MultiPoint", "coordinates": [[13.4079323, 52.45999494]]}}, {"type": "Feature", "properties": {"id": "a_busstopp.101000579", "no": 101000579, "hstname": "Betriebshof Britz", "anzlinien": 1, "code": "BTRB01"}, "geometry": {"type": "MultiPoint", "coordinates": [[13.4359838, 52.45252154]]}}, {"type": "Feature", "properties": {"id": "a_busstopp.101000598", "no": 101000598, "hstname": "Morusstr.", "anzlinien": 2, "code": "MORU02"}, "geometry": {"type": "MultiPoint", "coordinates": [[13.4325417, 52.47831854]]}}, {"type": "Feature", "properties": {"id": "a_busstopp.101000615", "no": 101000615, "hstname": "Golßener Str.", "anzlinien": 1, "code": "GOLS02"}, "geometry": {"type": "MultiPoint", "coordinates": [[13.4008189, 52.48361294]]}}, {"type": "Feature", "properties": {"id": "a_busstopp.101000623", "no": 101000623, "hstname": "Schulenburgpark", "anzlinien": 1, "code": "SUBP01"}, "geometry": {"type": "MultiPoint", "coordinates": [[13.4702643, 52.46672584]]}}, {"type": "Feature", "properties": {"id": "a_busstopp.101000626", "no": 101000626, "hstname": "Ziegrastr.", "anzlinien": 2, "code": "ZIEG01"}, "geometry": {"type": "MultiPoint", "coordinates": [[13.4587944, 52.47255864]]}}, {"type": "Feature", "properties": {"id": "a_busstopp.101000631", "no": 101000631, "hstname": "S Sonnenallee", "anzlinien": 1, "code": "SSON01N"}, "geometry": {"type": "MultiPoint", "coordinates": [[13.4557276, 52.47366684]]}}, {"type": "Feature", "properties": {"id": "a_busstopp.101000696", "no": 101000696, "hstname": "Treptower Brücke", "anzlinien": 1, "code": "TWBR02"}, "geometry": {"type": "MultiPoint", "coordinates": [[13.4524373, 52.48140764]]}}, {"type": "Feature", "properties": {"id": "a_busstopp.101000844", "no": 101000844, "hstname": "Werbellinstr.", "anzlinien": 2, "code": "WBLL01"}, "geometry": {"type": "MultiPoint", "coordinates": [[13.4361531, 52.47876744]]}}, {"type": "Feature", "properties": {"id": "a_busstopp.101000866", "no": 101000866, "hstname": "Naumburger Str.", "anzlinien": 1, "code": "NAUM01"}, "geometry": {"type": "MultiPoint", "coordinates": [[13.4466439, 52.46623304]]}}, {"type": "Feature", "properties": {"id": "a_busstopp.101000874", "no": 101000874, "hstname": "Heckmannufer", "anzlinien": 4, "code": "HCKU01"}, "geometry": {"type": "MultiPoint", "coordinates": [[13.4492714, 52.49710994]]}}, {"type": "Feature", "properties": {"id": "a_busstopp.101000912", "no": 101000912, "hstname": "Grenzallee/Bergiusstr.", "anzlinien": 1, "code": "GZBG01"}, "geometry": {"type": "MultiPoint", "coordinates": [[13.455153, 52.46551234]]}}, {"type": "Feature", "properties": {"id": "a_busstopp.101000953", "no": 101000953, "hstname": "Friedhöfe Columbiadamm", "anzlinien": 1, "code": "FHCO02"}, "geometry": {"type": "MultiPoint", "coordinates": [[13.4108455, 52.48163844]]}}, {"type": "Feature", "properties": {"id": "a_busstopp.101000954", "no": 101000954, "hstname": "Fontanestr./Flughafenstr.", "anzlinien": 1, "code": "FOFL02"}, "geometry": {"type": "MultiPoint", "coordinates": [[13.4216545, 52.48024674]]}}, {"type": "Feature", "properties": {"id": "a_busstopp.101000955", "no": 101000955, "hstname": "U Boddinstr.", "anzlinien": 3, "code": "UBOD03"}, "geometry": {"type": "MultiPoint", "coordinates": [[13.4256348, 52.47888574]]}}, {"type": "Feature", "properties": {"id": "a_busstopp.101000956", "no": 101000956, "hstname": "Herrfurthstr.", "anzlinien": 2, "code": "HRRF02"}, "geometry": {"type": "MultiPoint", "coordinates": [[13.4268593, 52.47760364]]}}, {"type": "Feature", "properties": {"id": "a_busstopp.101000991", "no": 101000991, "hstname": "Betriebshof Britz", "anzlinien": 1, "code": "BTRB02"}, "geometry": {"type": "MultiPoint", "coordinates": [[13.43544309, 52.45248847]]}}, {"type": "Feature", "properties": {"id": "a_busstopp.101001066", "no": 101001066, "hstname": "Bergholzstr.", "anzlinien": 3, "code": "BGHZ02"}, "geometry": {"type": "MultiPoint", "coordinates": [[13.4166797, 52.45978064]]}}, {"type": "Feature", "properties": {"id": "a_busstopp.101001207", "no": 101001207, "hstname": "Oberlandstr./Germaniastr.", "anzlinien": 2, "code": "OBGE01"}, "geometry": {"type": "MultiPoint", "coordinates": [[13.4013969, 52.46352794]]}}, {"type": "Feature", "properties": {"id": "a_busstopp.101001250", "no": 101001250, "hstname": "Michael-Bohnen-Ring", "anzlinien": 1, "code": "MIBO01"}, "geometry": {"type": "MultiPoint", "coordinates": [[13.4728241, 52.46475484]]}}, {"type": "Feature", "properties": {"id": "a_busstopp.101001328", "no": 101001328, "hstname": "Wilmsstr.", "anzlinien": 1, "code": "WLMS01"}, "geometry": {"type": "MultiPoint", "coordinates": [[13.4036318, 52.49498284]]}}, {"type": "Feature", "properties": {"id": "a_busstopp.101001353", "no": 101001353, "hstname": "Urbanstr./Baerwaldstr.", "anzlinien": 1, "code": "URBW01"}, "geometry": {"type": "MultiPoint", "coordinates": [[13.4024141, 52.49412774]]}}, {"type": "Feature", "properties": {"id": "a_busstopp.101001354", "no": 101001354, "hstname": "U Prinzenstr.", "anzlinien": 1, "code": "UPR01"}, "geometry": {"type": "MultiPoint", "coordinates": [[13.4072903, 52.49920804]]}}, {"type": "Feature", "properties": {"id": "a_busstopp.101001355", "no": 101001355, "hstname": "Betriebshof Britz", "anzlinien": 2, "code": "BTRB03"}, "geometry": {"type": "MultiPoint", "coordinates": [[13.43536738, 52.45264741]]}}, {"type": "Feature", "properties": {"id": "a_busstopp.101001356", "no": 101001356, "hstname": "U Kottbusser Tor", "anzlinien": 1, "code": "UKBT01"}, "geometry": {"type": "MultiPoint", "coordinates": [[13.4171064, 52.49945494]]}}, {"type": "Feature", "properties": {"id": "a_busstopp.101001366", "no": 101001366, "hstname": "Taborstr.", "anzlinien": 4, "code": "TABO01"}, "geometry": {"type": "MultiPoint", "coordinates": [[13.4468911, 52.49839504]]}}, {"type": "Feature", "properties": {"id": "a_busstopp.101001367", "no": 101001367, "hstname": "Taborstr.", "anzlinien": 4, "code": "TABO02"}, "geometry": {"type": "MultiPoint", "coordinates": [[13.44749, 52.49813794]]}}, {"type": "Feature", "properties": {"id": "a_busstopp.101001368", "no": 101001368, "hstname": "Heckmannufer", "anzlinien": 4, "code": "HCKU02"}, "geometry": {"type": "MultiPoint", "coordinates": [[13.4492114, 52.49701634]]}}, {"type": "Feature", "properties": {"id": "a_busstopp.101001369", "no": 101001369, "hstname": "Falckensteinstr.", "anzlinien": 4, "code": "FLCK02"}, "geometry": {"type": "MultiPoint", "coordinates": [[13.4442769, 52.49995374]]}}, {"type": "Feature", "properties": {"id": "a_busstopp.101001380", "no": 101001380, "hstname": "U Prinzenstr.", "anzlinien": 1, "code": "UPR04"}, "geometry": {"type": "MultiPoint", "coordinates": [[13.4067745, 52.49870024]]}}, {"type": "Feature", "properties": {"id": "a_busstopp.101001382", "no": 101001382, "hstname": "Gneisenaustr./Baerwaldstr.", "anzlinien": 1, "code": "GNBW01N"}, "geometry": {"type": "MultiPoint", "coordinates": [[13.4008265, 52.49046984]]}}, {"type": "Feature", "properties": {"id": "a_busstopp.101001404", "no": 101001404, "hstname": "Gneisenaustr./Baerwaldstr.", "anzlinien": 1, "code": "GNBW03"}, "geometry": {"type": "MultiPoint", "coordinates": [[13.4006905, 52.49086854]]}}, {"type": "Feature", "properties": {"id": "a_busstopp.101001416", "no": 101001416, "hstname": "Urbanstr./Baerwaldstr.", "anzlinien": 1, "code": "URBW02"}, "geometry": {"type": "MultiPoint", "coordinates": [[13.403188, 52.49365654]]}}, {"type": "Feature", "properties": {"id": "a_busstopp.101001423", "no": 101001423, "hstname": "Urbanstr./Baerwaldstr.", "anzlinien": 1, "code": "URBW03"}, "geometry": {"type": "MultiPoint", "coordinates": [[13.4027831, 52.49365394]]}}, {"type": "Feature", "properties": {"id": "a_busstopp.101001439", "no": 101001439, "hstname": "Lahnstr./U Neukölln", "anzlinien": 2, "code": "LUNK01"}, "geometry": {"type": "MultiPoint", "coordinates": [[13.4428235, 52.46778824]]}}, {"type": "Feature", "properties": {"id": "a_busstopp.101001452", "no": 101001452, "hstname": "Mittelbuschweg", "anzlinien": 1, "code": "MIBW01"}, "geometry": {"type": "MultiPoint", "coordinates": [[13.4478258, 52.46831884]]}}, {"type": "Feature", "properties": {"id": "a_busstopp.101001474", "no": 101001474, "hstname": "U Kottbusser Tor", "anzlinien": 2, "code": "UKBT02"}, "geometry": {"type": "MultiPoint", "coordinates": [[13.418108, 52.49971284]]}}, {"type": "Feature", "properties": {"id": "a_busstopp.101001490", "no": 101001490, "hstname": "S Sonnenallee/Saalestr.", "anzlinien": 2, "code": "SSSA02"}, "geometry": {"type": "MultiPoint", "coordinates": [[13.4547198, 52.47247194]]}}, {"type": "Feature", "properties": {"id": "a_busstopp.101001495", "no": 101001495, "hstname": "Karl-Elsasser-Str.", "anzlinien": 1, "code": "KELS01"}, "geometry": {"type": "MultiPoint", "coordinates": [[13.423984, 52.45823604]]}}, {"type": "Feature", "properties": {"id": "a_busstopp.101001500", "no": 101001500, "hstname": "Weisestr.", "anzlinien": 2, "code": "WSTR01"}, "geometry": {"type": "MultiPoint", "coordinates": [[13.42285995, 52.48036839]]}}, {"type": "Feature", "properties": {"id": "a_busstopp.101001577", "no": 101001577, "hstname": "Gradestr./Tempelhofer Weg", "anzlinien": 1, "code": "GRTW01"}, "geometry": {"type": "MultiPoint", "coordinates": [[13.4326312, 52.45293034]]}}, {"type": "Feature", "properties": {"id": "a_busstopp.101001578", "no": 101001578, "hstname": "Karl-Elsasser-Str.", "anzlinien": 1, "code": "KELS02"}, "geometry": {"type": "MultiPoint", "coordinates": [[13.4253204, 52.45777814]]}}, {"type": "Feature", "properties": {"id": "a_busstopp.101001579", "no": 101001579, "hstname": "Bergholzstr.", "anzlinien": 3, "code": "BGHZ01"}, "geometry": {"type": "MultiPoint", "coordinates": [[13.4170192, 52.46017044]]}}, {"type": "Feature", "properties": {"id": "a_busstopp.101001581", "no": 101001581, "hstname": "Rohdestr.", "anzlinien": 1, "code": "RHDE02"}, "geometry": {"type": "MultiPoint", "coordinates": [[13.4072934, 52.46008534]]}}, {"type": "Feature", "properties": {"id": "a_busstopp.101001608", "no": 101001608, "hstname": "Neuköllnische Brücke", "anzlinien": 1, "code": "NKBR01"}, "geometry": {"type": "MultiPoint", "coordinates": [[13.4552906, 52.46909824]]}}, {"type": "Feature", "properties": {"id": "a_busstopp.101001609", "no": 101001609, "hstname": "Neuköllnische Brücke", "anzlinien": 1, "code": "NKBR02"}, "geometry": {"type": "MultiPoint", "coordinates": [[13.4554051, 52.46917394]]}}, {"type": "Feature", "properties": {"id": "a_busstopp.101001623", "no": 101001623, "hstname": "Michael-Bohnen-Ring", "anzlinien": 1, "code": "MIBO02"}, "geometry": {"type": "MultiPoint", "coordinates": [[13.4727451, 52.46505754]]}}, {"type": "Feature", "properties": {"id": "a_busstopp.101001628", "no": 101001628, "hstname": "Wilhelm-Borgmann-Brücke", "anzlinien": 1, "code": "WBBR01"}, "geometry": {"type": "MultiPoint", "coordinates": [[13.4290995, 52.45520444]]}}, {"type": "Feature", "properties": {"id": "a_busstopp.101001633", "no": 101001633, "hstname": "Oberlandstr./Germaniastr.", "anzlinien": 1, "code": "OBGE02"}, "geometry": {"type": "MultiPoint", "coordinates": [[13.4005184, 52.46383804]]}}, {"type": "Feature", "properties": {"id": "a_busstopp.101001643", "no": 101001643, "hstname": "Gradestr./Tempelhofer Weg", "anzlinien": 1, "code": "GRTW02"}, "geometry": {"type": "MultiPoint", "coordinates": [[13.432145, 52.45309134]]}}, {"type": "Feature", "properties": {"id": "a_busstopp.101001728", "no": 101001728, "hstname": "Schulenburgpark", "anzlinien": 1, "code": "SUBP02"}, "geometry": {"type": "MultiPoint", "coordinates": [[13.4707164, 52.46618814]]}}, {"type": "Feature", "properties": {"id": "a_busstopp.101001738", "no": 101001738, "hstname": "Komturstr.", "anzlinien": 1, "code": "KOMT01"}, "geometry": {"type": "MultiPoint", "coordinates": [[13.4008403, 52.45928334]]}}, {"type": "Feature", "properties": {"id": "a_busstopp.101001739", "no": 101001739, "hstname": "Körtestr.", "anzlinien": 1, "code": "KRTE01"}, "geometry": {"type": "MultiPoint", "coordinates": [[13.4121321, 52.49221634]]}}, {"type": "Feature", "properties": {"id": "a_busstopp.101001740", "no": 101001740, "hstname": "Körtestr.", "anzlinien": 1, "code": "KRTE02"}, "geometry": {"type": "MultiPoint", "coordinates": [[13.41227, 52.49199814]]}}, {"type": "Feature", "properties": {"id": "a_busstopp.101001741", "no": 101001741, "hstname": "Komturstr.", "anzlinien": 1, "code": "KOMT02"}, "geometry": {"type": "MultiPoint", "coordinates": [[13.4001538, 52.45975384]]}}, {"type": "Feature", "properties": {"id": "a_busstopp.101001824", "no": 101001824, "hstname": "Haus Bremen", "anzlinien": 2, "code": "HABR01"}, "geometry": {"type": "MultiPoint", "coordinates": [[13.4279401, 52.46406974]]}}, {"type": "Feature", "properties": {"id": "a_busstopp.101001828", "no": 101001828, "hstname": "Eintrachtsiedlung", "anzlinien": 1, "code": "EISI01"}, "geometry": {"type": "MultiPoint", "coordinates": [[13.4307847, 52.45434094]]}}, {"type": "Feature", "properties": {"id": "a_busstopp.101001844", "no": 101001844, "hstname": "Wilhelm-Borgmann-Brücke", "anzlinien": 1, "code": "WBBR02"}, "geometry": {"type": "MultiPoint", "coordinates": [[13.4283021, 52.45588254]]}}, {"type": "Feature", "properties": {"id": "a_busstopp.101002021", "no": 101002021, "hstname": "Neuköllnische Allee", "anzlinien": 1, "code": "NKAL01"}, "geometry": {"type": "MultiPoint", "coordinates": [[13.4599032, 52.46846594]]}}, {"type": "Feature", "properties": {"id": "a_busstopp.101002044", "no": 101002044, "hstname": "Kranoldstr.", "anzlinien": 1, "code": "KRND01"}, "geometry": {"type": "MultiPoint", "coordinates": [[13.43434394, 52.46574564]]}}, {"type": "Feature", "properties": {"id": "a_busstopp.101002087", "no": 101002087, "hstname": "Kottbusser Brücke", "anzlinien": 1, "code": "KTTB02N"}, "geometry": {"type": "MultiPoint", "coordinates": [[13.4194234, 52.49678824]]}}, {"type": "Feature", "properties": {"id": "a_busstopp.101002088", "no": 101002088, "hstname": "U Schönleinstr.", "anzlinien": 1, "code": "UST01N"}, "geometry": {"type": "MultiPoint", "coordinates": [[13.4217763, 52.49332524]]}}, {"type": "Feature", "properties": {"id": "a_busstopp.101002091", "no": 101002091, "hstname": "Sonnenallee/Pannierstr.", "anzlinien": 1, "code": "SAPA01"}, "geometry": {"type": "MultiPoint", "coordinates": [[13.4307568, 52.48583744]]}}, {"type": "Feature", "properties": {"id": "a_busstopp.101002092", "no": 101002092, "hstname": "Fuldastr.", "anzlinien": 1, "code": "FULD01"}, "geometry": {"type": "MultiPoint", "coordinates": [[13.4362297, 52.48352424]]}}, {"type": "Feature", "properties": {"id": "a_busstopp.101002093", "no": 101002093, "hstname": "Erkstr.", "anzlinien": 1, "code": "ERKS03"}, "geometry": {"type": "MultiPoint", "coordinates": [[13.4405221, 52.48140304]]}}, {"type": "Feature", "properties": {"id": "a_busstopp.101002094", "no": 101002094, "hstname": "Geygerstr.", "anzlinien": 1, "code": "GEYG01"}, "geometry": {"type": "MultiPoint", "coordinates": [[13.44368, 52.47984334]]}}, {"type": "Feature", "properties": {"id": "a_busstopp.101002095", "no": 101002095, "hstname": "Hertzbergplatz", "anzlinien": 2, "code": "HEBP01"}, "geometry": {"type": "MultiPoint", "coordinates": [[13.4487357, 52.47733664]]}}, {"type": "Feature", "properties": {"id": "a_busstopp.101002096", "no": 101002096, "hstname": "Mareschstr.", "anzlinien": 2, "code": "MARE01"}, "geometry": {"type": "MultiPoint", "coordinates": [[13.4527408, 52.47535474]]}}, {"type": "Feature", "properties": {"id": "a_busstopp.101002097", "no": 101002097, "hstname": "S Sonnenallee", "anzlinien": 2, "code": "SSON02"}, "geometry": {"type": "MultiPoint", "coordinates": [[13.4555777, 52.47399374]]}}, {"type": "Feature", "properties": {"id": "a_busstopp.101002099", "no": 101002099, "hstname": "Neuköllnische Allee", "anzlinien": 1, "code": "NKAL02"}, "geometry": {"type": "MultiPoint", "coordinates": [[13.4596272, 52.46754174]]}}, {"type": "Feature", "properties": {"id": "a_busstopp.101002101", "no": 101002101, "hstname": "Am Oberhafen", "anzlinien": 1, "code": "AMOH01"}, "geometry": {"type": "MultiPoint", "coordinates": [[13.4505596, 52.46506534]]}}, {"type": "Feature", "properties": {"id": "a_busstopp.101002104", "no": 101002104, "hstname": "U Grenzallee", "anzlinien": 1, "code": "UGZA01"}, "geometry": {"type": "MultiPoint", "coordinates": [[13.4454471, 52.46393438]]}}, {"type": "Feature", "properties": {"id": "a_busstopp.101002106", "no": 101002106, "hstname": "Am Oberhafen", "anzlinien": 1, "code": "AMOH02"}, "geometry": {"type": "MultiPoint", "coordinates": [[13.4516834, 52.46515774]]}}, {"type": "Feature", "properties": {"id": "a_busstopp.101002108", "no": 101002108, "hstname": "Neuköllnische Allee", "anzlinien": 2, "code": "NKAL03"}, "geometry": {"type": "MultiPoint", "coordinates": [[13.4614203, 52.46847794]]}}, {"type": "Feature", "properties": {"id": "a_busstopp.101002110", "no": 101002110, "hstname": "S Sonnenallee", "anzlinien": 2, "code": "SSON03"}, "geometry": {"type": "MultiPoint", "coordinates": [[13.4556613, 52.47407114]]}}, {"type": "Feature", "properties": {"id": "a_busstopp.101002111", "no": 101002111, "hstname": "Mareschstr.", "anzlinien": 2, "code": "MARE02"}, "geometry": {"type": "MultiPoint", "coordinates": [[13.4525203, 52.47567704]]}}, {"type": "Feature", "properties": {"id": "a_busstopp.101002112", "no": 101002112, "hstname": "Hertzbergplatz", "anzlinien": 2, "code": "HEBP02"}, "geometry": {"type": "MultiPoint", "coordinates": [[13.4484458, 52.47769204]]}}, {"type": "Feature", "properties": {"id": "a_busstopp.101002113", "no": 101002113, "hstname": "Geygerstr.", "anzlinien": 1, "code": "GEYG02"}, "geometry": {"type": "MultiPoint", "coordinates": [[13.4439195, 52.47993364]]}}, {"type": "Feature", "properties": {"id": "a_busstopp.101002114", "no": 101002114, "hstname": "Erkstr.", "anzlinien": 1, "code": "ERKS04"}, "geometry": {"type": "MultiPoint", "coordinates": [[13.440651, 52.48155334]]}}, {"type": "Feature", "properties": {"id": "a_busstopp.101002115", "no": 101002115, "hstname": "Fuldastr.", "anzlinien": 1, "code": "FULD02"}, "geometry": {"type": "MultiPoint", "coordinates": [[13.4362125, 52.48374534]]}}, {"type": "Feature", "properties": {"id": "a_busstopp.101002116", "no": 101002116, "hstname": "Sonnenallee/Pannierstr.", "anzlinien": 4, "code": "SAPA02"}, "geometry": {"type": "MultiPoint", "coordinates": [[13.4304571, 52.48637794]]}}, {"type": "Feature", "properties": {"id": "a_busstopp.101002117", "no": 101002117, "hstname": "U Hermannplatz/Sonnenallee", "anzlinien": 3, "code": "UHPS01"}, "geometry": {"type": "MultiPoint", "coordinates": [[13.4260466, 52.48769434]]}}, {"type": "Feature", "properties": {"id": "a_busstopp.101002119", "no": 101002119, "hstname": "U Schönleinstr.", "anzlinien": 1, "code": "UST02N"}, "geometry": {"type": "MultiPoint", "coordinates": [[13.4224907, 52.49260214]]}}, {"type": "Feature", "properties": {"id": "a_busstopp.101002120", "no": 101002120, "hstname": "Kottbusser Brücke", "anzlinien": 1, "code": "KTTB03N"}, "geometry": {"type": "MultiPoint", "coordinates": [[13.4207314, 52.49542814]]}}, {"type": "Feature", "properties": {"id": "a_busstopp.101002122", "no": 101002122, "hstname": "U Kottbusser Tor", "anzlinien": 2, "code": "UKBT03"}, "geometry": {"type": "MultiPoint", "coordinates": [[13.4183662, 52.49990924]]}}, {"type": "Feature", "properties": {"id": "a_busstopp.101002167", "no": 101002167, "hstname": "U Hermannplatz", "anzlinien": 1, "code": "UHP01N"}, "geometry": {"type": "MultiPoint", "coordinates": [[13.4245258, 52.48707614]]}}, {"type": "Feature", "properties": {"id": "a_busstopp.101002256", "no": 101002256, "hstname": "U Hermannplatz", "anzlinien": 4, "code": "UHP02"}, "geometry": {"type": "MultiPoint", "coordinates": [[13.4243515, 52.48686914]]}}, {"type": "Feature", "properties": {"id": "a_busstopp.101002308", "no": 101002308, "hstname": "U Görlitzer Bahnhof", "anzlinien": 1, "code": "UGR02"}, "geometry": {"type": "MultiPoint", "coordinates": [[13.4271982, 52.49899074]]}}, {"type": "Feature", "properties": {"id": "a_busstopp.101002309", "no": 101002309, "hstname": "Spreewaldplatz", "anzlinien": 1, "code": "SPWP01"}, "geometry": {"type": "MultiPoint", "coordinates": [[13.4316755, 52.49746774]]}}, {"type": "Feature", "properties": {"id": "a_busstopp.101002316", "no": 101002316, "hstname": "U Görlitzer Bahnhof", "anzlinien": 1, "code": "UGR03"}, "geometry": {"type": "MultiPoint", "coordinates": [[13.427985, 52.49889774]]}}, {"type": "Feature", "properties": {"id": "a_busstopp.101002341", "no": 101002341, "hstname": "S Köllnische Heide", "anzlinien": 2, "code": "SKLH01"}, "geometry": {"type": "MultiPoint", "coordinates": [[13.4668247, 52.46897964]]}}, {"type": "Feature", "properties": {"id": "a_busstopp.101002343", "no": 101002343, "hstname": "Dammweg/Sonnenallee", "anzlinien": 2, "code": "DWSA01"}, "geometry": {"type": "MultiPoint", "coordinates": [[13.4636645, 52.47082114]]}}, {"type": "Feature", "properties": {"id": "a_busstopp.101002346", "no": 101002346, "hstname": "Chris-Gueffroy-Allee", "anzlinien": 1, "code": "CHGA01"}, "geometry": {"type": "MultiPoint", "coordinates": [[13.4723886, 52.46094484]]}}, {"type": "Feature", "properties": {"id": "a_busstopp.101002347", "no": 101002347, "hstname": "Forsthausallee", "anzlinien": 1, "code": "FOHA02"}, "geometry": {"type": "MultiPoint", "coordinates": [[13.4746786, 52.46031684]]}}, {"type": "Feature", "properties": {"id": "a_busstopp.101002349", "no": 101002349, "hstname": "Forsthausallee", "anzlinien": 1, "code": "FOHA01"}, "geometry": {"type": "MultiPoint", "coordinates": [[13.47451693, 52.46027372]]}}, {"type": "Feature", "properties": {"id": "a_busstopp.101002359", "no": 101002359, "hstname": "Britzer Damm/Gradestr.", "anzlinien": 1, "code": "BDGR03"}, "geometry": {"type": "MultiPoint", "coordinates": [[13.4380356, 52.45256344]]}}, {"type": "Feature", "properties": {"id": "a_busstopp.101002360", "no": 101002360, "hstname": "Riesestr.", "anzlinien": 1, "code": "RIE01"}, "geometry": {"type": "MultiPoint", "coordinates": [[13.4463652, 52.45232934]]}}, {"type": "Feature", "properties": {"id": "a_busstopp.101002361", "no": 101002361, "hstname": "Buschkrug", "anzlinien": 1, "code": "BUKR02"}, "geometry": {"type": "MultiPoint", "coordinates": [[13.4514779, 52.45241064]]}}, {"type": "Feature", "properties": {"id": "a_busstopp.101002362", "no": 101002362, "hstname": "Buschkrug", "anzlinien": 2, "code": "BUKR03"}, "geometry": {"type": "MultiPoint", "coordinates": [[13.45140115, 52.45254554]]}}, {"type": "Feature", "properties": {"id": "a_busstopp.101002363", "no": 101002363, "hstname": "Riesestr.", "anzlinien": 1, "code": "RIE02"}, "geometry": {"type": "MultiPoint", "coordinates": [[13.4461219, 52.45248084]]}}, {"type": "Feature", "properties": {"id": "a_busstopp.101002364", "no": 101002364, "hstname": "Britzer Damm/Gradestr.", "anzlinien": 1, "code": "BDGR04"}, "geometry": {"type": "MultiPoint", "coordinates": [[13.4392467, 52.45279454]]}}, {"type": "Feature", "properties": {"id": "a_busstopp.101002365", "no": 101002365, "hstname": "Betriebshof Britz", "anzlinien": 1, "code": "BTRB04"}, "geometry": {"type": "MultiPoint", "coordinates": [[13.4364141, 52.45269654]]}}, {"type": "Feature", "properties": {"id": "a_busstopp.101002369", "no": 101002369, "hstname": "Oberlandstr./Germaniastr.", "anzlinien": 2, "code": "OBGE03"}, "geometry": {"type": "MultiPoint", "coordinates": [[13.400311, 52.46411264]]}}, {"type": "Feature", "properties": {"id": "a_busstopp.101002379", "no": 101002379, "hstname": "S Köllnische Heide", "anzlinien": 2, "code": "SKLH02"}, "geometry": {"type": "MultiPoint", "coordinates": [[13.4669893, 52.46865364]]}}, {"type": "Feature", "properties": {"id": "a_busstopp.101002380", "no": 101002380, "hstname": "Buschkrug", "anzlinien": 1, "code": "BUKR06"}, "geometry": {"type": "MultiPoint", "coordinates": [[13.4510713, 52.45255384]]}}, {"type": "Feature", "properties": {"id": "a_busstopp.101002389", "no": 101002389, "hstname": "Fontanestr./Flughafenstr.", "anzlinien": 2, "code": "FOFL03"}, "geometry": {"type": "MultiPoint", "coordinates": [[13.423088, 52.48058714]]}}, {"type": "Feature", "properties": {"id": "a_busstopp.101002391", "no": 101002391, "hstname": "Weisestr.", "anzlinien": 2, "code": "WSTR02"}, "geometry": {"type": "MultiPoint", "coordinates": [[13.4231815, 52.48041654]]}}, {"type": "Feature", "properties": {"id": "a_busstopp.101002395", "no": 101002395, "hstname": "U Görlitzer Bahnhof", "anzlinien": 1, "code": "UGR04N"}, "geometry": {"type": "MultiPoint", "coordinates": [[13.4252018, 52.49924254]]}}, {"type": "Feature", "properties": {"id": "a_busstopp.101002399", "no": 101002399, "hstname": "Wildenbruchplatz", "anzlinien": 2, "code": "WIBP01"}, "geometry": {"type": "MultiPoint", "coordinates": [[13.4439006, 52.48450154]]}}, {"type": "Feature", "properties": {"id": "a_busstopp.101002406", "no": 101002406, "hstname": "Wildenbruchplatz", "anzlinien": 2, "code": "WIBP02"}, "geometry": {"type": "MultiPoint", "coordinates": [[13.4439457, 52.48462114]]}}, {"type": "Feature", "properties": {"id": "a_busstopp.101002413", "no": 101002413, "hstname": "U Kottbusser Tor", "anzlinien": 1, "code": "UKBT04N"}, "geometry": {"type": "MultiPoint", "coordinates": [[13.4164419, 52.49891824]]}}, {"type": "Feature", "properties": {"id": "a_busstopp.101002417", "no": 101002417, "hstname": "Wilmsstr.", "anzlinien": 1, "code": "WLMS02"}, "geometry": {"type": "MultiPoint", "coordinates": [[13.4055997, 52.49600114]]}}, {"type": "Feature", "properties": {"id": "a_busstopp.101002418", "no": 101002418, "hstname": "U Prinzenstr.", "anzlinien": 1, "code": "UPR05N"}, "geometry": {"type": "MultiPoint", "coordinates": [[13.4058523, 52.49848734]]}}, {"type": "Feature", "properties": {"id": "a_busstopp.101002437", "no": 101002437, "hstname": "S+U Neukölln", "anzlinien": 1, "code": "SUNK06"}, "geometry": {"type": "MultiPoint", "coordinates": [[13.4423015, 52.46980934]]}}, {"type": "Feature", "properties": {"id": "a_busstopp.101002451", "no": 101002451, "hstname": "U Prinzenstr.", "anzlinien": 1, "code": "UPR06N"}, "geometry": {"type": "MultiPoint", "coordinates": [[13.4061932, 52.49832894]]}}, {"type": "Feature", "properties": {"id": "a_busstopp.101002453", "no": 101002453, "hstname": "U Kottbusser Tor", "anzlinien": 1, "code": "UKBT05N"}, "geometry": {"type": "MultiPoint", "coordinates": [[13.416609, 52.49877654]]}}, {"type": "Feature", "properties": {"id": "a_busstopp.101002464", "no": 101002464, "hstname": "Niemetzstr.", "anzlinien": 2, "code": "NIEM01"}, "geometry": {"type": "MultiPoint", "coordinates": [[13.4516248, 52.47102594]]}}, {"type": "Feature", "properties": {"id": "a_busstopp.101002465", "no": 101002465, "hstname": "S+U Neukölln", "anzlinien": 2, "code": "SUNK01"}, "geometry": {"type": "MultiPoint", "coordinates": [[13.4416119, 52.46934554]]}}, {"type": "Feature", "properties": {"id": "a_busstopp.101002467", "no": 101002467, "hstname": "Eduard-Müller-Platz", "anzlinien": 3, "code": "EDML01"}, "geometry": {"type": "MultiPoint", "coordinates": [[13.4367187, 52.46703444]]}}, {"type": "Feature", "properties": {"id": "a_busstopp.101002468", "no": 101002468, "hstname": "S+U Hermannstr./Silbersteinstr.", "anzlinien": 1, "code": "SUHS01"}, "geometry": {"type": "MultiPoint", "coordinates": [[13.4304874, 52.46629814]]}}, {"type": "Feature", "properties": {"id": "a_busstopp.101002469", "no": 101002469, "hstname": "Eschersheimer Str.", "anzlinien": 1, "code": "ESHS01"}, "geometry": {"type": "MultiPoint", "coordinates": [[13.4218932, 52.46527894]]}}, {"type": "Feature", "properties": {"id": "a_busstopp.101002470", "no": 101002470, "hstname": "Oberlandgarten", "anzlinien": 1, "code": "OBLG01"}, "geometry": {"type": "MultiPoint", "coordinates": [[13.4153102, 52.46466344]]}}, {"type": "Feature", "properties": {"id": "a_busstopp.101002471", "no": 101002471, "hstname": "Oberlandstr./A100", "anzlinien": 1, "code": "OBLA01"}, "geometry": {"type": "MultiPoint", "coordinates": [[13.4050553, 52.46367054]]}}, {"type": "Feature", "properties": {"id": "a_busstopp.101002473", "no": 101002473, "hstname": "Oberlandstr./A100", "anzlinien": 1, "code": "OBLA02"}, "geometry": {"type": "MultiPoint", "coordinates": [[13.404662, 52.46346754]]}}, {"type": "Feature", "properties": {"id": "a_busstopp.101002474", "no": 101002474, "hstname": "Oberlandgarten", "anzlinien": 1, "code": "OBLG02"}, "geometry": {"type": "MultiPoint", "coordinates": [[13.4152458, 52.46458514]]}}, {"type": "Feature", "properties": {"id": "a_busstopp.101002475", "no": 101002475, "hstname": "Eschersheimer Str.", "anzlinien": 1, "code": "ESHS02"}, "geometry": {"type": "MultiPoint", "coordinates": [[13.4211228, 52.46514544]]}}, {"type": "Feature", "properties": {"id": "a_busstopp.101002476", "no": 101002476, "hstname": "S+U Hermannstr./Silbersteinstr.", "anzlinien": 1, "code": "SUHS02"}, "geometry": {"type": "MultiPoint", "coordinates": [[13.4326098, 52.46649934]]}}, {"type": "Feature", "properties": {"id": "a_busstopp.101002477", "no": 101002477, "hstname": "Eduard-Müller-Platz", "anzlinien": 3, "code": "EDML02"}, "geometry": {"type": "MultiPoint", "coordinates": [[13.436891, 52.46699254]]}}, {"type": "Feature", "properties": {"id": "a_busstopp.101002479", "no": 101002479, "hstname": "S+U Neukölln", "anzlinien": 3, "code": "SUNK02"}, "geometry": {"type": "MultiPoint", "coordinates": [[13.4418474, 52.46932524]]}}, {"type": "Feature", "properties": {"id": "a_busstopp.101002480", "no": 101002480, "hstname": "Niemetzstr.", "anzlinien": 2, "code": "NIEM02"}, "geometry": {"type": "MultiPoint", "coordinates": [[13.4528011, 52.47127754]]}}, {"type": "Feature", "properties": {"id": "a_busstopp.101002507", "no": 101002507, "hstname": "Mittelbuschweg", "anzlinien": 1, "code": "MIBW02"}, "geometry": {"type": "MultiPoint", "coordinates": [[13.4471873, 52.46830624]]}}, {"type": "Feature", "properties": {"id": "a_busstopp.101002508", "no": 101002508, "hstname": "Grenzallee/Bergiusstr.", "anzlinien": 1, "code": "GZBG02"}, "geometry": {"type": "MultiPoint", "coordinates": [[13.4569538, 52.46592474]]}}, {"type": "Feature", "properties": {"id": "a_busstopp.101002509", "no": 101002509, "hstname": "Naumburger Str.", "anzlinien": 2, "code": "NAUM02"}, "geometry": {"type": "MultiPoint", "coordinates": [[13.4468238, 52.46613184]]}}, {"type": "Feature", "properties": {"id": "a_busstopp.101002511", "no": 101002511, "hstname": "Lahnstr./U Neukölln", "anzlinien": 2, "code": "LUNK02"}, "geometry": {"type": "MultiPoint", "coordinates": [[13.4424174, 52.46778754]]}}, {"type": "Feature", "properties": {"id": "a_busstopp.101002513", "no": 101002513, "hstname": "Mariendorfer Weg", "anzlinien": 2, "code": "MDFW01"}, "geometry": {"type": "MultiPoint", "coordinates": [[13.4230745, 52.46309894]]}}, {"type": "Feature", "properties": {"id": "a_busstopp.101002515", "no": 101002515, "hstname": "Saalburgstr.", "anzlinien": 2, "code": "SAAL01"}, "geometry": {"type": "MultiPoint", "coordinates": [[13.4113039, 52.45677844]]}}, {"type": "Feature", "properties": {"id": "a_busstopp.101002516", "no": 101002516, "hstname": "Industriestr.", "anzlinien": 2, "code": "INDU01"}, "geometry": {"type": "MultiPoint", "coordinates": [[13.4100647, 52.45567444]]}}, {"type": "Feature", "properties": {"id": "a_busstopp.101002517", "no": 101002517, "hstname": "Rixdorfer Str./Ullsteinstr.", "anzlinien": 2, "code": "RIUL01"}, "geometry": {"type": "MultiPoint", "coordinates": [[13.408528, 52.45348874]]}}, {"type": "Feature", "properties": {"id": "a_busstopp.101002533", "no": 101002533, "hstname": "Planetenstr.", "anzlinien": 1, "code": "PLNT01"}, "geometry": {"type": "MultiPoint", "coordinates": [[13.4641772, 52.46666014]]}}, {"type": "Feature", "properties": {"id": "a_busstopp.101002547", "no": 101002547, "hstname": "Elsenstr./Harzer Str.", "anzlinien": 1, "code": "ELHA01"}, "geometry": {"type": "MultiPoint", "coordinates": [[13.4492691, 52.48486194]]}}, {"type": "Feature", "properties": {"id": "a_busstopp.101002551", "no": 101002551, "hstname": "S Sonnenallee", "anzlinien": 1, "code": "SSON04N"}, "geometry": {"type": "MultiPoint", "coordinates": [[13.4557456, 52.47357884]]}}, {"type": "Feature", "properties": {"id": "a_busstopp.101002560", "no": 101002560, "hstname": "U Hermannplatz", "anzlinien": 3, "code": "UHP03"}, "geometry": {"type": "MultiPoint", "coordinates": [[13.4251876, 52.48721034]]}}, {"type": "Feature", "properties": {"id": "a_busstopp.101002606", "no": 101002606, "hstname": "Gradestr. 91", "anzlinien": 1, "code": "GREI01"}, "geometry": {"type": "MultiPoint", "coordinates": [[13.4230762, 52.45219084]]}}, {"type": "Feature", "properties": {"id": "a_busstopp.101002607", "no": 101002607, "hstname": "Gradestr. 71", "anzlinien": 1, "code": "GRFU01"}, "geometry": {"type": "MultiPoint", "coordinates": [[13.4279374, 52.45224494]]}}, {"type": "Feature", "properties": {"id": "a_busstopp.101002699", "no": 101002699, "hstname": "Klinikum Am Urban", "anzlinien": 1, "code": "KLAU01"}, "geometry": {"type": "MultiPoint", "coordinates": [[13.4062909, 52.49351494]]}}, {"type": "Feature", "properties": {"id": "a_busstopp.101002700", "no": 101002700, "hstname": "Klinikum Am Urban", "anzlinien": 1, "code": "KLAU02"}, "geometry": {"type": "MultiPoint", "coordinates": [[13.4063021, 52.49333884]]}}, {"type": "Feature", "properties": {"id": "a_busstopp.101002779", "no": 101002779, "hstname": "S+U Hermannstr.", "anzlinien": 3, "code": "SUHM01"}, "geometry": {"type": "MultiPoint", "coordinates": [[13.4314104, 52.46720194]]}}, {"type": "Feature", "properties": {"id": "a_busstopp.101002785", "no": 101002785, "hstname": "S+U Hermannstr.", "anzlinien": 3, "code": "SUHM08"}, "geometry": {"type": "MultiPoint", "coordinates": [[13.4312074, 52.46752874]]}}, {"type": "Feature", "properties": {"id": "a_busstopp.101002791", "no": 101002791, "hstname": "U Hermannplatz", "anzlinien": 1, "code": "UHP04N"}, "geometry": {"type": "MultiPoint", "coordinates": [[13.42464775, 52.48723456]]}}, {"type": "Feature", "properties": {"id": "a_busstopp.101002908", "no": 101002908, "hstname": "U Hermannplatz/Karl-Marx-Str.", "anzlinien": 1, "code": "UHPK03"}, "geometry": {"type": "MultiPoint", "coordinates": [[13.4255513, 52.48590334]]}}, {"type": "Feature", "properties": {"id": "a_busstopp.101002951", "no": 101002951, "hstname": "U Grenzallee", "anzlinien": 2, "code": "UGZA02"}, "geometry": {"type": "MultiPoint", "coordinates": [[13.4433835, 52.46439744]]}}, {"type": "Feature", "properties": {"id": "a_busstopp.101002952", "no": 101002952, "hstname": "U Grenzallee/Jahnstr.", "anzlinien": 2, "code": "UGZJ02"}, "geometry": {"type": "MultiPoint", "coordinates": [[13.4456465, 52.46151084]]}}, {"type": "Feature", "properties": {"id": "a_busstopp.101002953", "no": 101002953, "hstname": "Franz-Körner-Str.", "anzlinien": 2, "code": "FRKO01"}, "geometry": {"type": "MultiPoint", "coordinates": [[13.4493062, 52.45658984]]}}, {"type": "Feature", "properties": {"id": "a_busstopp.101002954", "no": 101002954, "hstname": "Buschkrug", "anzlinien": 2, "code": "BUKR04"}, "geometry": {"type": "MultiPoint", "coordinates": [[13.4522233, 52.45213134]]}}, {"type": "Feature", "properties": {"id": "a_busstopp.101002963", "no": 101002963, "hstname": "Buschkrug", "anzlinien": 1, "code": "BUKR05N"}, "geometry": {"type": "MultiPoint", "coordinates": [[13.4512354, 52.45420404]]}}, {"type": "Feature", "properties": {"id": "a_busstopp.101002964", "no": 101002964, "hstname": "Franz-Körner-Str.", "anzlinien": 2, "code": "FRKO02"}, "geometry": {"type": "MultiPoint", "coordinates": [[13.4484161, 52.45805244]]}}, {"type": "Feature", "properties": {"id": "a_busstopp.101002965", "no": 101002965, "hstname": "U Grenzallee/Jahnstr.", "anzlinien": 2, "code": "UGZJ03"}, "geometry": {"type": "MultiPoint", "coordinates": [[13.4457312, 52.46165654]]}}, {"type": "Feature", "properties": {"id": "a_busstopp.101002966", "no": 101002966, "hstname": "U Grenzallee", "anzlinien": 2, "code": "UGZA04"}, "geometry": {"type": "MultiPoint", "coordinates": [[13.4437476, 52.46423264]]}}, {"type": "Feature", "properties": {"id": "a_busstopp.101003041", "no": 101003041, "hstname": "Weichselstr.", "anzlinien": 1, "code": "WEIC01N"}, "geometry": {"type": "MultiPoint", "coordinates": [[13.4306071, 52.48343154]]}}, {"type": "Feature", "properties": {"id": "a_busstopp.101003045", "no": 101003045, "hstname": "Lahnstr./U Neukölln", "anzlinien": 3, "code": "LUNK03"}, "geometry": {"type": "MultiPoint", "coordinates": [[13.4420564, 52.46720824]]}}, {"type": "Feature", "properties": {"id": "a_busstopp.101003046", "no": 101003046, "hstname": "U Blaschkoallee", "anzlinien": 1, "code": "UBKA01"}, "geometry": {"type": "MultiPoint", "coordinates": [[13.4485812, 52.45251234]]}}, {"type": "Feature", "properties": {"id": "a_busstopp.101003047", "no": 101003047, "hstname": "U Blaschkoallee", "anzlinien": 1, "code": "UBKA02"}, "geometry": {"type": "MultiPoint", "coordinates": [[13.4487274, 52.45236164]]}}, {"type": "Feature", "properties": {"id": "a_busstopp.101003048", "no": 101003048, "hstname": "Lahnstr./U Neukölln", "anzlinien": 2, "code": "LUNK04"}, "geometry": {"type": "MultiPoint", "coordinates": [[13.4421904, 52.46716714]]}}, {"type": "Feature", "properties": {"id": "a_busstopp.101003049", "no": 101003049, "hstname": "Haarlemer Str.", "anzlinien": 1, "code": "HALE01"}, "geometry": {"type": "MultiPoint", "coordinates": [[13.454913, 52.45304834]]}}, {"type": "Feature", "properties": {"id": "a_busstopp.101003052", "no": 101003052, "hstname": "U Rathaus Neukölln", "anzlinien": 3, "code": "URNK04"}, "geometry": {"type": "MultiPoint", "coordinates": [[13.4356117, 52.48073564]]}}, {"type": "Feature", "properties": {"id": "a_busstopp.101003053", "no": 101003053, "hstname": "Weichselstr.", "anzlinien": 1, "code": "WEIC02N"}, "geometry": {"type": "MultiPoint", "coordinates": [[13.4294867, 52.48412884]]}}, {"type": "Feature", "properties": {"id": "a_busstopp.101003055", "no": 101003055, "hstname": "U Hermannplatz/Urbanstr.", "anzlinien": 1, "code": "UHPU02"}, "geometry": {"type": "MultiPoint", "coordinates": [[13.42418127, 52.48816028]]}}, {"type": "Feature", "properties": {"id": "a_busstopp.101003069", "no": 101003069, "hstname": "Gradestr./Tempelhofer Weg", "anzlinien": 1, "code": "GRTW03"}, "geometry": {"type": "MultiPoint", "coordinates": [[13.4339939, 52.45245354]]}}, {"type": "Feature", "properties": {"id": "a_busstopp.101003070", "no": 101003070, "hstname": "Gradestr./Tempelhofer Weg", "anzlinien": 1, "code": "GRTW04"}, "geometry": {"type": "MultiPoint", "coordinates": [[13.4319078, 52.45252924]]}}, {"type": "Feature", "properties": {"id": "a_busstopp.101003074", "no": 101003074, "hstname": "Elsenstr./Harzer Str.", "anzlinien": 1, "code": "ELHA02"}, "geometry": {"type": "MultiPoint", "coordinates": [[13.4484959, 52.48533174]]}}, {"type": "Feature", "properties": {"id": "a_busstopp.101003075", "no": 101003075, "hstname": "Harzer Str./Wildenbruchstr.", "anzlinien": 1, "code": "HAWB01"}, "geometry": {"type": "MultiPoint", "coordinates": [[13.4467685, 52.48622234]]}}, {"type": "Feature", "properties": {"id": "a_busstopp.101003076", "no": 101003076, "hstname": "Harzer Str./Wildenbruchstr.", "anzlinien": 2, "code": "HAWB02"}, "geometry": {"type": "MultiPoint", "coordinates": [[13.4461752, 52.48622054]]}}, {"type": "Feature", "properties": {"id": "a_busstopp.101003077", "no": 101003077, "hstname": "Gradestr. 71", "anzlinien": 1, "code": "GRFU02"}, "geometry": {"type": "MultiPoint", "coordinates": [[13.4274454, 52.45241484]]}}, {"type": "Feature", "properties": {"id": "a_busstopp.101003089", "no": 101003089, "hstname": "Werrastr.", "anzlinien": 1, "code": "WERR01"}, "geometry": {"type": "MultiPoint", "coordinates": [[13.4505695, 52.47990954]]}}, {"type": "Feature", "properties": {"id": "a_busstopp.101003110", "no": 101003110, "hstname": "Gradestr. 91", "anzlinien": 1, "code": "GREI02"}, "geometry": {"type": "MultiPoint", "coordinates": [[13.4228386, 52.45236214]]}}, {"type": "Feature", "properties": {"id": "a_busstopp.101003130", "no": 101003130, "hstname": "Haarlemer Str.", "anzlinien": 1, "code": "HALE02"}, "geometry": {"type": "MultiPoint", "coordinates": [[13.4561364, 52.45317594]]}}, {"type": "Feature", "properties": {"id": "a_busstopp.101003171", "no": 101003171, "hstname": "Britzer Damm/Gradestr.", "anzlinien": 1, "code": "BDGR01"}, "geometry": {"type": "MultiPoint", "coordinates": [[13.4385556, 52.45308554]]}}, {"type": "Feature", "properties": {"id": "a_busstopp.101003172", "no": 101003172, "hstname": "Wussowstr.", "anzlinien": 1, "code": "WUSS01"}, "geometry": {"type": "MultiPoint", "coordinates": [[13.4372168, 52.45622424]]}}, {"type": "Feature", "properties": {"id": "a_busstopp.101003173", "no": 101003173, "hstname": "Germaniapromenade", "anzlinien": 1, "code": "GEPR01"}, "geometry": {"type": "MultiPoint", "coordinates": [[13.4352321, 52.46068564]]}}, {"type": "Feature", "properties": {"id": "a_busstopp.101003174", "no": 101003174, "hstname": "Hermannstr./Mariendorfer Weg", "anzlinien": 3, "code": "HEMW01"}, "geometry": {"type": "MultiPoint", "coordinates": [[13.4327807, 52.46510404]]}}, {"type": "Feature", "properties": {"id": "a_busstopp.101003176", "no": 101003176, "hstname": "U Leinestr.", "anzlinien": 1, "code": "ULEI01"}, "geometry": {"type": "MultiPoint", "coordinates": [[13.4287443, 52.47241884]]}}, {"type": "Feature", "properties": {"id": "a_busstopp.101003178", "no": 101003178, "hstname": "U Leinestr.", "anzlinien": 1, "code": "ULEI02"}, "geometry": {"type": "MultiPoint", "coordinates": [[13.4283835, 52.47280734]]}}, {"type": "Feature", "properties": {"id": "a_busstopp.101003180", "no": 101003180, "hstname": "Hermannstr./Mariendorfer Weg", "anzlinien": 3, "code": "HEMW02"}, "geometry": {"type": "MultiPoint", "coordinates": [[13.4326648, 52.46502834]]}}, {"type": "Feature", "properties": {"id": "a_busstopp.101003181", "no": 101003181, "hstname": "Germaniapromenade", "anzlinien": 1, "code": "GEPR02"}, "geometry": {"type": "MultiPoint", "coordinates": [[13.4351252, 52.46056504]]}}, {"type": "Feature", "properties": {"id": "a_busstopp.101003182", "no": 101003182, "hstname": "Wussowstr.", "anzlinien": 1, "code": "WUSS02"}, "geometry": {"type": "MultiPoint", "coordinates": [[13.4371649, 52.45598334]]}}, {"type": "Feature", "properties": {"id": "a_busstopp.101003183", "no": 101003183, "hstname": "Britzer Damm/Gradestr.", "anzlinien": 1, "code": "BDGR02"}, "geometry": {"type": "MultiPoint", "coordinates": [[13.4384077, 52.45293964]]}}, {"type": "Feature", "properties": {"id": "a_busstopp.101003198", "no": 101003198, "hstname": "Mengerzeile", "anzlinien": 1, "code": "MENG01"}, "geometry": {"type": "MultiPoint", "coordinates": [[13.4430878, 52.48809764]]}}, {"type": "Feature", "properties": {"id": "a_busstopp.101003204", "no": 101003204, "hstname": "Werrastr.", "anzlinien": 1, "code": "WERR02"}, "geometry": {"type": "MultiPoint", "coordinates": [[13.4503755, 52.47984544]]}}, {"type": "Feature", "properties": {"id": "a_busstopp.101003207", "no": 101003207, "hstname": "Sonnenallee/Pannierstr.", "anzlinien": 4, "code": "SAPA03"}, "geometry": {"type": "MultiPoint", "coordinates": [[13.4306599, 52.48644754]]}}, {"type": "Feature", "properties": {"id": "a_busstopp.101003208", "no": 101003208, "hstname": "Pflügerstr.", "anzlinien": 4, "code": "PFLG01"}, "geometry": {"type": "MultiPoint", "coordinates": [[13.4342092, 52.49013074]]}}, {"type": "Feature", "properties": {"id": "a_busstopp.101003209", "no": 101003209, "hstname": "Glogauer Str.", "anzlinien": 1, "code": "GLOG01"}, "geometry": {"type": "MultiPoint", "coordinates": [[13.4365536, 52.49374624]]}}, {"type": "Feature", "properties": {"id": "a_busstopp.101003213", "no": 101003213, "hstname": "Pflügerstr.", "anzlinien": 4, "code": "PFLG02"}, "geometry": {"type": "MultiPoint", "coordinates": [[13.4336035, 52.48961654]]}}, {"type": "Feature", "properties": {"id": "a_busstopp.101003214", "no": 101003214, "hstname": "Lohmühlenplatz", "anzlinien": 1, "code": "LOHP01"}, "geometry": {"type": "MultiPoint", "coordinates": [[13.44049, 52.48935624]]}}, {"type": "Feature", "properties": {"id": "a_busstopp.101003215", "no": 101003215, "hstname": "Ohlauer Str.", "anzlinien": 1, "code": "OHL01"}, "geometry": {"type": "MultiPoint", "coordinates": [[13.4305694, 52.49588514]]}}, {"type": "Feature", "properties": {"id": "a_busstopp.101003217", "no": 101003217, "hstname": "Glogauer Str.", "anzlinien": 1, "code": "GLOG02"}, "geometry": {"type": "MultiPoint", "coordinates": [[13.4371788, 52.49353514]]}}, {"type": "Feature", "properties": {"id": "a_busstopp.101003219", "no": 101003219, "hstname": "Ohlauer Str.", "anzlinien": 1, "code": "OHL02"}, "geometry": {"type": "MultiPoint", "coordinates": [[13.4305475, 52.49551394]]}}, {"type": "Feature", "properties": {"id": "a_busstopp.101003220", "no": 101003220, "hstname": "Spreewaldplatz", "anzlinien": 1, "code": "SPWP02"}, "geometry": {"type": "MultiPoint", "coordinates": [[13.4310069, 52.49782884]]}}, {"type": "Feature", "properties": {"id": "a_busstopp.101003233", "no": 101003233, "hstname": "Peter-Anders-Str.", "anzlinien": 1, "code": "PAND01"}, "geometry": {"type": "MultiPoint", "coordinates": [[13.4753952, 52.46329154]]}}, {"type": "Feature", "properties": {"id": "a_busstopp.101003235", "no": 101003235, "hstname": "Sonnenallee/Pannierstr.", "anzlinien": 1, "code": "SAPA04"}, "geometry": {"type": "MultiPoint", "coordinates": [[13.4306292, 52.48607274]]}}, {"type": "Feature", "properties": {"id": "a_busstopp.101003236", "no": 101003236, "hstname": "Graefestr.", "anzlinien": 1, "code": "GRFE01"}, "geometry": {"type": "MultiPoint", "coordinates": [[13.4157382, 52.49118664]]}}, {"type": "Feature", "properties": {"id": "a_busstopp.101003238", "no": 101003238, "hstname": "Tempelherrenstr.", "anzlinien": 1, "code": "TMPH01"}, "geometry": {"type": "MultiPoint", "coordinates": [[13.4001432, 52.49451254]]}}, {"type": "Feature", "properties": {"id": "a_busstopp.101003242", "no": 101003242, "hstname": "Urbanstr./Baerwaldstr.", "anzlinien": 1, "code": "URBW04"}, "geometry": {"type": "MultiPoint", "coordinates": [[13.4039105, 52.49373154]]}}, {"type": "Feature", "properties": {"id": "a_busstopp.101003243", "no": 101003243, "hstname": "Graefestr.", "anzlinien": 1, "code": "GRFE02"}, "geometry": {"type": "MultiPoint", "coordinates": [[13.4158037, 52.49102674]]}}, {"type": "Feature", "properties": {"id": "a_busstopp.101003244", "no": 101003244, "hstname": "U Hermannplatz/Urbanstr.", "anzlinien": 3, "code": "UHPU03"}, "geometry": {"type": "MultiPoint", "coordinates": [[13.424654, 52.48799754]]}}, {"type": "Feature", "properties": {"id": "a_busstopp.101003245", "no": 101003245, "hstname": "Dammweg/Sonnenallee", "anzlinien": 1, "code": "DWSA02"}, "geometry": {"type": "MultiPoint", "coordinates": [[13.4631009, 52.47081774]]}}, {"type": "Feature", "properties": {"id": "a_busstopp.101003263", "no": 101003263, "hstname": "Lohmühlenplatz", "anzlinien": 1, "code": "LOHP02"}, "geometry": {"type": "MultiPoint", "coordinates": [[13.4403761, 52.48949084]]}}, {"type": "Feature", "properties": {"id": "a_busstopp.101003281", "no": 101003281, "hstname": "U Hermannplatz/Karl-Marx-Str.", "anzlinien": 1, "code": "UHPK01"}, "geometry": {"type": "MultiPoint", "coordinates": [[13.42572594, 52.48580931]]}}, {"type": "Feature", "properties": {"id": "a_busstopp.101003344", "no": 101003344, "hstname": "Mengerzeile", "anzlinien": 1, "code": "MENG02"}, "geometry": {"type": "MultiPoint", "coordinates": [[13.4437564, 52.48768704]]}}, {"type": "Feature", "properties": {"id": "a_busstopp.101003346", "no": 101003346, "hstname": "Harzer Str./Wildenbruchstr.", "anzlinien": 1, "code": "HAWB03"}, "geometry": {"type": "MultiPoint", "coordinates": [[13.4467304, 52.48616394]]}}, {"type": "Feature", "properties": {"id": "a_busstopp.101003358", "no": 101003358, "hstname": "Ziegrastr.", "anzlinien": 2, "code": "ZIEG02"}, "geometry": {"type": "MultiPoint", "coordinates": [[13.458658, 52.47242464]]}}, {"type": "Feature", "properties": {"id": "a_busstopp.101003434", "no": 101003434, "hstname": "Betriebshof Britz", "anzlinien": 1, "code": "BTRB05"}, "geometry": {"type": "MultiPoint", "coordinates": [[13.43469821, 52.45363666]]}}, {"type": "Feature", "properties": {"id": "a_busstopp.101003460", "no": 101003460, "hstname": "Zeitzer Str.", "anzlinien": 2, "code": "ZTZS01"}, "geometry": {"type": "MultiPoint", "coordinates": [[13.4460507, 52.47025554]]}}, {"type": "Feature", "properties": {"id": "a_busstopp.101003461", "no": 101003461, "hstname": "Zeitzer Str.", "anzlinien": 2, "code": "ZTZS02"}, "geometry": {"type": "MultiPoint", "coordinates": [[13.4462626, 52.47024684]]}}, {"type": "Feature", "properties": {"id": "a_busstopp.101003489", "no": 101003489, "hstname": "Fichtestr.", "anzlinien": 1, "code": "FICH01N"}, "geometry": {"type": "MultiPoint", "coordinates": [[13.4129351, 52.48844334]]}}, {"type": "Feature", "properties": {"id": "a_busstopp.101003490", "no": 101003490, "hstname": "U Südstern", "anzlinien": 1, "code": "USUE01N"}, "geometry": {"type": "MultiPoint", "coordinates": [[13.4083787, 52.48903534]]}}, {"type": "Feature", "properties": {"id": "a_busstopp.101003491", "no": 101003491, "hstname": "U Südstern", "anzlinien": 1, "code": "USUE02N"}, "geometry": {"type": "MultiPoint", "coordinates": [[13.4082426, 52.48887964]]}}, {"type": "Feature", "properties": {"id": "a_busstopp.101003492", "no": 101003492, "hstname": "Fichtestr.", "anzlinien": 1, "code": "FICH02N"}, "geometry": {"type": "MultiPoint", "coordinates": [[13.4134308, 52.48821324]]}}, {"type": "Feature", "properties": {"id": "a_busstopp.101003503", "no": 101003503, "hstname": "Rixdorfer Str./Ullsteinstr.", "anzlinien": 2, "code": "RIUL02"}, "geometry": {"type": "MultiPoint", "coordinates": [[13.408312, 52.45283944]]}}, {"type": "Feature", "properties": {"id": "a_busstopp.101003504", "no": 101003504, "hstname": "Industriestr.", "anzlinien": 2, "code": "INDU02"}, "geometry": {"type": "MultiPoint", "coordinates": [[13.409806, 52.45504394]]}}, {"type": "Feature", "properties": {"id": "a_busstopp.101003505", "no": 101003505, "hstname": "Saalburgstr.", "anzlinien": 2, "code": "SAAL02"}, "geometry": {"type": "MultiPoint", "coordinates": [[13.4113425, 52.45670844]]}}, {"type": "Feature", "properties": {"id": "a_busstopp.101003507", "no": 101003507, "hstname": "Mariendorfer Weg", "anzlinien": 2, "code": "MDFW02"}, "geometry": {"type": "MultiPoint", "coordinates": [[13.4238675, 52.46341844]]}}, {"type": "Feature", "properties": {"id": "a_busstopp.101003631", "no": 101003631, "hstname": "U Hermannplatz", "anzlinien": 1, "code": "UHP05N"}, "geometry": {"type": "MultiPoint", "coordinates": [[13.4242651, 52.48676474]]}}, {"type": "Feature", "properties": {"id": "a_busstopp.101003664", "no": 101003664, "hstname": "Peter-Anders-Str.", "anzlinien": 1, "code": "PAND02"}, "geometry": {"type": "MultiPoint", "coordinates": [[13.4748342, 52.46340674]]}}, {"type": "Feature", "properties": {"id": "a_busstopp.101003713", "no": 101003713, "hstname": "Jahnstr.", "anzlinien": 1, "code": "JAHN01"}, "geometry": {"type": "MultiPoint", "coordinates": [[13.4201092, 52.48995324]]}}, {"type": "Feature", "properties": {"id": "a_busstopp.101003714", "no": 101003714, "hstname": "Jahnstr.", "anzlinien": 1, "code": "JAHN02"}, "geometry": {"type": "MultiPoint", "coordinates": [[13.4203682, 52.48965354]]}}, {"type": "Feature", "properties": {"id": "a_busstopp.101003791", "no": 101003791, "hstname": "Chris-Gueffroy-Allee", "anzlinien": 1, "code": "CHGA02"}, "geometry": {"type": "MultiPoint", "coordinates": [[13.4721654, 52.46083664]]}}, {"type": "Feature", "properties": {"id": "a_busstopp.101003792", "no": 101003792, "hstname": "Schmalenbachstr.", "anzlinien": 1, "code": "SCMB01"}, "geometry": {"type": "MultiPoint", "coordinates": [[13.4681484, 52.46057974]]}}, {"type": "Feature", "properties": {"id": "a_busstopp.101003793", "no": 101003793, "hstname": "Nobelstr./Bergiusstr.", "anzlinien": 1, "code": "NOBG01"}, "geometry": {"type": "MultiPoint", "coordinates": [[13.4638181, 52.46069874]]}}, {"type": "Feature", "properties": {"id": "a_busstopp.101003795", "no": 101003795, "hstname": "Nobelstr./Bergiusstr.", "anzlinien": 1, "code": "NOBG02"}, "geometry": {"type": "MultiPoint", "coordinates": [[13.463786, 52.46063584]]}}, {"type": "Feature", "properties": {"id": "a_busstopp.101003796", "no": 101003796, "hstname": "Schmalenbachstr.", "anzlinien": 1, "code": "SCMB02"}, "geometry": {"type": "MultiPoint", "coordinates": [[13.4678985, 52.46052184]]}}, {"type": "Feature", "properties": {"id": "a_busstopp.101003866", "no": 101003866, "hstname": "Lausitzer Platz", "anzlinien": 1, "code": "LAUP01N"}, "geometry": {"type": "MultiPoint", "coordinates": [[13.4326211, 52.49942484]]}}, {"type": "Feature", "properties": {"id": "a_busstopp.101003867", "no": 101003867, "hstname": "Lausitzer Platz", "anzlinien": 1, "code": "LAUP02N"}, "geometry": {"type": "MultiPoint", "coordinates": [[13.4315196, 52.49943194]]}}, {"type": "Feature", "properties": {"id": "a_busstopp.101003927", "no": 101003927, "hstname": "Treptower Str./Harzer Str.", "anzlinien": 1, "code": "TWHZ01"}, "geometry": {"type": "MultiPoint", "coordinates": [[13.4534298, 52.48279844]]}}, {"type": "Feature", "properties": {"id": "a_busstopp.101003928", "no": 101003928, "hstname": "Brockenstr.", "anzlinien": 1, "code": "BROC02"}, "geometry": {"type": "MultiPoint", "coordinates": [[13.4506259, 52.48424034]]}}, {"type": "Feature", "properties": {"id": "a_busstopp.101003929", "no": 101003929, "hstname": "Treptower Str./Harzer Str.", "anzlinien": 1, "code": "TWHZ02"}, "geometry": {"type": "MultiPoint", "coordinates": [[13.4537251, 52.48257604]]}}, {"type": "Feature", "properties": {"id": "a_busstopp.101003984", "no": 101003984, "hstname": "U Karl-Marx-Str.", "anzlinien": 1, "code": "UKMS01N"}, "geometry": {"type": "MultiPoint", "coordinates": [[13.4393108, 52.47618974]]}}, {"type": "Feature", "properties": {"id": "a_busstopp.101003985", "no": 101003985, "hstname": "Karl-Marx-Platz", "anzlinien": 1, "code": "KMPL01N"}, "geometry": {"type": "MultiPoint", "coordinates": [[13.440381, 52.47403104]]}}, {"type": "Feature", "properties": {"id": "a_busstopp.101003986", "no": 101003986, "hstname": "U Karl-Marx-Str.", "anzlinien": 1, "code": "UKMS02N"}, "geometry": {"type": "MultiPoint", "coordinates": [[13.4394724, 52.47624664]]}}, {"type": "Feature", "properties": {"id": "a_busstopp.101004038", "no": 101004038, "hstname": "Karl-Marx-Platz", "anzlinien": 1, "code": "KMPL02N"}, "geometry": {"type": "MultiPoint", "coordinates": [[13.4404882, 52.47408424]]}}, {"type": "Feature", "properties": {"id": "a_busstopp.101004040", "no": 101004040, "hstname": "Bambachstr.", "anzlinien": 1, "code": "BAMB01"}, "geometry": {"type": "MultiPoint", "coordinates": [[13.4270905, 52.46585394]]}}, {"type": "Feature", "properties": {"id": "a_busstopp.101004041", "no": 101004041, "hstname": "Bambachstr.", "anzlinien": 1, "code": "BAMB02"}, "geometry": {"type": "MultiPoint", "coordinates": [[13.4263064, 52.46580134]]}}, {"type": "Feature", "properties": {"id": "a_busstopp.101004046", "no": 101004046, "hstname": "Harzer Str./Wildenbruchstr.", "anzlinien": 2, "code": "HAWB04"}, "geometry": {"type": "MultiPoint", "coordinates": [[13.44658, 52.48660044]]}}, {"type": "Feature", "properties": {"id": "a_busstopp.101004050", "no": 101004050, "hstname": "Oberlandstr. Mitte", "anzlinien": 1, "code": "OBMI01"}, "geometry": {"type": "MultiPoint", "coordinates": [[13.4107587, 52.46417354]]}}, {"type": "Feature", "properties": {"id": "a_busstopp.101004051", "no": 101004051, "hstname": "Oberlandstr. Mitte", "anzlinien": 1, "code": "OBMI02"}, "geometry": {"type": "MultiPoint", "coordinates": [[13.4100953, 52.46414264]]}}, {"type": "Feature", "properties": {"id": "a_busstopp.101004107", "no": 101004107, "hstname": "S+U Hermannstr.", "anzlinien": 6, "code": "SUHM02"}, "geometry": {"type": "MultiPoint", "coordinates": [[13.4314149, 52.46752994]]}}, {"type": "Feature", "properties": {"id": "a_busstopp.101004108", "no": 101004108, "hstname": "S+U Hermannstr.", "anzlinien": 3, "code": "SUHM03"}, "geometry": {"type": "MultiPoint", "coordinates": [[13.43032842, 52.46775296]]}}, {"type": "Feature", "properties": {"id": "a_busstopp.101004129", "no": 101004129, "hstname": "Hasenheide", "anzlinien": 1, "code": "HSHD01N"}, "geometry": {"type": "MultiPoint", "coordinates": [[13.4193893, 52.48743394]]}}, {"type": "Feature", "properties": {"id": "a_busstopp.101004149", "no": 101004149, "hstname": "Emser Str.", "anzlinien": 2, "code": "EMSS01"}, "geometry": {"type": "MultiPoint", "coordinates": [[13.4357441, 52.46885624]]}}, {"type": "Feature", "properties": {"id": "a_busstopp.101004171", "no": 101004171, "hstname": "Hasenheide", "anzlinien": 1, "code": "HSHD02N"}, "geometry": {"type": "MultiPoint", "coordinates": [[13.4190218, 52.48764804]]}}, {"type": "Feature", "properties": {"id": "a_busstopp.101004204", "no": 101004204, "hstname": "Steinbockstr.", "anzlinien": 2, "code": "STBK01"}, "geometry": {"type": "MultiPoint", "coordinates": [[13.4674508, 52.47164144]]}}, {"type": "Feature", "properties": {"id": "a_busstopp.101004205", "no": 101004205, "hstname": "Steinbockstr.", "anzlinien": 2, "code": "STBK02"}, "geometry": {"type": "MultiPoint", "coordinates": [[13.4678966, 52.47207964]]}}, {"type": "Feature", "properties": {"id": "a_busstopp.101004206", "no": 101004206, "hstname": "Emser Str.", "anzlinien": 2, "code": "EMSS02"}, "geometry": {"type": "MultiPoint", "coordinates": [[13.4347059, 52.46902174]]}}, {"type": "Feature", "properties": {"id": "a_busstopp.101004209", "no": 101004209, "hstname": "Rixdorfer Str./Ullsteinstr.", "anzlinien": 1, "code": "RIUL03"}, "geometry": {"type": "MultiPoint", "coordinates": [[13.4071966, 52.45262534]]}}, {"type": "Feature", "properties": {"id": "a_busstopp.101004218", "no": 101004218, "hstname": "Rixdorfer Str./Ullsteinstr.", "anzlinien": 1, "code": "RIUL04"}, "geometry": {"type": "MultiPoint", "coordinates": [[13.4087422, 52.45239274]]}}, {"type": "Feature", "properties": {"id": "a_busstopp.101004244", "no": 101004244, "hstname": "U Hermannplatz/Sonnenallee", "anzlinien": 4, "code": "UHPS02"}, "geometry": {"type": "MultiPoint", "coordinates": [[13.4261448, 52.48746804]]}}, {"type": "Feature", "properties": {"id": "a_busstopp.101004245", "no": 101004245, "hstname": "U Hermannplatz/Sonnenallee", "anzlinien": 1, "code": "UHPS04"}, "geometry": {"type": "MultiPoint", "coordinates": [[13.4264647, 52.48735534]]}}, {"type": "Feature", "properties": {"id": "a_busstopp.101004315", "no": 101004315, "hstname": "Haus Bremen", "anzlinien": 2, "code": "HABR02"}, "geometry": {"type": "MultiPoint", "coordinates": [[13.4275933, 52.46397114]]}}, {"type": "Feature", "properties": {"id": "a_busstopp.101004387", "no": 101004387, "hstname": "U Görlitzer Bahnhof", "anzlinien": 1, "code": "UGR05N"}, "geometry": {"type": "MultiPoint", "coordinates": [[13.4253907, 52.49908834]]}}, {"type": "Feature", "properties": {"id": "a_busstopp.101004423", "no": 101004423, "hstname": "U Hermannplatz", "anzlinien": 2, "code": "UHP06"}, "geometry": {"type": "MultiPoint", "coordinates": [[13.4250309, 52.48702044]]}}, {"type": "Feature", "properties": {"id": "a_busstopp.101004424", "no": 101004424, "hstname": "Dammweg/Sonnenallee", "anzlinien": 2, "code": "DWSA03"}, "geometry": {"type": "MultiPoint", "coordinates": [[13.4640543, 52.47008034]]}}, {"type": "Feature", "properties": {"id": "a_busstopp.101004426", "no": 101004426, "hstname": "Dammweg/Sonnenallee", "anzlinien": 2, "code": "DWSA04"}, "geometry": {"type": "MultiPoint", "coordinates": [[13.4652242, 52.47047734]]}}, {"type": "Feature", "properties": {"id": "a_busstopp.101004428", "no": 101004428, "hstname": "Haberstr.", "anzlinien": 1, "code": "HBER01"}, "geometry": {"type": "MultiPoint", "coordinates": [[13.461224, 52.46235324]]}}, {"type": "Feature", "properties": {"id": "a_busstopp.101004429", "no": 101004429, "hstname": "Boschweg", "anzlinien": 1, "code": "BSHW01"}, "geometry": {"type": "MultiPoint", "coordinates": [[13.4646309, 52.46411304]]}}, {"type": "Feature", "properties": {"id": "a_busstopp.101004431", "no": 101004431, "hstname": "Planetenstr.", "anzlinien": 1, "code": "PLNT02"}, "geometry": {"type": "MultiPoint", "coordinates": [[13.4647847, 52.46712734]]}}, {"type": "Feature", "properties": {"id": "a_busstopp.101004432", "no": 101004432, "hstname": "Boschweg", "anzlinien": 1, "code": "BSHW02"}, "geometry": {"type": "MultiPoint", "coordinates": [[13.4645352, 52.46414704]]}}, {"type": "Feature", "properties": {"id": "a_busstopp.101004433", "no": 101004433, "hstname": "Haberstr.", "anzlinien": 1, "code": "HBER02"}, "geometry": {"type": "MultiPoint", "coordinates": [[13.4609769, 52.46231964]]}}, {"type": "Feature", "properties": {"id": "a_busstopp.101004434", "no": 101004434, "hstname": "S Sonnenallee/Saalestr.", "anzlinien": 1, "code": "SSSA01"}, "geometry": {"type": "MultiPoint", "coordinates": [[13.45536628, 52.47316588]]}}, {"type": "Feature", "properties": {"id": "a_busstopp.101004435", "no": 101004435, "hstname": "S Sonnenallee/Saalestr.", "anzlinien": 2, "code": "SSSA03"}, "geometry": {"type": "MultiPoint", "coordinates": [[13.4551569, 52.47282844]]}}, {"type": "Feature", "properties": {"id": "a_busstopp.101005187", "no": 101005187, "hstname": "Tunnelstr.", "anzlinien": 1, "code": "TSTR01"}, "geometry": {"type": "MultiPoint", "coordinates": [[13.48114056, 52.48964774]]}}, {"type": "Feature", "properties": {"id": "a_busstopp.101005188", "no": 101005188, "hstname": "Alt-Stralau", "anzlinien": 2, "code": "ASTR01"}, "geometry": {"type": "MultiPoint", "coordinates": [[13.476777, 52.49270044]]}}, {"type": "Feature", "properties": {"id": "a_busstopp.101005189", "no": 101005189, "hstname": "Friedrich-Junge-Str.", "anzlinien": 2, "code": "FRJU01"}, "geometry": {"type": "MultiPoint", "coordinates": [[13.4718616, 52.49378054]]}}, {"type": "Feature", "properties": {"id": "a_busstopp.101005190", "no": 101005190, "hstname": "Glasbläserallee", "anzlinien": 2, "code": "GLBL01"}, "geometry": {"type": "MultiPoint", "coordinates": [[13.4679443, 52.49566074]]}}, {"type": "Feature", "properties": {"id": "a_busstopp.101005191", "no": 101005191, "hstname": "Markgrafendamm", "anzlinien": 3, "code": "MGDM01"}, "geometry": {"type": "MultiPoint", "coordinates": [[13.4660478, 52.49971304]]}}, {"type": "Feature", "properties": {"id": "a_busstopp.101005198", "no": 101005198, "hstname": "Köpenicker Landstr./Schnellerstr.", "anzlinien": 3, "code": "KLSC01"}, "geometry": {"type": "MultiPoint", "coordinates": [[13.4978601, 52.46451964]]}}, {"type": "Feature", "properties": {"id": "a_busstopp.101005206", "no": 101005206, "hstname": "Markgrafendamm", "anzlinien": 3, "code": "MGDM02"}, "geometry": {"type": "MultiPoint", "coordinates": [[13.4657563, 52.49929834]]}}, {"type": "Feature", "properties": {"id": "a_busstopp.101005207", "no": 101005207, "hstname": "Glasbläserallee", "anzlinien": 2, "code": "GLBL02"}, "geometry": {"type": "MultiPoint", "coordinates": [[13.4677291, 52.49573774]]}}, {"type": "Feature", "properties": {"id": "a_busstopp.101005208", "no": 101005208, "hstname": "Friedrich-Junge-Str.", "anzlinien": 2, "code": "FRJU02"}, "geometry": {"type": "MultiPoint", "coordinates": [[13.4726813, 52.49347604]]}}, {"type": "Feature", "properties": {"id": "a_busstopp.101005209", "no": 101005209, "hstname": "Alt-Stralau", "anzlinien": 2, "code": "ASTR02"}, "geometry": {"type": "MultiPoint", "coordinates": [[13.4764604, 52.49270724]]}}, {"type": "Feature", "properties": {"id": "a_busstopp.101005236", "no": 101005236, "hstname": "Tunnelstr.", "anzlinien": 2, "code": "TSTR03"}, "geometry": {"type": "MultiPoint", "coordinates": [[13.4806095, 52.49044504]]}}, {"type": "Feature", "properties": {"id": "a_busstopp.101005237", "no": 101005237, "hstname": "Eichenstr./Puschkinallee", "anzlinien": 1, "code": "EIPU01"}, "geometry": {"type": "MultiPoint", "coordinates": [[13.45360422, 52.49431429]]}}, {"type": "Feature", "properties": {"id": "a_busstopp.101005594", "no": 101005594, "hstname": "Sonnenallee/Baumschulenstr.", "anzlinien": 2, "code": "SABS04"}, "geometry": {"type": "MultiPoint", "coordinates": [[13.4818272, 52.46121104]]}}, {"type": "Feature", "properties": {"id": "a_busstopp.101005612", "no": 101005612, "hstname": "Kiefholzstr./Baumschulenstr.", "anzlinien": 3, "code": "KIBA01"}, "geometry": {"type": "MultiPoint", "coordinates": [[13.4862643, 52.46497644]]}}, {"type": "Feature", "properties": {"id": "a_busstopp.101005613", "no": 101005613, "hstname": "Kiefholzstr./Baumschulenstr.", "anzlinien": 3, "code": "KIBA02"}, "geometry": {"type": "MultiPoint", "coordinates": [[13.4875209, 52.46590534]]}}, {"type": "Feature", "properties": {"id": "a_busstopp.101005620", "no": 101005620, "hstname": "Baumschulenstr./Fähre", "anzlinien": 1, "code": "BFAE01"}, "geometry": {"type": "MultiPoint", "coordinates": [[13.49400659, 52.47132472]]}}, {"type": "Feature", "properties": {"id": "a_busstopp.101005734", "no": 101005734, "hstname": "Bouchéstr.", "anzlinien": 2, "code": "BOUC01"}, "geometry": {"type": "MultiPoint", "coordinates": [[13.4480898, 52.49073204]]}}, {"type": "Feature", "properties": {"id": "a_busstopp.101005735", "no": 101005735, "hstname": "Elsenstr./Kiefholzstr.", "anzlinien": 4, "code": "ELKI01"}, "geometry": {"type": "MultiPoint", "coordinates": [[13.4530838, 52.48957034]]}}, {"type": "Feature", "properties": {"id": "a_busstopp.101005736", "no": 101005736, "hstname": "Beermannstr.", "anzlinien": 4, "code": "BEER01"}, "geometry": {"type": "MultiPoint", "coordinates": [[13.4570805, 52.49117304]]}}, {"type": "Feature", "properties": {"id": "a_busstopp.101005737", "no": 101005737, "hstname": "Herkomerstr.", "anzlinien": 5, "code": "HERK01"}, "geometry": {"type": "MultiPoint", "coordinates": [[13.4637455, 52.48756524]]}}, {"type": "Feature", "properties": {"id": "a_busstopp.101005738", "no": 101005738, "hstname": "Klingerstr.", "anzlinien": 5, "code": "KLIN01"}, "geometry": {"type": "MultiPoint", "coordinates": [[13.4696644, 52.48357334]]}}, {"type": "Feature", "properties": {"id": "a_busstopp.101005739", "no": 101005739, "hstname": "Bulgarische Str.", "anzlinien": 5, "code": "BULG01"}, "geometry": {"type": "MultiPoint", "coordinates": [[13.4789857, 52.48424944]]}}, {"type": "Feature", "properties": {"id": "a_busstopp.101005740", "no": 101005740, "hstname": "Alt-Treptow", "anzlinien": 5, "code": "ALTR01"}, "geometry": {"type": "MultiPoint", "coordinates": [[13.4771802, 52.48709234]]}}, {"type": "Feature", "properties": {"id": "a_busstopp.101005741", "no": 101005741, "hstname": "Sowjetisches Ehrenmal", "anzlinien": 5, "code": "SOWJ01"}, "geometry": {"type": "MultiPoint", "coordinates": [[13.4694226, 52.48986184]]}}, {"type": "Feature", "properties": {"id": "a_busstopp.101005742", "no": 101005742, "hstname": "Elsenstr./S Treptower Park", "anzlinien": 8, "code": "ELTP01"}, "geometry": {"type": "MultiPoint", "coordinates": [[13.458267, 52.49236284]]}}, {"type": "Feature", "properties": {"id": "a_busstopp.101005743", "no": 101005743, "hstname": "Elsenstr./Kiefholzstr.", "anzlinien": 4, "code": "ELKI02"}, "geometry": {"type": "MultiPoint", "coordinates": [[13.4534249, 52.48856074]]}}, {"type": "Feature", "properties": {"id": "a_busstopp.101005744", "no": 101005744, "hstname": "Bouchéstr.", "anzlinien": 2, "code": "BOUC02"}, "geometry": {"type": "MultiPoint", "coordinates": [[13.4481588, 52.49077444]]}}, {"type": "Feature", "properties": {"id": "a_busstopp.101005746", "no": 101005746, "hstname": "S Plänterwald", "anzlinien": 6, "code": "SPW02"}, "geometry": {"type": "MultiPoint", "coordinates": [[13.4762652, 52.47913344]]}}, {"type": "Feature", "properties": {"id": "a_busstopp.101005747", "no": 101005747, "hstname": "Köpenicker Landstr./Dammweg", "anzlinien": 4, "code": "KLDA01"}, "geometry": {"type": "MultiPoint", "coordinates": [[13.4791698, 52.47718614]]}}, {"type": "Feature", "properties": {"id": "a_busstopp.101005748", "no": 101005748, "hstname": "Eichbuschal./Köpenicker Landstr.", "anzlinien": 4, "code": "EIKL01"}, "geometry": {"type": "MultiPoint", "coordinates": [[13.4835299, 52.47424114]]}}, {"type": "Feature", "properties": {"id": "a_busstopp.101005749", "no": 101005749, "hstname": "Köpenicker Landstr./Sportplatz", "anzlinien": 3, "code": "KLSP01"}, "geometry": {"type": "MultiPoint", "coordinates": [[13.4876417, 52.47147814]]}}, {"type": "Feature", "properties": {"id": "a_busstopp.101005750", "no": 101005750, "hstname": "Baumschulenstr./Köpenicker Landstr.", "anzlinien": 4, "code": "BSKS02"}, "geometry": {"type": "MultiPoint", "coordinates": [[13.4921495, 52.46844854]]}}, {"type": "Feature", "properties": {"id": "a_busstopp.101005767", "no": 101005767, "hstname": "Marggraffbrücke", "anzlinien": 4, "code": "MGGB02"}, "geometry": {"type": "MultiPoint", "coordinates": [[13.4938031, 52.46760294]]}}, {"type": "Feature", "properties": {"id": "a_busstopp.101005768", "no": 101005768, "hstname": "Baumschulenstr./Köpenicker Landstr.", "anzlinien": 3, "code": "BSKS03"}, "geometry": {"type": "MultiPoint", "coordinates": [[13.4909499, 52.46952374]]}}, {"type": "Feature", "properties": {"id": "a_busstopp.101005769", "no": 101005769, "hstname": "Köpenicker Landstr./Sportplatz", "anzlinien": 3, "code": "KLSP02"}, "geometry": {"type": "MultiPoint", "coordinates": [[13.4882204, 52.47135564]]}}, {"type": "Feature", "properties": {"id": "a_busstopp.101005770", "no": 101005770, "hstname": "Eichbuschal./Köpenicker Landstr.", "anzlinien": 4, "code": "EIKL02"}, "geometry": {"type": "MultiPoint", "coordinates": [[13.4833683, 52.47461474]]}}, {"type": "Feature", "properties": {"id": "a_busstopp.101005771", "no": 101005771, "hstname": "Köpenicker Landstr./Dammweg", "anzlinien": 6, "code": "KLDA02"}, "geometry": {"type": "MultiPoint", "coordinates": [[13.4783811, 52.47799124]]}}, {"type": "Feature", "properties": {"id": "a_busstopp.101005772", "no": 101005772, "hstname": "S Plänterwald", "anzlinien": 4, "code": "SPW03"}, "geometry": {"type": "MultiPoint", "coordinates": [[13.4749099, 52.48033774]]}}, {"type": "Feature", "properties": {"id": "a_busstopp.101005776", "no": 101005776, "hstname": "Heidelberger Str.", "anzlinien": 2, "code": "HDBG01"}, "geometry": {"type": "MultiPoint", "coordinates": [[13.4501845, 52.48895584]]}}, {"type": "Feature", "properties": {"id": "a_busstopp.101005777", "no": 101005777, "hstname": "Bergaustr.", "anzlinien": 1, "code": "BGAU01"}, "geometry": {"type": "MultiPoint", "coordinates": [[13.4807404, 52.47265154]]}}, {"type": "Feature", "properties": {"id": "a_busstopp.101005778", "no": 101005778, "hstname": "Hänselstr.", "anzlinien": 1, "code": "HASL01"}, "geometry": {"type": "MultiPoint", "coordinates": [[13.480982, 52.46991724]]}}, {"type": "Feature", "properties": {"id": "a_busstopp.101005779", "no": 101005779, "hstname": "Mosischstr.", "anzlinien": 1, "code": "MOSI01"}, "geometry": {"type": "MultiPoint", "coordinates": [[13.4844614, 52.46740514]]}}, {"type": "Feature", "properties": {"id": "a_busstopp.101005780", "no": 101005780, "hstname": "Marientaler Str.", "anzlinien": 1, "code": "MATA01"}, "geometry": {"type": "MultiPoint", "coordinates": [[13.4880804, 52.46484914]]}}, {"type": "Feature", "properties": {"id": "a_busstopp.101005781", "no": 101005781, "hstname": "Krematorium Baumschulenweg", "anzlinien": 1, "code": "KREM01"}, "geometry": {"type": "MultiPoint", "coordinates": [[13.4943248, 52.46044744]]}}, {"type": "Feature", "properties": {"id": "a_busstopp.101005786", "no": 101005786, "hstname": "Krematorium Baumschulenweg", "anzlinien": 1, "code": "KREM02"}, "geometry": {"type": "MultiPoint", "coordinates": [[13.4935977, 52.46104784]]}}, {"type": "Feature", "properties": {"id": "a_busstopp.101005787", "no": 101005787, "hstname": "Marientaler Str.", "anzlinien": 1, "code": "MATA02"}, "geometry": {"type": "MultiPoint", "coordinates": [[13.4895046, 52.46393594]]}}, {"type": "Feature", "properties": {"id": "a_busstopp.101005788", "no": 101005788, "hstname": "Mosischstr.", "anzlinien": 1, "code": "MOSI02"}, "geometry": {"type": "MultiPoint", "coordinates": [[13.4836087, 52.46809704]]}}, {"type": "Feature", "properties": {"id": "a_busstopp.101005789", "no": 101005789, "hstname": "Hänselstr.", "anzlinien": 1, "code": "HASL02"}, "geometry": {"type": "MultiPoint", "coordinates": [[13.4807607, 52.47009484]]}}, {"type": "Feature", "properties": {"id": "a_busstopp.101005790", "no": 101005790, "hstname": "Bergaustr.", "anzlinien": 1, "code": "BGAU02"}, "geometry": {"type": "MultiPoint", "coordinates": [[13.4802028, 52.47234534]]}}, {"type": "Feature", "properties": {"id": "a_busstopp.101005791", "no": 101005791, "hstname": "Heidelberger Str.", "anzlinien": 2, "code": "HDBG02"}, "geometry": {"type": "MultiPoint", "coordinates": [[13.4489053, 52.48819634]]}}, {"type": "Feature", "properties": {"id": "a_busstopp.101006031", "no": 101006031, "hstname": "Elsenstr./S Treptower Park", "anzlinien": 6, "code": "ELTP02"}, "geometry": {"type": "MultiPoint", "coordinates": [[13.4584628, 52.49315754]]}}, {"type": "Feature", "properties": {"id": "a_busstopp.101006032", "no": 101006032, "hstname": "Eichenstr./Puschkinallee", "anzlinien": 4, "code": "EIPU05"}, "geometry": {"type": "MultiPoint", "coordinates": [[13.453936, 52.49450614]]}}, {"type": "Feature", "properties": {"id": "a_busstopp.101006129", "no": 101006129, "hstname": "Rethelstr.", "anzlinien": 5, "code": "RETE01"}, "geometry": {"type": "MultiPoint", "coordinates": [[13.4666084, 52.48563704]]}}, {"type": "Feature", "properties": {"id": "a_busstopp.101006243", "no": 101006243, "hstname": "S Treptower Park", "anzlinien": 3, "code": "STP01"}, "geometry": {"type": "MultiPoint", "coordinates": [[13.4607043, 52.49415004]]}}, {"type": "Feature", "properties": {"id": "a_busstopp.101006286", "no": 101006286, "hstname": "Bootsbauerstr.", "anzlinien": 1, "code": "BOOT01"}, "geometry": {"type": "MultiPoint", "coordinates": [[13.4728546, 52.49613184]]}}, {"type": "Feature", "properties": {"id": "a_busstopp.101006287", "no": 101006287, "hstname": "Krachtstr.", "anzlinien": 1, "code": "KRAC01"}, "geometry": {"type": "MultiPoint", "coordinates": [[13.4704223, 52.49690874]]}}, {"type": "Feature", "properties": {"id": "a_busstopp.101006300", "no": 101006300, "hstname": "Eichenstr./Puschkinallee", "anzlinien": 4, "code": "EIPU02"}, "geometry": {"type": "MultiPoint", "coordinates": [[13.4538725, 52.49416814]]}}, {"type": "Feature", "properties": {"id": "a_busstopp.101006301", "no": 101006301, "hstname": "Neue Krugallee/Dammweg", "anzlinien": 1, "code": "NKDA01"}, "geometry": {"type": "MultiPoint", "coordinates": [[13.4830548, 52.48049084]]}}, {"type": "Feature", "properties": {"id": "a_busstopp.101006302", "no": 101006302, "hstname": "Eichbuschallee", "anzlinien": 1, "code": "EBUA01"}, "geometry": {"type": "MultiPoint", "coordinates": [[13.4868791, 52.47623124]]}}, {"type": "Feature", "properties": {"id": "a_busstopp.101006303", "no": 101006303, "hstname": "Lakegrund", "anzlinien": 1, "code": "LAGR01"}, "geometry": {"type": "MultiPoint", "coordinates": [[13.4908413, 52.47181344]]}}, {"type": "Feature", "properties": {"id": "a_busstopp.101006305", "no": 101006305, "hstname": "Baumschulenstr./Königsheideweg", "anzlinien": 1, "code": "BAKH01"}, "geometry": {"type": "MultiPoint", "coordinates": [[13.4767826, 52.45549464]]}}, {"type": "Feature", "properties": {"id": "a_busstopp.101006306", "no": 101006306, "hstname": "Mahonienweg", "anzlinien": 1, "code": "MAHO01"}, "geometry": {"type": "MultiPoint", "coordinates": [[13.4812508, 52.45263704]]}}, {"type": "Feature", "properties": {"id": "a_busstopp.101006307", "no": 101006307, "hstname": "Westweg", "anzlinien": 2, "code": "WWEG01"}, "geometry": {"type": "MultiPoint", "coordinates": [[13.4893006, 52.45098134]]}}, {"type": "Feature", "properties": {"id": "a_busstopp.101006317", "no": 101006317, "hstname": "Westweg", "anzlinien": 2, "code": "WWEG02"}, "geometry": {"type": "MultiPoint", "coordinates": [[13.4886746, 52.45127904]]}}, {"type": "Feature", "properties": {"id": "a_busstopp.101006318", "no": 101006318, "hstname": "Mahonienweg", "anzlinien": 1, "code": "MAHO02"}, "geometry": {"type": "MultiPoint", "coordinates": [[13.4801212, 52.45349654]]}}, {"type": "Feature", "properties": {"id": "a_busstopp.101006319", "no": 101006319, "hstname": "Baumschulenstr./Königsheideweg", "anzlinien": 1, "code": "BAKH02"}, "geometry": {"type": "MultiPoint", "coordinates": [[13.4766218, 52.45561664]]}}, {"type": "Feature", "properties": {"id": "a_busstopp.101006320", "no": 101006320, "hstname": "Baumschulenstr./Köpenicker Landstr.", "anzlinien": 3, "code": "BSKS04"}, "geometry": {"type": "MultiPoint", "coordinates": [[13.4921926, 52.46976784]]}}, {"type": "Feature", "properties": {"id": "a_busstopp.101006321", "no": 101006321, "hstname": "Lakegrund", "anzlinien": 1, "code": "LAGR02"}, "geometry": {"type": "MultiPoint", "coordinates": [[13.4907523, 52.47205954]]}}, {"type": "Feature", "properties": {"id": "a_busstopp.101006322", "no": 101006322, "hstname": "Eichbuschallee", "anzlinien": 1, "code": "EBUA02"}, "geometry": {"type": "MultiPoint", "coordinates": [[13.4871623, 52.47602034]]}}, {"type": "Feature", "properties": {"id": "a_busstopp.101006323", "no": 101006323, "hstname": "Neue Krugallee/Dammweg", "anzlinien": 1, "code": "NKDA02"}, "geometry": {"type": "MultiPoint", "coordinates": [[13.4839791, 52.47961574]]}}, {"type": "Feature", "properties": {"id": "a_busstopp.101006324", "no": 101006324, "hstname": "Rathaus Treptow", "anzlinien": 1, "code": "RATR02"}, "geometry": {"type": "MultiPoint", "coordinates": [[13.4808723, 52.48308074]]}}, {"type": "Feature", "properties": {"id": "a_busstopp.101006412", "no": 101006412, "hstname": "Rathaus Treptow", "anzlinien": 1, "code": "RATR01"}, "geometry": {"type": "MultiPoint", "coordinates": [[13.481078, 52.48275664]]}}, {"type": "Feature", "properties": {"id": "a_busstopp.101006433", "no": 101006433, "hstname": "Baumschulenstr./Köpenicker Landstr.", "anzlinien": 3, "code": "BSKS01"}, "geometry": {"type": "MultiPoint", "coordinates": [[13.4919545, 52.46968754]]}}, {"type": "Feature", "properties": {"id": "a_busstopp.101006488", "no": 101006488, "hstname": "S Treptower Park", "anzlinien": 5, "code": "STP04"}, "geometry": {"type": "MultiPoint", "coordinates": [[13.4621859, 52.49206724]]}}, {"type": "Feature", "properties": {"id": "a_busstopp.101006495", "no": 101006495, "hstname": "Krachtstr.", "anzlinien": 1, "code": "KRAC02"}, "geometry": {"type": "MultiPoint", "coordinates": [[13.4698629, 52.49687924]]}}, {"type": "Feature", "properties": {"id": "a_busstopp.101006496", "no": 101006496, "hstname": "Bootsbauerstr.", "anzlinien": 1, "code": "BOOT02"}, "geometry": {"type": "MultiPoint", "coordinates": [[13.4730786, 52.49563614]]}}, {"type": "Feature", "properties": {"id": "a_busstopp.101006622", "no": 101006622, "hstname": "Baumschulenstr./Königsheideweg", "anzlinien": 1, "code": "BAKH03"}, "geometry": {"type": "MultiPoint", "coordinates": [[13.4742597, 52.45550214]]}}, {"type": "Feature", "properties": {"id": "a_busstopp.101006623", "no": 101006623, "hstname": "Baumschulenstr./Königsheideweg", "anzlinien": 1, "code": "BAKH04"}, "geometry": {"type": "MultiPoint", "coordinates": [[13.4749248, 52.45588494]]}}, {"type": "Feature", "properties": {"id": "a_busstopp.101006700", "no": 101006700, "hstname": "S Baumschulenweg", "anzlinien": 1, "code": "SBAW04"}, "geometry": {"type": "MultiPoint", "coordinates": [[13.49082305, 52.46719533]]}}, {"type": "Feature", "properties": {"id": "a_busstopp.101006710", "no": 101006710, "hstname": "S Baumschulenweg", "anzlinien": 1, "code": "SBAW05"}, "geometry": {"type": "MultiPoint", "coordinates": [[13.4900858, 52.46772544]]}}, {"type": "Feature", "properties": {"id": "a_busstopp.101006754", "no": 101006754, "hstname": "Kosanke-Siedlung", "anzlinien": 1, "code": "KOSS03N"}, "geometry": {"type": "MultiPoint", "coordinates": [[13.4848473, 52.49707064]]}}, {"type": "Feature", "properties": {"id": "a_busstopp.101006755", "no": 101006755, "hstname": "Kosanke-Siedlung", "anzlinien": 1, "code": "KOSS04N"}, "geometry": {"type": "MultiPoint", "coordinates": [[13.4850517, 52.49716164]]}}, {"type": "Feature", "properties": {"id": "a_busstopp.101006756", "no": 101006756, "hstname": "Gustav-Holzmann-Str.", "anzlinien": 1, "code": "GHZM03N"}, "geometry": {"type": "MultiPoint", "coordinates": [[13.4906081, 52.49306754]]}}, {"type": "Feature", "properties": {"id": "a_busstopp.101006757", "no": 101006757, "hstname": "Gustav-Holzmann-Str.", "anzlinien": 1, "code": "GHZM04N"}, "geometry": {"type": "MultiPoint", "coordinates": [[13.4907136, 52.49323124]]}}, {"type": "Feature", "properties": {"id": "a_busstopp.101006759", "no": 101006759, "hstname": "Heizkraftwerk Klingenberg", "anzlinien": 1, "code": "HKFW01N"}, "geometry": {"type": "MultiPoint", "coordinates": [[13.4963605, 52.48756884]]}}, {"type": "Feature", "properties": {"id": "a_busstopp.101006760", "no": 101006760, "hstname": "Heizkraftwerk Klingenberg", "anzlinien": 1, "code": "HKFW02N"}, "geometry": {"type": "MultiPoint", "coordinates": [[13.4965308, 52.48771904]]}}, {"type": "Feature", "properties": {"id": "a_busstopp.101006825", "no": 101006825, "hstname": "Tunnelstr.", "anzlinien": 1, "code": "TSTR02"}, "geometry": {"type": "MultiPoint", "coordinates": [[13.4810227, 52.4901185]]}}, {"type": "Feature", "properties": {"id": "a_busstopp.101006829", "no": 101006829, "hstname": "Späthstr./Ligusterweg", "anzlinien": 1, "code": "SPLI01"}, "geometry": {"type": "MultiPoint", "coordinates": [[13.4684206, 52.45194834]]}}, {"type": "Feature", "properties": {"id": "a_busstopp.101006830", "no": 101006830, "hstname": "Späthstr./Ligusterweg", "anzlinien": 1, "code": "SPLI02"}, "geometry": {"type": "MultiPoint", "coordinates": [[13.4690795, 52.45196984]]}}, {"type": "Feature", "properties": {"id": "a_busstopp.101006865", "no": 101006865, "hstname": "Tunnelstr.", "anzlinien": 2, "code": "TSTR04"}, "geometry": {"type": "MultiPoint", "coordinates": [[13.4808913, 52.49025214]]}}, {"type": "Feature", "properties": {"id": "a_busstopp.101006880", "no": 101006880, "hstname": "Sonnenallee/Baumschulenstr.", "anzlinien": 2, "code": "SABS05"}, "geometry": {"type": "MultiPoint", "coordinates": [[13.4807732, 52.46049894]]}}, {"type": "Feature", "properties": {"id": "a_busstopp.101006890", "no": 101006890, "hstname": "Lohmühlenstr.", "anzlinien": 2, "code": "LOHS01"}, "geometry": {"type": "MultiPoint", "coordinates": [[13.4447138, 52.49291704]]}}, {"type": "Feature", "properties": {"id": "a_busstopp.101006900", "no": 101006900, "hstname": "Lohmühlenplatz", "anzlinien": 2, "code": "LOHP03"}, "geometry": {"type": "MultiPoint", "coordinates": [[13.4403701, 52.48985834]]}}, {"type": "Feature", "properties": {"id": "a_busstopp.101006908", "no": 101006908, "hstname": "Lohmühlenstr.", "anzlinien": 2, "code": "LOHS02"}, "geometry": {"type": "MultiPoint", "coordinates": [[13.4447363, 52.49281634]]}}, {"type": "Feature", "properties": {"id": "a_busstopp.101006909", "no": 101006909, "hstname": "Lohmühlenplatz", "anzlinien": 2, "code": "LOHP04"}, "geometry": {"type": "MultiPoint", "coordinates": [[13.4401438, 52.48977264]]}}, {"type": "Feature", "properties": {"id": "a_busstopp.101006912", "no": 101006912, "hstname": "Lohmühlenstr./Heidelberger Str.", "anzlinien": 2, "code": "LOHE01"}, "geometry": {"type": "MultiPoint", "coordinates": [[13.4423586, 52.49139914]]}}, {"type": "Feature", "properties": {"id": "a_busstopp.101006913", "no": 101006913, "hstname": "Sonnenallee/Baumschulenstr.", "anzlinien": 1, "code": "SABS01"}, "geometry": {"type": "MultiPoint", "coordinates": [[13.47948328, 52.46128741]]}}, {"type": "Feature", "properties": {"id": "a_busstopp.101006917", "no": 101006917, "hstname": "Lohmühlenstr./Heidelberger Str.", "anzlinien": 2, "code": "LOHE02"}, "geometry": {"type": "MultiPoint", "coordinates": [[13.4426226, 52.49163044]]}}, {"type": "Feature", "properties": {"id": "a_busstopp.101006920", "no": 101006920, "hstname": "Kiefholzstr./Baumschulenstr.", "anzlinien": 1, "code": "KIBA03"}, "geometry": {"type": "MultiPoint", "coordinates": [[13.4860763, 52.46626664]]}}, {"type": "Feature", "properties": {"id": "a_busstopp.101006975", "no": 101006975, "hstname": "S Treptower Park", "anzlinien": 3, "code": "STP02"}, "geometry": {"type": "MultiPoint", "coordinates": [[13.4611533, 52.49415884]]}}, {"type": "Feature", "properties": {"id": "a_busstopp.101006993", "no": 101006993, "hstname": "Emma-Ihrer-Str.", "anzlinien": 1, "code": "EMIS01N"}, "geometry": {"type": "MultiPoint", "coordinates": [[13.4810692, 52.49881134]]}}, {"type": "Feature", "properties": {"id": "a_busstopp.101006994", "no": 101006994, "hstname": "Emma-Ihrer-Str.", "anzlinien": 1, "code": "EMIS02N"}, "geometry": {"type": "MultiPoint", "coordinates": [[13.4810863, 52.49899014]]}}, {"type": "Feature", "properties": {"id": "a_busstopp.101007194", "no": 101007194, "hstname": "S Baumschulenweg", "anzlinien": 3, "code": "SBAW02"}, "geometry": {"type": "MultiPoint", "coordinates": [[13.4894931, 52.46763394]]}}, {"type": "Feature", "properties": {"id": "a_busstopp.101007196", "no": 101007196, "hstname": "Sonnenallee/Baumschulenstr.", "anzlinien": 2, "code": "SABS02"}, "geometry": {"type": "MultiPoint", "coordinates": [[13.4800777, 52.46128614]]}}, {"type": "Feature", "properties": {"id": "a_busstopp.101007197", "no": 101007197, "hstname": "Frauenlobstr.", "anzlinien": 3, "code": "FLBS01"}, "geometry": {"type": "MultiPoint", "coordinates": [[13.4851582, 52.46395334]]}}, {"type": "Feature", "properties": {"id": "a_busstopp.101007200", "no": 101007200, "hstname": "Frauenlobstr.", "anzlinien": 3, "code": "FLBS02"}, "geometry": {"type": "MultiPoint", "coordinates": [[13.4842539, 52.46331774]]}}, {"type": "Feature", "properties": {"id": "a_busstopp.101007201", "no": 101007201, "hstname": "Sonnenallee/Baumschulenstr.", "anzlinien": 2, "code": "SABS03"}, "geometry": {"type": "MultiPoint", "coordinates": [[13.4799206, 52.46116824]]}}, {"type": "Feature", "properties": {"id": "a_busstopp.101007203", "no": 101007203, "hstname": "S Baumschulenweg", "anzlinien": 3, "code": "SBAW03"}, "geometry": {"type": "MultiPoint", "coordinates": [[13.4896446, 52.46766654]]}}, {"type": "Feature", "properties": {"id": "a_busstopp.101007224", "no": 101007224, "hstname": "Dammweg/Bergaustr.", "anzlinien": 2, "code": "DWBG01"}, "geometry": {"type": "MultiPoint", "coordinates": [[13.4760619, 52.47618374]]}}, {"type": "Feature", "properties": {"id": "a_busstopp.101007340", "no": 101007340, "hstname": "Baumschulenstr./Fähre", "anzlinien": 1, "code": "BFAE02"}, "geometry": {"type": "MultiPoint", "coordinates": [[13.4941828, 52.47149374]]}}, {"type": "Feature", "properties": {"id": "a_busstopp.101007341", "no": 101007341, "hstname": "Dammweg/Bergaustr.", "anzlinien": 2, "code": "DWBG02"}, "geometry": {"type": "MultiPoint", "coordinates": [[13.4758341, 52.47608014]]}}, {"type": "Feature", "properties": {"id": "a_busstopp.101007342", "no": 101007342, "hstname": "S Plänterwald", "anzlinien": 2, "code": "SPW01"}, "geometry": {"type": "MultiPoint", "coordinates": [[13.47471342, 52.47970134]]}}, {"type": "Feature", "properties": {"id": "a_busstopp.101007353", "no": 101007353, "hstname": "Kiefholzstr./Baumschulenstr.", "anzlinien": 1, "code": "KIBA04"}, "geometry": {"type": "MultiPoint", "coordinates": [[13.4878339, 52.46510674]]}}, {"type": "Feature", "properties": {"id": "a_busstopp.101007379", "no": 101007379, "hstname": "S Plänterwald", "anzlinien": 2, "code": "SPW04"}, "geometry": {"type": "MultiPoint", "coordinates": [[13.4744508, 52.47903764]]}}, {"type": "Feature", "properties": {"id": "a_busstopp.101007659", "no": 101007659, "hstname": "Friedrich-Junge-Str.", "anzlinien": 1, "code": "FRJU03"}, "geometry": {"type": "MultiPoint", "coordinates": [[13.47194254, 52.49421477]]}}]}