{"type": "FeatureCollection", "features": [{"type": "Feature", "properties": {"id": "ab_wohngebaeude2022.1149", "importid": 1149, "typ": "Wohngebäude"}, "geometry": {"type": "MultiPolygon", "coordinates": [[[[13.39938476, 52.49959064], [13.39942395, 52.4995814], [13.3994341, 52.49959653], [13.39956601, 52.4995644], [13.39957015, 52.49957071], [13.39986122, 52.49949851], [13.3998653, 52.49950491], [13.40021423, 52.49941867], [13.40018712, 52.49938283], [13.40011095, 52.49926887], [13.40000301, 52.49929701], [13.39999651, 52.49928773], [13.39996458, 52.49929531], [13.39996754, 52.49929981], [13.39993472, 52.49930785], [13.3999377, 52.49931241], [13.39977357, 52.49935377], [13.39977677, 52.49935866], [13.39969807, 52.49937786], [13.39969069, 52.49936687], [13.39947141, 52.49941741], [13.39947455, 52.49942301], [13.39939316, 52.49944308], [13.39938548, 52.49943147], [13.39935359, 52.49943933], [13.39934762, 52.49942967], [13.39931853, 52.49943637], [13.39932432, 52.49944526], [13.39912834, 52.49949877], [13.39923599, 52.49965976], [13.39940134, 52.49961601], [13.39938476, 52.49959064]]]]}}, {"type": "Feature", "properties": {"id": "ab_wohngebaeude2022.33678", "importid": 33678, "typ": "Wohngebäude"}, "geometry": {"type": "MultiPolygon", "coordinates": [[[[13.40991117, 52.48821641], [13.41001425, 52.48850946], [13.41008854, 52.48849976], [13.41009298, 52.48851229], [13.4101537, 52.48850428], [13.4101493, 52.48849184], [13.41023999, 52.48848001], [13.41024428, 52.48849214], [13.41030473, 52.48848417], [13.41030044, 52.48847212], [13.41037425, 52.48846249], [13.41027207, 52.48816916], [13.41016259, 52.4881835], [13.41017689, 52.48822465], [13.41019645, 52.4882221], [13.41022397, 52.48830368], [13.41023403, 52.48830237], [13.41024945, 52.48834594], [13.41005008, 52.48837194], [13.41003467, 52.48832837], [13.41004402, 52.48832716], [13.41001406, 52.48824588], [13.41003394, 52.4882433], [13.41001981, 52.48820219], [13.40999993, 52.48820479], [13.40991117, 52.48821641]]]]}}, {"type": "Feature", "properties": {"id": "ab_wohngebaeude2022.38631", "importid": 38631, "typ": "Wohngebäude"}, "geometry": {"type": "MultiPolygon", "coordinates": [[[[13.41309501, 52.46157602], [13.41312982, 52.46169177], [13.41328743, 52.46167532], [13.41325247, 52.46155965], [13.41309501, 52.46157602]]]]}}, {"type": "Feature", "properties": {"id": "ab_wohngebaeude2022.39027", "importid": 39027, "typ": "Wohngebäude"}, "geometry": {"type": "MultiPolygon", "coordinates": [[[[13.40076974, 52.46268118], [13.40094056, 52.46267375], [13.40092635, 52.46255392], [13.40075445, 52.46256246], [13.40076974, 52.46268118]]]]}}, {"type": "Feature", "properties": {"id": "ab_wohngebaeude2022.39432", "importid": 39432, "typ": "Wohngebäude"}, "geometry": {"type": "MultiPolygon", "coordinates": [[[[13.40080131, 52.46292624], [13.40081564, 52.46303739], [13.40098283, 52.46303039], [13.40096964, 52.46291918], [13.40080131, 52.46292624]]]]}}, {"type": "Feature", "properties": {"id": "ab_wohngebaeude2022.39654", "importid": 39654, "typ": "Wohngebäude"}, "geometry": {"type": "MultiPolygon", "coordinates": [[[[13.40273692, 52.46222575], [13.40275386, 52.46227519], [13.40276194, 52.46227433], [13.40278448, 52.46233157], [13.40276479, 52.46234766], [13.40281086, 52.46237995], [13.40287496, 52.46234394], [13.40293692, 52.462387], [13.40296188, 52.46237352], [13.40291187, 52.4622051], [13.40273692, 52.46222575]]]]}}, {"type": "Feature", "properties": {"id": "ab_wohngebaeude2022.39743", "importid": 39743, "typ": "Wohngebäude"}, "geometry": {"type": "MultiPolygon", "coordinates": [[[[13.40909069, 52.45522991], [13.4091109, 52.45532614], [13.40942535, 52.4553033], [13.40940796, 52.45521491], [13.40939219, 52.4552073], [13.40934047, 52.45521022], [13.40933861, 52.45520102], [13.40917762, 52.4552154], [13.40917912, 52.45522397], [13.40909069, 52.45522991]]]]}}, {"type": "Feature", "properties": {"id": "ab_wohngebaeude2022.40340", "importid": 40340, "typ": "Wohngebäude"}, "geometry": {"type": "MultiPolygon", "coordinates": [[[[13.40134888, 52.46310851], [13.40147567, 52.46319607], [13.40164153, 52.46310415], [13.4015161, 52.46302297], [13.40147265, 52.46304781], [13.40146638, 52.46304436], [13.40139596, 52.46308282], [13.40140503, 52.46308912], [13.40136721, 52.46310884], [13.4013587, 52.46310315], [13.40134888, 52.46310851]]]]}}, {"type": "Feature", "properties": {"id": "ab_wohngebaeude2022.40815", "importid": 40815, "typ": "Wohngebäude"}, "geometry": {"type": "MultiPolygon", "coordinates": [[[[13.41115388, 52.48827932], [13.41118018, 52.48835457], [13.41153942, 52.48830583], [13.41151292, 52.48822988], [13.41146465, 52.48823652], [13.41115388, 52.48827932]]]]}}, {"type": "Feature", "properties": {"id": "ab_wohngebaeude2022.40816", "importid": 40816, "typ": "Wohngebäude"}, "geometry": {"type": "MultiPolygon", "coordinates": [[[[13.40848682, 52.48840268], [13.40799542, 52.48846693], [13.40796269, 52.48853748], [13.40793363, 52.48853247], [13.40790632, 52.48859173], [13.40793522, 52.48859673], [13.40789971, 52.48867326], [13.40791571, 52.4886838], [13.40789446, 52.48869582], [13.40800426, 52.48876842], [13.40802572, 52.48875628], [13.4080416, 52.48876677], [13.40815805, 52.48875162], [13.40816429, 52.48876945], [13.40825384, 52.48875791], [13.4082476, 52.48873997], [13.40842148, 52.48871737], [13.40842774, 52.48873531], [13.40851394, 52.48872446], [13.40850756, 52.48870618], [13.40858931, 52.48869556], [13.40850609, 52.4884577], [13.40841656, 52.48850608], [13.40844843, 52.48859535], [13.40828494, 52.4886167], [13.40828935, 52.48862926], [13.40821911, 52.48863843], [13.40821639, 52.4886307], [13.40819768, 52.48863314], [13.40820041, 52.48864087], [13.40817651, 52.48864398], [13.40814629, 52.4886351], [13.40812127, 52.4886179], [13.40811103, 52.4885997], [13.40814597, 52.48851898], [13.40823307, 52.48850767], [13.40823511, 52.48851338], [13.40826761, 52.48852589], [13.40841558, 52.48850541], [13.40850511, 52.48845702], [13.40848682, 52.48840268]]]]}}, {"type": "Feature", "properties": {"id": "ab_wohngebaeude2022.40837", "importid": 40837, "typ": "Wohngebäude"}, "geometry": {"type": "MultiPolygon", "coordinates": [[[[13.40123134, 52.46320405], [13.40134133, 52.46327052], [13.40147567, 52.46319607], [13.40134888, 52.46310851], [13.40130844, 52.4631306], [13.40131677, 52.46313544], [13.40126111, 52.46316605], [13.40125079, 52.46316208], [13.40120641, 52.4631863], [13.40123134, 52.46320405]]]]}}, {"type": "Feature", "properties": {"id": "ab_wohngebaeude2022.41255", "importid": 41255, "typ": "Wohngebäude"}, "geometry": {"type": "MultiPolygon", "coordinates": [[[[13.40848682, 52.48840268], [13.40858931, 52.48869556], [13.4088701, 52.48865887], [13.40881734, 52.48850816], [13.40878474, 52.48851163], [13.40878093, 52.48852738], [13.40875983, 52.48854364], [13.40863012, 52.48856055], [13.40858947, 52.48844658], [13.40867095, 52.48843596], [13.40865316, 52.48838095], [13.40848682, 52.48840268]]]]}}, {"type": "Feature", "properties": {"id": "ab_wohngebaeude2022.41303", "importid": 41303, "typ": "Wohngebäude"}, "geometry": {"type": "MultiPolygon", "coordinates": [[[[13.40882609, 52.48853316], [13.4088701, 52.48865887], [13.40901666, 52.48863975], [13.40902029, 52.48865011], [13.40908494, 52.48864186], [13.40908124, 52.48863132], [13.40915057, 52.48862227], [13.40904779, 52.4883293], [13.4087676, 52.488366], [13.40878688, 52.48842107], [13.40887175, 52.48840989], [13.40887525, 52.48841982], [13.40889468, 52.48841727], [13.40889118, 52.48840734], [13.40897685, 52.48839607], [13.40899772, 52.48845482], [13.4090062, 52.48845371], [13.40902342, 52.48850283], [13.40898238, 52.48850819], [13.40898143, 52.48850546], [13.40892961, 52.48851222], [13.4089321, 52.48851934], [13.40882609, 52.48853316]]]]}}, {"type": "Feature", "properties": {"id": "ab_wohngebaeude2022.41309", "importid": 41309, "typ": "Wohngebäude"}, "geometry": {"type": "MultiPolygon", "coordinates": [[[[13.41049509, 52.48814001], [13.41027207, 52.48816916], [13.41037425, 52.48846249], [13.41040997, 52.48845783], [13.41041833, 52.48848169], [13.41057016, 52.48846196], [13.41056175, 52.488438], [13.41059818, 52.48843325], [13.41055588, 52.48831291], [13.41048541, 52.48832202], [13.41048174, 52.48831145], [13.41044578, 52.4883161], [13.41044946, 52.48832668], [13.41041294, 52.4883314], [13.41039037, 52.48826787], [13.41042015, 52.48826339], [13.41040709, 52.48822785], [13.41039343, 52.48822062], [13.41038994, 52.48821045], [13.41051416, 52.48819423], [13.41049509, 52.48814001]]]]}}, {"type": "Feature", "properties": {"id": "ab_wohngebaeude2022.41397", "importid": 41397, "typ": "Wohngebäude"}, "geometry": {"type": "MultiPolygon", "coordinates": [[[[13.41049509, 52.48814001], [13.41051416, 52.48819423], [13.41065111, 52.48817583], [13.41065873, 52.48819792], [13.41066508, 52.48819709], [13.41069869, 52.48829414], [13.41055588, 52.48831291], [13.41059818, 52.48843325], [13.41082121, 52.48840417], [13.4107187, 52.48811076], [13.41049509, 52.48814001]]]]}}, {"type": "Feature", "properties": {"id": "ab_wohngebaeude2022.41508", "importid": 41508, "typ": "Wohngebäude"}, "geometry": {"type": "MultiPolygon", "coordinates": [[[[13.40845254, 52.48081796], [13.40852535, 52.48080966], [13.40852993, 52.48082596], [13.40856715, 52.48082131], [13.40856331, 52.48080533], [13.40859352, 52.48080187], [13.40856691, 52.48071131], [13.40841689, 52.48072692], [13.4084427, 52.48081909], [13.40845254, 52.48081796]]]]}}, {"type": "Feature", "properties": {"id": "ab_wohngebaeude2022.41533", "importid": 41533, "typ": "Wohngebäude"}, "geometry": {"type": "MultiPolygon", "coordinates": [[[[13.40932827, 52.48829261], [13.40904779, 52.4883293], [13.40915057, 52.48862227], [13.40943119, 52.48858559], [13.40939053, 52.48846987], [13.4092061, 52.4884937], [13.40916454, 52.48837581], [13.40934909, 52.48835194], [13.40934803, 52.48834885], [13.40932827, 52.48829261]]]]}}, {"type": "Feature", "properties": {"id": "ab_wohngebaeude2022.41570", "importid": 41570, "typ": "Wohngebäude"}, "geometry": {"type": "MultiPolygon", "coordinates": [[[[13.40955143, 52.48826346], [13.40965436, 52.48855643], [13.41001425, 52.48850946], [13.40991117, 52.48821641], [13.40980231, 52.48823064], [13.40981611, 52.48827161], [13.40983612, 52.48826901], [13.40986518, 52.48835061], [13.40987381, 52.48834947], [13.40988944, 52.48839336], [13.40983632, 52.48840029], [13.40983447, 52.48839502], [13.40978164, 52.48840191], [13.40978349, 52.48840718], [13.40968977, 52.4884194], [13.40967454, 52.48837571], [13.40968318, 52.48837459], [13.40965472, 52.48829304], [13.40967501, 52.4882904], [13.40966041, 52.48824921], [13.40959894, 52.48825725], [13.40955143, 52.48826346]]]]}}, {"type": "Feature", "properties": {"id": "ab_wohngebaeude2022.41688", "importid": 41688, "typ": "Wohngebäude"}, "geometry": {"type": "MultiPolygon", "coordinates": [[[[13.40932827, 52.48829261], [13.40934803, 52.48834885], [13.40948271, 52.48832849], [13.40949095, 52.48835179], [13.40949829, 52.48835082], [13.40953156, 52.48844518], [13.4093885, 52.48846407], [13.40943119, 52.48858559], [13.4095057, 52.48857585], [13.40950777, 52.48858175], [13.40951379, 52.48858296], [13.40951781, 52.48858595], [13.40957578, 52.48857828], [13.4095777, 52.48857449], [13.40958258, 52.48857188], [13.40958053, 52.48856608], [13.40965436, 52.48855643], [13.40955143, 52.48826346], [13.40942901, 52.48827942], [13.40932827, 52.48829261]]]]}}, {"type": "Feature", "properties": {"id": "ab_wohngebaeude2022.41944", "importid": 41944, "typ": "Wohngebäude"}, "geometry": {"type": "MultiPolygon", "coordinates": [[[[13.41301565, 52.45098881], [13.41302609, 52.45102291], [13.41304896, 52.45102169], [13.41305388, 52.45103503], [13.41311273, 52.45102942], [13.41312118, 52.45106248], [13.41322891, 52.45105206], [13.41320677, 52.45096964], [13.41312966, 52.45097753], [13.41313436, 52.45100371], [13.41310704, 52.45100716], [13.41309757, 52.45098027], [13.41301565, 52.45098881]]]]}}, {"type": "Feature", "properties": {"id": "ab_wohngebaeude2022.42106", "importid": 42106, "typ": "Wohngebäude"}, "geometry": {"type": "MultiPolygon", "coordinates": [[[[13.40365552, 52.45012482], [13.40366737, 52.4502776], [13.40385242, 52.45027253], [13.4038387, 52.45012032], [13.40365552, 52.45012482]]]]}}, {"type": "Feature", "properties": {"id": "ab_wohngebaeude2022.44615", "importid": 44615, "typ": "Wohngebäude"}, "geometry": {"type": "MultiPolygon", "coordinates": [[[[13.4107187, 52.48811076], [13.41082121, 52.48840417], [13.41089618, 52.48839433], [13.41090011, 52.4884054], [13.41096004, 52.48839768], [13.41095613, 52.48838654], [13.41104569, 52.48837484], [13.41104976, 52.48838618], [13.41110985, 52.48837838], [13.41110593, 52.48836695], [13.41118107, 52.48835711], [13.41107858, 52.4880637], [13.41096992, 52.48807791], [13.41098469, 52.48811888], [13.41100398, 52.48811637], [13.41103221, 52.48819833], [13.41104156, 52.48819711], [13.41105623, 52.48824078], [13.41085686, 52.48826678], [13.41084145, 52.48822321], [13.41085066, 52.488222], [13.41082142, 52.48814018], [13.41084157, 52.48813754], [13.41082756, 52.48809653], [13.4108074, 52.48809916], [13.4107187, 52.48811076]]]]}}, {"type": "Feature", "properties": {"id": "ab_wohngebaeude2022.44809", "importid": 44809, "typ": "Wohngebäude"}, "geometry": {"type": "MultiPolygon", "coordinates": [[[[13.41151292, 52.48822988], [13.41154044, 52.48830873], [13.4116143, 52.48829907], [13.41161868, 52.48831155], [13.41167839, 52.48830373], [13.41167453, 52.4882927], [13.41176636, 52.48828072], [13.41177023, 52.48829171], [13.4118298, 52.48828391], [13.41182543, 52.48827143], [13.41190029, 52.48826163], [13.41183127, 52.48806419], [13.41174127, 52.48807627], [13.41175091, 52.48810469], [13.41176071, 52.48810341], [13.41177628, 52.48814706], [13.41157645, 52.48817312], [13.41156203, 52.48812933], [13.41157097, 52.48812816], [13.41154168, 52.48804624], [13.41156127, 52.48804369], [13.41154709, 52.4880024], [13.41143844, 52.48801663], [13.41151292, 52.48822988]]]]}}, {"type": "Feature", "properties": {"id": "ab_wohngebaeude2022.48836", "importid": 48836, "typ": "Wohngebäude"}, "geometry": {"type": "MultiPolygon", "coordinates": [[[[13.40931613, 52.45508973], [13.40934047, 52.45521022], [13.40939219, 52.4552073], [13.40940796, 52.45521491], [13.40942535, 52.4553033], [13.4096385, 52.45528781], [13.40948836, 52.45506706], [13.40942958, 52.45508139], [13.40931613, 52.45508973]]]]}}, {"type": "Feature", "properties": {"id": "ab_wohngebaeude2022.49143", "importid": 49143, "typ": "Wohngebäude"}, "geometry": {"type": "MultiPolygon", "coordinates": [[[[13.40083118, 52.46315818], [13.40085199, 52.46331974], [13.40096014, 52.46331574], [13.40100682, 52.46332951], [13.40106326, 52.46323926], [13.40099658, 52.46322336], [13.40097317, 52.46320249], [13.40096949, 52.46315072], [13.40083118, 52.46315818]]]]}}, {"type": "Feature", "properties": {"id": "ab_wohngebaeude2022.49363", "importid": 49363, "typ": "Wohngebäude"}, "geometry": {"type": "MultiPolygon", "coordinates": [[[[13.40106326, 52.46323926], [13.40100682, 52.46332951], [13.40105017, 52.46334232], [13.40112701, 52.46338928], [13.40134133, 52.46327052], [13.40123134, 52.46320405], [13.40115782, 52.46324689], [13.40111846, 52.46325242], [13.40106326, 52.46323926]]]]}}]}