{"type": "FeatureCollection", "features": [{"type": "Feature", "properties": {"id": "ac_krankenhaeuser2022.360", "importid": 360, "typ": "Krankenhaus"}, "geometry": {"type": "MultiPolygon", "coordinates": [[[[13.41057713, 52.49224739], [13.41047555, 52.49227616], [13.41043894, 52.49222557], [13.41036618, 52.49224582], [13.41037823, 52.49225929], [13.41035867, 52.4922656], [13.41034791, 52.49225087], [13.41029241, 52.49226618], [13.41028959, 52.49226234], [13.40995682, 52.49235628], [13.40992584, 52.49231648], [13.40965147, 52.49239303], [13.40968743, 52.49244129], [13.40966517, 52.49244585], [13.40969418, 52.49248404], [13.40968792, 52.49248563], [13.40970686, 52.4925103], [13.40971327, 52.49250914], [13.40974825, 52.49255518], [13.41009903, 52.49245784], [13.41012733, 52.49249482], [13.41065289, 52.49234897], [13.41057713, 52.49224739]]]]}}, {"type": "Feature", "properties": {"id": "ac_krankenhaeuser2022.361", "importid": 361, "typ": "Krankenhaus"}, "geometry": {"type": "MultiPolygon", "coordinates": [[[[13.4094978, 52.49200456], [13.40958224, 52.49203977], [13.40961981, 52.49200592], [13.4099256, 52.49213402], [13.40988934, 52.49216782], [13.4099739, 52.49220307], [13.41007928, 52.49210902], [13.40960359, 52.49191105], [13.4094978, 52.49200456]]]]}}, {"type": "Feature", "properties": {"id": "ac_krankenhaeuser2022.497", "importid": 497, "typ": "Krankenhaus"}, "geometry": {"type": "MultiPolygon", "coordinates": [[[[13.41032799, 52.49415988], [13.41015925, 52.49390383], [13.41039614, 52.49384354], [13.41037727, 52.49381574], [13.41024627, 52.49384998], [13.41014793, 52.4937047], [13.40943433, 52.49388414], [13.40949334, 52.49397171], [13.40948776, 52.49397335], [13.40948399, 52.49396832], [13.40904107, 52.49408034], [13.40906112, 52.49411691], [13.40902783, 52.4941254], [13.40862509, 52.49380562], [13.4085098, 52.49386091], [13.40835753, 52.49387397], [13.40844465, 52.494275], [13.4084076, 52.49428403], [13.40838086, 52.49424657], [13.40812206, 52.49431134], [13.40804553, 52.49420095], [13.40795177, 52.49422435], [13.40788651, 52.49412826], [13.40795081, 52.49411223], [13.40795786, 52.49410152], [13.40794228, 52.49407894], [13.40792485, 52.49407454], [13.40786198, 52.49409091], [13.40777115, 52.49395758], [13.407327, 52.49406929], [13.40741659, 52.49420265], [13.40735246, 52.49421875], [13.40734559, 52.49422931], [13.40736083, 52.49425211], [13.40737809, 52.49425663], [13.40744187, 52.49424024], [13.40762466, 52.49451101], [13.40752248, 52.49453648], [13.40752158, 52.49453473], [13.40734061, 52.49458061], [13.40757451, 52.4949283], [13.40758076, 52.49493656], [13.40784704, 52.4948698], [13.40782022, 52.49483127], [13.40784642, 52.49482443], [13.40784503, 52.49482222], [13.40781813, 52.49479773], [13.40778638, 52.49480599], [13.40775766, 52.49476154], [13.40768867, 52.49477912], [13.40767625, 52.49476079], [13.40772752, 52.49474792], [13.40770572, 52.49471534], [13.4076541, 52.49472807], [13.40757202, 52.49460686], [13.40763874, 52.49458858], [13.40761382, 52.49454891], [13.40764401, 52.49454125], [13.40781936, 52.49479723], [13.40784625, 52.49482172], [13.40787403, 52.49481503], [13.40790278, 52.49485786], [13.40802093, 52.49482812], [13.40803256, 52.49484536], [13.40816144, 52.49481286], [13.40814989, 52.49479575], [13.40846617, 52.49471625], [13.40845433, 52.49469774], [13.40839442, 52.49462332], [13.40824053, 52.49465898], [13.40810854, 52.49446495], [13.40826318, 52.49442699], [13.40839574, 52.49462292], [13.40845566, 52.49469735], [13.4084821, 52.49469088], [13.4085353, 52.49476986], [13.40887066, 52.49468551], [13.40885054, 52.49465652], [13.4088753, 52.49465035], [13.40888482, 52.49466381], [13.40889575, 52.49466122], [13.40889384, 52.49465879], [13.40899096, 52.49463371], [13.40899252, 52.49463602], [13.40900063, 52.49463399], [13.40899905, 52.49463162], [13.40904456, 52.49461983], [13.40904621, 52.49462222], [13.40905482, 52.49461999], [13.40905315, 52.49461759], [13.40915068, 52.49459231], [13.40915242, 52.49459482], [13.40916332, 52.49459201], [13.40915427, 52.49457879], [13.4091817, 52.494572], [13.40920679, 52.49460098], [13.40953437, 52.49451857], [13.40948217, 52.49443897], [13.40950815, 52.49443174], [13.40952216, 52.4944525], [13.409688, 52.49441006], [13.40967419, 52.49438948], [13.40961097, 52.49430817], [13.40945825, 52.49434687], [13.40932797, 52.4941528], [13.40948002, 52.49411329], [13.4096123, 52.49430778], [13.40967552, 52.49438909], [13.40970205, 52.4943827], [13.40971528, 52.49440307], [13.40985553, 52.49436717], [13.40983989, 52.49434664], [13.40986898, 52.49433944], [13.40968406, 52.4940619], [13.40983824, 52.49402349], [13.4099684, 52.49421812], [13.40981559, 52.49425619], [13.40992365, 52.4944202], [13.41036287, 52.49430941], [13.41029524, 52.49420678], [13.41035049, 52.49419275], [13.41032799, 52.49415988]]]]}}, {"type": "Feature", "properties": {"id": "ac_krankenhaeuser2022.592", "importid": 592, "typ": "Krankenhaus"}, "geometry": {"type": "MultiPolygon", "coordinates": [[[[13.42846643, 52.49685484], [13.42861204, 52.49700107], [13.42876576, 52.49694496], [13.42862106, 52.4967976], [13.42846643, 52.49685484]]]]}}, {"type": "Feature", "properties": {"id": "ac_krankenhaeuser2022.662", "importid": 662, "typ": "Krankenhaus"}, "geometry": {"type": "MultiPolygon", "coordinates": [[[[13.42861204, 52.49700107], [13.42869527, 52.49708464], [13.42872275, 52.49707365], [13.42898617, 52.4973384], [13.42895834, 52.49734883], [13.42901421, 52.49740492], [13.42921145, 52.49733416], [13.42881063, 52.49692858], [13.42876576, 52.49694496], [13.42861204, 52.49700107]]]]}}, {"type": "Feature", "properties": {"id": "ac_krankenhaeuser2022.663", "importid": 663, "typ": "Krankenhaus"}, "geometry": {"type": "MultiPolygon", "coordinates": [[[[13.43794599, 52.49796678], [13.43799755, 52.49801753], [13.43810802, 52.49797656], [13.43805775, 52.49792547], [13.43794599, 52.49796678]]]]}}, {"type": "Feature", "properties": {"id": "ac_krankenhaeuser2022.666", "importid": 666, "typ": "Krankenhaus"}, "geometry": {"type": "MultiPolygon", "coordinates": [[[[13.42878211, 52.49673798], [13.42892809, 52.49688571], [13.42903283, 52.49684737], [13.42904348, 52.49685813], [13.42906114, 52.49685163], [13.42905047, 52.49684086], [13.42908754, 52.4968275], [13.42897917, 52.49672169], [13.42916398, 52.49665148], [13.42912455, 52.49661131], [13.42891435, 52.49668906], [13.42878211, 52.49673798]]]]}}, {"type": "Feature", "properties": {"id": "ac_krankenhaeuser2022.667", "importid": 667, "typ": "Krankenhaus"}, "geometry": {"type": "MultiPolygon", "coordinates": [[[[13.41957416, 52.49230435], [13.41965921, 52.49243436], [13.41969741, 52.49242504], [13.41971497, 52.49245187], [13.41967675, 52.49246118], [13.41973047, 52.49254333], [13.41981557, 52.49252258], [13.41979922, 52.49249761], [13.41994615, 52.49246175], [13.42006583, 52.49264438], [13.42002542, 52.49265436], [13.42000966, 52.4926306], [13.4200487, 52.49262095], [13.42001854, 52.49257475], [13.4199064, 52.49260209], [13.41989977, 52.49259197], [13.41989424, 52.49259331], [13.41989753, 52.49259832], [13.41986962, 52.49260512], [13.41981612, 52.49252342], [13.41973101, 52.49254416], [13.41983397, 52.49270162], [13.41976967, 52.49271729], [13.41982651, 52.4928041], [13.41989089, 52.49278838], [13.4198947, 52.49279419], [13.42018733, 52.49272265], [13.42018293, 52.49271596], [13.42023246, 52.49270385], [13.41996994, 52.49230399], [13.41974106, 52.49235975], [13.4197346, 52.49234222], [13.41972745, 52.49233164], [13.41974973, 52.49232602], [13.41972685, 52.49229221], [13.41970534, 52.49229762], [13.41969012, 52.49227512], [13.41966976, 52.49228025], [13.41957416, 52.49230435]]]]}}, {"type": "Feature", "properties": {"id": "ac_krankenhaeuser2022.673", "importid": 673, "typ": "Krankenhaus"}, "geometry": {"type": "MultiPolygon", "coordinates": [[[[13.41496595, 52.49238564], [13.41508991, 52.49235094], [13.41517472, 52.49246381], [13.4151849, 52.49246095], [13.4152184, 52.49250559], [13.41531982, 52.49247872], [13.41512861, 52.49222433], [13.41503024, 52.49225182], [13.41504288, 52.49226865], [13.41475217, 52.49235], [13.41473766, 52.49233363], [13.41464697, 52.49235899], [13.4147407, 52.49248392], [13.41478022, 52.49247287], [13.41479315, 52.49249012], [13.41488872, 52.49246341], [13.41487514, 52.49244529], [13.41491786, 52.49243336], [13.41489664, 52.49240505], [13.41496595, 52.49238564]]]]}}, {"type": "Feature", "properties": {"id": "ac_krankenhaeuser2022.707", "importid": 707, "typ": "Krankenhaus"}, "geometry": {"type": "MultiPolygon", "coordinates": [[[[13.43678967, 52.45028431], [13.43682214, 52.45059872], [13.43692322, 52.45059493], [13.43692293, 52.45059178], [13.43700767, 52.45058842], [13.43711472, 52.45073328], [13.43711987, 52.45073193], [13.43713304, 52.45075002], [13.43734718, 52.45075341], [13.43722389, 52.45058625], [13.43721462, 52.45058875], [13.43718011, 52.45054142], [13.43718881, 52.45053892], [13.43701828, 52.45030769], [13.43700976, 52.45031002], [13.43698958, 52.45028086], [13.4369984, 52.45028061], [13.43699432, 52.4502763], [13.43678967, 52.45028431]]]]}}, {"type": "Feature", "properties": {"id": "ac_krankenhaeuser2022.709", "importid": 709, "typ": "Krankenhaus"}, "geometry": {"type": "MultiPolygon", "coordinates": [[[[13.44458131, 52.45477614], [13.44460954, 52.45477951], [13.44459717, 52.45481759], [13.44477273, 52.45483889], [13.44485943, 52.45457536], [13.44465506, 52.45455078], [13.44458801, 52.45475566], [13.44458131, 52.45477614]]]]}}, {"type": "Feature", "properties": {"id": "ac_krankenhaeuser2022.712", "importid": 712, "typ": "Krankenhaus"}, "geometry": {"type": "MultiPolygon", "coordinates": [[[[13.43505939, 52.46541332], [13.43521544, 52.46542965], [13.43524621, 52.46532076], [13.43536985, 52.46533391], [13.43540582, 52.46520586], [13.43543836, 52.46520924], [13.43543628, 52.46521659], [13.436126, 52.46528938], [13.43612973, 52.46527609], [13.4361729, 52.46528065], [13.43617594, 52.46526994], [13.43618899, 52.46527132], [13.4362174, 52.46517107], [13.43571542, 52.46511766], [13.43571668, 52.46511334], [13.43531469, 52.46507066], [13.43530962, 52.4650877], [13.43530637, 52.46508734], [13.43530345, 52.46509695], [13.43524751, 52.4650911], [13.43525245, 52.46507427], [13.43515237, 52.46506385], [13.43515271, 52.46506284], [13.43514999, 52.46506273], [13.4351512, 52.46505818], [13.43479979, 52.46502105], [13.43476749, 52.46513267], [13.43480961, 52.46513711], [13.43480597, 52.46514995], [13.43520382, 52.46519191], [13.43516991, 52.46531223], [13.43509043, 52.46530387], [13.43505939, 52.46541332]]]]}}, {"type": "Feature", "properties": {"id": "ac_krankenhaeuser2022.713", "importid": 713, "typ": "Krankenhaus"}, "geometry": {"type": "MultiPolygon", "coordinates": [[[[13.43500793, 52.46551071], [13.43500122, 52.46553137], [13.43501136, 52.46553255], [13.43500629, 52.46554818], [13.43499615, 52.4655469], [13.43498377, 52.46558463], [13.43500627, 52.46558736], [13.43496317, 52.46571912], [13.4350092, 52.46572468], [13.43505215, 52.46559291], [13.43511774, 52.46560093], [13.43512071, 52.46559186], [13.43514264, 52.46559459], [13.43513966, 52.46560358], [13.43528995, 52.46562125], [13.4353253, 52.46550897], [13.4351953, 52.46549322], [13.43521544, 52.46542965], [13.43504058, 52.46541038], [13.43501658, 52.46548394], [13.43502701, 52.46548522], [13.43502194, 52.46550084], [13.4350115, 52.46549957], [13.43500793, 52.46551071]]]]}}, {"type": "Feature", "properties": {"id": "ac_krankenhaeuser2022.714", "importid": 714, "typ": "Krankenhaus"}, "geometry": {"type": "MultiPolygon", "coordinates": [[[[13.43468973, 52.46580496], [13.43489133, 52.46582964], [13.43488716, 52.46584265], [13.43500245, 52.46585678], [13.43500677, 52.46584375], [13.43520926, 52.46586825], [13.43524479, 52.46575319], [13.43519082, 52.46574664], [13.43519515, 52.46573289], [13.43502426, 52.46571186], [13.43501964, 52.46572587], [13.43472627, 52.46568963], [13.43472394, 52.46570082], [13.43468973, 52.46580496]]]]}}, {"type": "Feature", "properties": {"id": "ac_krankenhaeuser2022.715", "importid": 715, "typ": "Krankenhaus"}, "geometry": {"type": "MultiPolygon", "coordinates": [[[[13.42863723, 52.47896214], [13.42961972, 52.47908563], [13.42964149, 52.47902223], [13.42967326, 52.4789272], [13.42891144, 52.47883121], [13.42897557, 52.47864215], [13.42875448, 52.47861446], [13.42863723, 52.47896214]]]]}}, {"type": "Feature", "properties": {"id": "ac_krankenhaeuser2022.718", "importid": 718, "typ": "Krankenhaus"}, "geometry": {"type": "MultiPolygon", "coordinates": [[[[13.48480692, 52.47498425], [13.48499771, 52.4750729], [13.48493807, 52.47512191], [13.4851816, 52.47523752], [13.48506327, 52.47533062], [13.48505174, 52.47534503], [13.48504799, 52.4753609], [13.48505244, 52.4753767], [13.48506462, 52.47539091], [13.48508336, 52.47540215], [13.48510685, 52.47540932], [13.48513281, 52.47541174], [13.48515874, 52.47540916], [13.48518211, 52.47540185], [13.48520067, 52.4753905], [13.485286, 52.47532349], [13.48546828, 52.47540896], [13.48549587, 52.47538659], [13.48555706, 52.47541599], [13.48561599, 52.4753686], [13.4858052, 52.47545921], [13.48591019, 52.47537646], [13.48566108, 52.47526111], [13.48560066, 52.47530749], [13.48509676, 52.47506913], [13.4851594, 52.47501999], [13.48491133, 52.47490286], [13.48480692, 52.47498425]]]]}}, {"type": "Feature", "properties": {"id": "ac_krankenhaeuser2022.720", "importid": 720, "typ": "Krankenhaus"}, "geometry": {"type": "MultiPolygon", "coordinates": [[[[13.45963101, 52.49400074], [13.45968436, 52.49403903], [13.45967354, 52.49404493], [13.45972427, 52.49408196], [13.4597365, 52.49407638], [13.45979059, 52.49411522], [13.4598318, 52.49411579], [13.45988364, 52.49408956], [13.45986943, 52.49407797], [13.46005985, 52.49398529], [13.46007626, 52.49399491], [13.46013053, 52.49396869], [13.4601374, 52.49394265], [13.46008213, 52.49390324], [13.46009288, 52.49389662], [13.46003894, 52.4938565], [13.46002745, 52.4938623], [13.45997877, 52.49382724], [13.45990101, 52.49386642], [13.45991449, 52.49387617], [13.45972385, 52.49397127], [13.45970971, 52.49396188], [13.45963101, 52.49400074]]]]}}, {"type": "Feature", "properties": {"id": "ac_krankenhaeuser2022.733", "importid": 733, "typ": "Krankenhaus"}, "geometry": {"type": "MultiPolygon", "coordinates": [[[[13.47952021, 52.47877608], [13.47973325, 52.47890065], [13.47981569, 52.47884755], [13.47978567, 52.47882985], [13.4798556, 52.47878383], [13.47967328, 52.47867851], [13.47952021, 52.47877608]]]]}}, {"type": "Feature", "properties": {"id": "ac_krankenhaeuser2022.778", "importid": 778, "typ": "Krankenhaus"}, "geometry": {"type": "MultiPolygon", "coordinates": [[[[13.47831591, 52.46991724], [13.47845071, 52.46999059], [13.47881213, 52.46974324], [13.47880218, 52.46973787], [13.4788627, 52.46969674], [13.47887481, 52.4697033], [13.47897752, 52.46963204], [13.47875738, 52.46951456], [13.47865953, 52.469584], [13.47877891, 52.46964692], [13.47877444, 52.46965006], [13.47878941, 52.46965818], [13.47875015, 52.46968587], [13.47873509, 52.46967766], [13.47871587, 52.46969116], [13.47867607, 52.46966962], [13.478445, 52.4698285], [13.47840565, 52.46980738], [13.47836981, 52.46983191], [13.47840858, 52.46985353], [13.47831591, 52.46991724]]]]}}, {"type": "Feature", "properties": {"id": "ac_krankenhaeuser2022.781", "importid": 781, "typ": "Krankenhaus"}, "geometry": {"type": "MultiPolygon", "coordinates": [[[[13.47849982, 52.48068328], [13.47862974, 52.48075686], [13.47876475, 52.48067107], [13.47877368, 52.4806774], [13.4788161, 52.48064975], [13.47880662, 52.48064398], [13.47900361, 52.48052073], [13.47899244, 52.48051508], [13.47906276, 52.48046907], [13.47906743, 52.48047081], [13.47916132, 52.48040933], [13.47895236, 52.480288], [13.47885489, 52.48035004], [13.47899421, 52.48043023], [13.47892352, 52.48047577], [13.47887228, 52.48044638], [13.47849982, 52.48068328]]]]}}]}