{"type": "FeatureCollection", "features": [{"type": "Feature", "properties": {"id": "HAUS001542", "typ": "Kindertagesstätte"}, "geometry": {"type": "Polygon", "coordinates": [[[13.40024494, 52.49348873], [13.39999087, 52.49362194], [13.39985512, 52.49352529], [13.40010864, 52.49339225], [13.40024494, 52.49348873]]]}}, {"type": "Feature", "properties": {"id": "HAUS002116", "typ": "Kindertagesstätte"}, "geometry": {"type": "Polygon", "coordinates": [[[13.40799524, 52.49282683], [13.40786672, 52.49284718], [13.40785057, 52.49281113], [13.40789696, 52.49280366], [13.40789106, 52.49278962], [13.40797368, 52.49277663], [13.40799524, 52.49282683]]]}}, {"type": "Feature", "properties": {"id": "HAUS112726", "typ": "Kindertagesstätte"}, "geometry": {"type": "Polygon", "coordinates": [[[13.40248952, 52.49266734], [13.40257165, 52.49264206], [13.40256404, 52.49263089], [13.40262564, 52.49261375], [13.40265733, 52.49265474], [13.40268886, 52.49264562], [13.40279285, 52.49277912], [13.40276071, 52.49278842], [13.40277997, 52.49281334], [13.40272954, 52.49282812], [13.40273843, 52.49284031], [13.40275107, 52.49283647], [13.40275344, 52.49283937], [13.40275172, 52.49283988], [13.40279235, 52.49288967], [13.40279406, 52.49288914], [13.40279656, 52.4928922], [13.40278378, 52.49289608], [13.40279416, 52.49290879], [13.40280693, 52.49290491], [13.40281021, 52.49290892], [13.40278723, 52.49291591], [13.40281945, 52.49295644], [13.40282421, 52.49295507], [13.40284728, 52.49298407], [13.40284132, 52.4929858], [13.40290301, 52.49306342], [13.40291476, 52.49305994], [13.40295019, 52.49310451], [13.40286961, 52.49312948], [13.40288795, 52.49315153], [13.40288138, 52.49315356], [13.40287325, 52.4931438], [13.40279948, 52.49316565], [13.40272023, 52.49306816], [13.40271448, 52.49306093], [13.40273747, 52.49305411], [13.40266025, 52.492957], [13.4026387, 52.49296397], [13.40263525, 52.49296001], [13.40267964, 52.49294648], [13.4026669, 52.49293087], [13.40265491, 52.49293453], [13.40265254, 52.49293164], [13.40265451, 52.49293103], [13.4026138, 52.49288126], [13.4026121, 52.49288178], [13.40260953, 52.49287864], [13.40264827, 52.49286684], [13.40263929, 52.49285458], [13.40263609, 52.49285551], [13.40248952, 52.49266734]]]}}, {"type": "Feature", "properties": {"id": "HAUS112785", "typ": "Kindertagesstätte"}, "geometry": {"type": "Polygon", "coordinates": [[[13.41168929, 52.49084964], [13.41175356, 52.49079804], [13.41202837, 52.49092556], [13.41193651, 52.49099932], [13.41172931, 52.49090316], [13.41175689, 52.49088101], [13.41168929, 52.49084964]]]}}, {"type": "Feature", "properties": {"id": "HAUS112836", "typ": "Kindertagesstätte"}, "geometry": {"type": "Polygon", "coordinates": [[[13.41128941, 52.49084358], [13.41129544, 52.49083873], [13.41130748, 52.49084431], [13.41135086, 52.49080947], [13.41134491, 52.49080671], [13.41135236, 52.49080149], [13.41138543, 52.49081911], [13.41141868, 52.49079585], [13.41145281, 52.49081402], [13.41147314, 52.49079981], [13.41143921, 52.49078173], [13.41157623, 52.49068591], [13.41158233, 52.49068916], [13.41157745, 52.49069256], [13.41163343, 52.49072249], [13.41164105, 52.49071718], [13.41164916, 52.49072152], [13.41163819, 52.49072916], [13.41165551, 52.49073842], [13.41166756, 52.49073003], [13.41167405, 52.49073349], [13.41166891, 52.49073707], [13.41172115, 52.49076499], [13.41172885, 52.49075962], [13.41173699, 52.49076397], [13.41168199, 52.49080231], [13.41166448, 52.49079294], [13.4114769, 52.49092366], [13.41148725, 52.49092919], [13.41148293, 52.49093336], [13.4114442, 52.49091539], [13.41146822, 52.49089611], [13.41142112, 52.49087426], [13.4113971, 52.49089355], [13.41128941, 52.49084358]]]}}, {"type": "Feature", "properties": {"id": "HAUS112976", "typ": "Kindertagesstätte"}, "geometry": {"type": "Polygon", "coordinates": [[[13.40025148, 52.491513], [13.40032264, 52.49149866], [13.4002957, 52.4914474], [13.40037127, 52.49143261], [13.4003605, 52.49141211], [13.40056902, 52.49137128], [13.40058025, 52.49139263], [13.40075519, 52.49135837], [13.40078213, 52.49140963], [13.4008535, 52.49139565], [13.40091703, 52.4915065], [13.40084533, 52.49152066], [13.40096259, 52.49174184], [13.40103362, 52.49172781], [13.40105733, 52.49177224], [13.40098617, 52.4917863], [13.40102242, 52.49185464], [13.40109385, 52.49184053], [13.40111739, 52.4918849], [13.40104595, 52.49189902], [13.40106229, 52.49192982], [13.40093834, 52.49195475], [13.40094403, 52.49196518], [13.40073651, 52.49200711], [13.40073083, 52.49199658], [13.40060556, 52.49202187], [13.40058888, 52.49199113], [13.40051774, 52.49200551], [13.4004933, 52.49196132], [13.40056487, 52.49194685], [13.40052791, 52.49187873], [13.40045663, 52.49189314], [13.40043256, 52.49184877], [13.40050385, 52.49183436], [13.40048713, 52.49180354], [13.40061343, 52.49177808], [13.4005382, 52.49163905], [13.40049242, 52.49164827], [13.40048791, 52.49163992], [13.40036175, 52.49166535], [13.4003341, 52.49161424], [13.40030898, 52.4916193], [13.40025148, 52.491513]]]}}, {"type": "Feature", "properties": {"id": "HAUS113956", "typ": "Kindertagesstätte"}, "geometry": {"type": "Polygon", "coordinates": [[[13.40761881, 52.49217216], [13.40771702, 52.49214417], [13.40778435, 52.49212497], [13.40787412, 52.4922423], [13.40792108, 52.49222891], [13.40799103, 52.49232036], [13.40794409, 52.49233374], [13.40794658, 52.492337], [13.40778103, 52.49238418], [13.40761881, 52.49217216]]]}}, {"type": "Feature", "properties": {"id": "HAUS115182", "typ": "Kindertagesstätte"}, "geometry": {"type": "Polygon", "coordinates": [[[13.40727227, 52.491989], [13.40738473, 52.49195602], [13.40735027, 52.49191223], [13.40746054, 52.49187988], [13.40764137, 52.49210956], [13.40753148, 52.49214179], [13.40754789, 52.49216262], [13.40748762, 52.4921803], [13.40738125, 52.49204517], [13.40732863, 52.4920606], [13.40727227, 52.491989]]]}}, {"type": "Feature", "properties": {"id": "HAUS115262", "typ": "Kindertagesstätte"}, "geometry": {"type": "Polygon", "coordinates": [[[13.39999683, 52.49628986], [13.40002044, 52.49628922], [13.40002049, 52.49624204], [13.40001791, 52.49624203], [13.40001791, 52.49623889], [13.40002051, 52.49623889], [13.40002055, 52.4961948], [13.40001765, 52.49619479], [13.40001765, 52.49619165], [13.40002056, 52.49619165], [13.40002064, 52.49613356], [13.40001744, 52.49613356], [13.40001744, 52.49613041], [13.40006448, 52.49613048], [13.40006488, 52.49612173], [13.40019784, 52.49612284], [13.40019911, 52.49626419], [13.40025339, 52.49626518], [13.40025386, 52.4963557], [13.40018682, 52.4963561], [13.40018561, 52.49634269], [13.4001397, 52.49634331], [13.40014041, 52.49635638], [13.39999739, 52.49635721], [13.39999683, 52.49628986]]]}}, {"type": "Feature", "properties": {"id": "HAUS126694", "typ": "Kindertagesstätte"}, "geometry": {"type": "Polygon", "coordinates": [[[13.40541622, 52.49992017], [13.40543876, 52.49988656], [13.40549744, 52.49988163], [13.40557087, 52.49993917], [13.40551127, 52.49994407], [13.40548887, 52.49997739], [13.40541622, 52.49992017]]]}}, {"type": "Feature", "properties": {"id": "HAUS534467", "typ": "Kindertagesstätte"}, "geometry": {"type": "Polygon", "coordinates": [[[13.43830632, 52.49768583], [13.43834604, 52.49772724], [13.43837435, 52.49775566], [13.43835346, 52.49775563], [13.43835343, 52.49776321], [13.43833695, 52.49776337], [13.43833729, 52.49777095], [13.43831856, 52.49777133], [13.43831889, 52.49777822], [13.43830279, 52.49777861], [13.43830314, 52.4977855], [13.43829713, 52.49778571], [13.43829572, 52.49774582], [13.43825231, 52.49776186], [13.43821435, 52.49772103], [13.43827817, 52.49769764], [13.43829752, 52.49771702], [13.43829172, 52.49768782], [13.43830632, 52.49768583]]]}}, {"type": "Feature", "properties": {"id": "HAUS534486", "typ": "Kindertagesstätte"}, "geometry": {"type": "Polygon", "coordinates": [[[13.44361786, 52.496878], [13.44373509, 52.49683523], [13.44371163, 52.49681164], [13.44389655, 52.49674462], [13.44394612, 52.49679475], [13.44396775, 52.49679766], [13.4439855, 52.49681611], [13.4439797, 52.4968285], [13.44402925, 52.49687908], [13.44384536, 52.49694728], [13.44382249, 52.4969237], [13.44370495, 52.49696665], [13.44361786, 52.496878]]]}}, {"type": "Feature", "properties": {"id": "HAUS534545", "typ": "Kindertagesstätte"}, "geometry": {"type": "Polygon", "coordinates": [[[13.41545217, 52.49164946], [13.41545932, 52.49164698], [13.41546227, 52.49164975], [13.41552275, 52.49163363], [13.41551946, 52.49162972], [13.41552736, 52.49162771], [13.41553426, 52.49163807], [13.41558454, 52.49162878], [13.41558207, 52.49162143], [13.4155993, 52.49161901], [13.4156058, 52.49163144], [13.41567368, 52.49162204], [13.41567297, 52.49161837], [13.41567971, 52.49161773], [13.41569306, 52.49168638], [13.41564089, 52.49169818], [13.41566315, 52.49175152], [13.41571408, 52.49174498], [13.41572185, 52.49177187], [13.41564089, 52.491786], [13.41563798, 52.49178162], [13.41555615, 52.49180311], [13.41548404, 52.49171066], [13.41549755, 52.49170686], [13.41545217, 52.49164946]]]}}, {"type": "Feature", "properties": {"id": "HAUS534845", "typ": "Kindertagesstätte"}, "geometry": {"type": "Polygon", "coordinates": [[[13.44424502, 52.49888614], [13.44431604, 52.49885436], [13.44435419, 52.49888477], [13.44444754, 52.49884475], [13.44451712, 52.49890389], [13.44452205, 52.49890211], [13.44452964, 52.49890907], [13.44435592, 52.49898538], [13.44434823, 52.49897819], [13.44435201, 52.49897662], [13.44424502, 52.49888614]]]}}, {"type": "Feature", "properties": {"id": "HAUS534989", "typ": "Kindertagesstätte"}, "geometry": {"type": "Polygon", "coordinates": [[[13.4166154, 52.50033115], [13.41679488, 52.50008919], [13.41673506, 52.50000407], [13.41687953, 52.4999683], [13.41696903, 52.5000957], [13.41729787, 52.50018633], [13.41722599, 52.50028335], [13.41721466, 52.50028055], [13.41724461, 52.50032939], [13.41713716, 52.5004747], [13.4166154, 52.50033115]]]}}, {"type": "Feature", "properties": {"id": "HAUS535307", "typ": "Kindertagesstätte"}, "geometry": {"type": "Polygon", "coordinates": [[[13.41790481, 52.48896194], [13.41789107, 52.48896372], [13.41787631, 52.48895508], [13.41786727, 52.48892618], [13.41787774, 52.4889172], [13.41787484, 52.48890483], [13.4178523, 52.48890587], [13.41783685, 52.48889812], [13.4178318, 52.48888275], [13.41784311, 52.48887081], [13.41786114, 52.48887039], [13.41785831, 52.48885574], [13.41783829, 52.48884975], [13.41782822, 52.4888085], [13.41784184, 52.48879523], [13.4179187, 52.48878562], [13.41792807, 52.48877593], [13.41803132, 52.4887626], [13.41804646, 52.48876875], [13.41811952, 52.48876046], [13.41814134, 52.4887683], [13.4181556, 52.488808], [13.41814167, 52.48881899], [13.4181472, 52.48883208], [13.41817018, 52.48882899], [13.41818714, 52.48883631], [13.41819366, 52.48885239], [13.418179, 52.48886359], [13.41815753, 52.48886602], [13.41816265, 52.48887956], [13.41818154, 52.48888599], [13.4181959, 52.48892274], [13.4181812, 52.48893439], [13.41812247, 52.48894085], [13.41810957, 52.48893495], [13.41790481, 52.48896194]]]}}, {"type": "Feature", "properties": {"id": "HAUS536195", "typ": "Kindertagesstätte"}, "geometry": {"type": "Polygon", "coordinates": [[[13.42480688, 52.49685103], [13.42522789, 52.49672832], [13.42526874, 52.49677949], [13.42522593, 52.49679146], [13.42526145, 52.49683922], [13.42488681, 52.49695208], [13.42480688, 52.49685103]]]}}, {"type": "Feature", "properties": {"id": "HAUS536265", "typ": "Kindertagesstätte"}, "geometry": {"type": "Polygon", "coordinates": [[[13.41980061, 52.48958818], [13.41981856, 52.48958772], [13.41981064, 52.48953266], [13.41989472, 52.48952929], [13.41989604, 52.4895339], [13.42004094, 52.48952775], [13.42004041, 52.48952247], [13.42009351, 52.4895205], [13.42009424, 52.48952554], [13.42016974, 52.48952137], [13.42017691, 52.48957711], [13.42017089, 52.48957724], [13.4201741, 52.48960979], [13.41999392, 52.48961727], [13.41999625, 52.48963378], [13.41980826, 52.48964338], [13.41980061, 52.48958818]]]}}, {"type": "Feature", "properties": {"id": "HAUS536271", "typ": "Kindertagesstätte"}, "geometry": {"type": "Polygon", "coordinates": [[[13.47425913, 52.49534647], [13.47427889, 52.49534003], [13.47427122, 52.49532744], [13.47426822, 52.49531413], [13.47427004, 52.49530074], [13.47427714, 52.49529095], [13.47429361, 52.49527347], [13.47430645, 52.49526513], [13.47432113, 52.49525803], [13.47434945, 52.49525189], [13.47436836, 52.49525076], [13.47439492, 52.49525291], [13.47441508, 52.49525771], [13.47443311, 52.49526501], [13.47445254, 52.49527819], [13.47449126, 52.49532259], [13.47450686, 52.49532576], [13.47466169, 52.49527652], [13.47469233, 52.49527304], [13.474717, 52.49527447], [13.4747448, 52.49528092], [13.47477002, 52.49529316], [13.47478242, 52.4953035], [13.47479353, 52.49532093], [13.47479551, 52.49534024], [13.47478737, 52.49535928], [13.47476933, 52.49537607], [13.47474339, 52.49538842], [13.47475351, 52.4954003], [13.4743632, 52.49552525], [13.47431773, 52.49547226], [13.47432449, 52.49547017], [13.47431163, 52.49545503], [13.47430469, 52.49545724], [13.47425951, 52.4954047], [13.47429857, 52.49539217], [13.47425913, 52.49534647]]]}}, {"type": "Feature", "properties": {"id": "HAUS537065", "typ": "Kindertagesstätte"}, "geometry": {"type": "Polygon", "coordinates": [[[13.44464821, 52.49885699], [13.44461893, 52.49882843], [13.44462842, 52.49882395], [13.44452195, 52.49873213], [13.44452435, 52.49873112], [13.44451803, 52.49872454], [13.44437759, 52.49875903], [13.44434058, 52.49870253], [13.44454256, 52.49865357], [13.44455205, 52.4986626], [13.44461567, 52.49864035], [13.4447536, 52.49875573], [13.4447758, 52.49874805], [13.444812, 52.49878506], [13.44464821, 52.49885699]]]}}, {"type": "Feature", "properties": {"id": "HAUS537352", "typ": "Kindertagesstätte"}, "geometry": {"type": "Polygon", "coordinates": [[[13.42388796, 52.49818547], [13.42393792, 52.49816892], [13.42404857, 52.49813226], [13.42416404, 52.49826244], [13.42412534, 52.49827514], [13.42412894, 52.49827924], [13.42409381, 52.49829078], [13.42412506, 52.49833048], [13.42412248, 52.49833117], [13.42417873, 52.4984065], [13.42408052, 52.49836956], [13.42407994, 52.49837069], [13.42406056, 52.49836546], [13.42404908, 52.49837714], [13.42403196, 52.49838627], [13.42400256, 52.49839594], [13.42396312, 52.49840333], [13.42396372, 52.49833303], [13.42397541, 52.49833003], [13.42391179, 52.49830592], [13.42391113, 52.49830696], [13.42389172, 52.49830197], [13.42387787, 52.49831442], [13.42385165, 52.49832663], [13.42382113, 52.49833549], [13.42379349, 52.49833961], [13.42379516, 52.49826924], [13.42380634, 52.49826624], [13.42375673, 52.49824762], [13.42389291, 52.49821172], [13.42387388, 52.49819014], [13.42388796, 52.49818547]]]}}, {"type": "Feature", "properties": {"id": "HAUS537554", "typ": "Kindertagesstätte"}, "geometry": {"type": "Polygon", "coordinates": [[[13.47190953, 52.46637844], [13.47198198, 52.46632954], [13.47197558, 52.46632606], [13.47198141, 52.46632225], [13.47199892, 52.46633176], [13.47201459, 52.46632105], [13.47200591, 52.46631616], [13.47202954, 52.46628961], [13.47203537, 52.46628553], [13.47220241, 52.46637814], [13.47214844, 52.4664144], [13.47216999, 52.46642658], [13.47210671, 52.46646946], [13.47200668, 52.46641407], [13.47199191, 52.46642418], [13.47190953, 52.46637844]]]}}, {"type": "Feature", "properties": {"id": "HAUS538231", "typ": "Kindertagesstätte"}, "geometry": {"type": "Polygon", "coordinates": [[[13.45667342, 52.48067979], [13.45709472, 52.48065325], [13.45708026, 52.48056813], [13.45727358, 52.48055599], [13.45730306, 52.48073136], [13.45706121, 52.48074661], [13.45705673, 52.48071895], [13.45697221, 52.48072412], [13.45697673, 52.48075173], [13.4569206, 52.48075517], [13.45691638, 52.48072951], [13.45683172, 52.48073462], [13.45683629, 52.48076029], [13.45668806, 52.48076948], [13.45667342, 52.48067979]]]}}, {"type": "Feature", "properties": {"id": "HAUS538938", "typ": "Kindertagesstätte"}, "geometry": {"type": "Polygon", "coordinates": [[[13.47760526, 52.46494418], [13.47766573, 52.46494433], [13.4776646, 52.46485025], [13.47767035, 52.46485016], [13.47767043, 52.46485806], [13.47787533, 52.46485836], [13.47789203, 52.46486125], [13.4779043, 52.46486874], [13.47791562, 52.46488434], [13.47792197, 52.46490091], [13.47792348, 52.46491224], [13.47792148, 52.46492922], [13.47791448, 52.46494571], [13.4779027, 52.46496115], [13.47789138, 52.46496995], [13.47788744, 52.46497802], [13.4778879, 52.46498642], [13.47790103, 52.46501446], [13.47790154, 52.46502282], [13.47789717, 52.46503075], [13.47788847, 52.46503723], [13.47783537, 52.46505516], [13.4778233, 52.46506236], [13.47781917, 52.4650697], [13.47780927, 52.46510997], [13.47780173, 52.46511905], [13.47778541, 52.4651282], [13.47776448, 52.46513264], [13.47761017, 52.46513255], [13.47761034, 52.46514025], [13.47760453, 52.46514013], [13.47760526, 52.46494418]]]}}, {"type": "Feature", "properties": {"id": "HAUS539615", "typ": "Kindertagesstätte"}, "geometry": {"type": "Polygon", "coordinates": [[[13.43969108, 52.47087217], [13.43972069, 52.47078349], [13.43974657, 52.47078658], [13.43977758, 52.47068971], [13.43996387, 52.4707552], [13.43994418, 52.47081213], [13.43992727, 52.47081001], [13.43990619, 52.47087139], [13.44000281, 52.47088298], [13.43998056, 52.47095098], [13.4397124, 52.47091869], [13.43972686, 52.47087677], [13.43969108, 52.47087217]]]}}, {"type": "Feature", "properties": {"id": "HAUS554322", "typ": "Kindertagesstätte"}, "geometry": {"type": "Polygon", "coordinates": [[[13.43520092, 52.48996692], [13.43527772, 52.48992634], [13.43524789, 52.48989907], [13.43562645, 52.48974574], [13.43572321, 52.48983395], [13.43575398, 52.48982272], [13.43577661, 52.48984587], [13.4357866, 52.48984221], [13.43580175, 52.48985762], [13.43580798, 52.48985548], [13.43585424, 52.48990724], [13.43551114, 52.49002068], [13.43546503, 52.48996902], [13.43549071, 52.48996051], [13.43548367, 52.48995316], [13.43551446, 52.48994187], [13.43550239, 52.48993042], [13.43529145, 52.49001582], [13.43520092, 52.48996692]]]}}, {"type": "Feature", "properties": {"id": "HAUS555527", "typ": "Kindertagesstätte"}, "geometry": {"type": "Polygon", "coordinates": [[[13.42618574, 52.49205877], [13.42618647, 52.49205586], [13.42619545, 52.49202024], [13.42618039, 52.49201879], [13.42620116, 52.49193257], [13.42640572, 52.49195119], [13.42639971, 52.49197555], [13.42651449, 52.49198583], [13.4265152, 52.49198317], [13.42665301, 52.49199582], [13.42664824, 52.49201464], [13.42669892, 52.49201932], [13.42669961, 52.49201664], [13.42683759, 52.49202918], [13.42683247, 52.49204814], [13.42688331, 52.49205272], [13.42688395, 52.49205008], [13.42702145, 52.49206255], [13.42700468, 52.4921326], [13.42618574, 52.49205877]]]}}, {"type": "Feature", "properties": {"id": "HAUS561165", "typ": "Kindertagesstätte"}, "geometry": {"type": "Polygon", "coordinates": [[[13.44217043, 52.49692374], [13.44190417, 52.49702268], [13.44175095, 52.49707961], [13.44148429, 52.49680054], [13.4419349, 52.49664011], [13.44197791, 52.49668512], [13.44178183, 52.49675495], [13.44183074, 52.4968061], [13.44178225, 52.49682338], [13.44177042, 52.49681101], [13.44164908, 52.49685431], [13.44177959, 52.49699144], [13.4420927, 52.49687528], [13.44200486, 52.49678709], [13.44210749, 52.49674902], [13.44209429, 52.49673575], [13.4421049, 52.49673181], [13.44214129, 52.49672714], [13.44216595, 52.49672836], [13.44218554, 52.49673208], [13.44221167, 52.4967419], [13.44221549, 52.49674049], [13.44233662, 52.496862], [13.44217043, 52.49692374]]]}}, {"type": "Feature", "properties": {"id": "HAUS561387", "typ": "Kindertagesstätte"}, "geometry": {"type": "Polygon", "coordinates": [[[13.43290332, 52.49312628], [13.43315091, 52.49303558], [13.4328545, 52.49272441], [13.43299111, 52.49267558], [13.43297053, 52.49265563], [13.43297469, 52.492646], [13.4329942, 52.49263912], [13.43301219, 52.49264279], [13.43303051, 52.4926616], [13.43307477, 52.49264677], [13.433108, 52.49267546], [13.4331781, 52.49274796], [13.43311679, 52.49276914], [13.43316688, 52.49282235], [13.43322761, 52.49279917], [13.43332431, 52.49289919], [13.43326255, 52.49292187], [13.4333164, 52.49297507], [13.43337661, 52.49295328], [13.43347769, 52.4930578], [13.43330831, 52.49312271], [13.43327296, 52.49308834], [13.43317803, 52.4931225], [13.43321435, 52.49315871], [13.43313772, 52.49318807], [13.4330809, 52.49313144], [13.43295516, 52.49317849], [13.43290332, 52.49312628]]]}}, {"type": "Feature", "properties": {"id": "HAUS561389", "typ": "Kindertagesstätte"}, "geometry": {"type": "Polygon", "coordinates": [[[13.41363756, 52.49453007], [13.41365099, 52.49449594], [13.41363822, 52.4944932], [13.41364371, 52.49447709], [13.41362366, 52.49445462], [13.41365873, 52.49444323], [13.41366753, 52.49442227], [13.41369713, 52.4944254], [13.41371944, 52.49440764], [13.41372265, 52.49442856], [13.41375715, 52.49443615], [13.41374841, 52.49445565], [13.41376772, 52.49447448], [13.41373373, 52.49448766], [13.41372653, 52.49450797], [13.41372115, 52.49450609], [13.41371362, 52.49452549], [13.41363756, 52.49453007]]]}}, {"type": "Feature", "properties": {"id": "HAUS561807", "typ": "Kindertagesstätte"}, "geometry": {"type": "Polygon", "coordinates": [[[13.44021808, 52.49226055], [13.44023549, 52.49225126], [13.44023736, 52.49223429], [13.44022265, 52.49222203], [13.44032103, 52.49217087], [13.4403328, 52.49218013], [13.44040616, 52.49214371], [13.44041828, 52.49215366], [13.4404319, 52.49214595], [13.44040285, 52.49212349], [13.44046791, 52.49209023], [13.44049807, 52.49211383], [13.44051204, 52.49210752], [13.44050067, 52.49209734], [13.44063534, 52.49202808], [13.44064494, 52.49203388], [13.44066437, 52.49203517], [13.44067419, 52.49203089], [13.44077099, 52.49210384], [13.44076153, 52.49210881], [13.44075827, 52.49212118], [13.440766, 52.49212698], [13.44073382, 52.49214441], [13.4407456, 52.49215276], [13.44079171, 52.49213151], [13.44079871, 52.49213684], [13.44083345, 52.49213869], [13.44084214, 52.49213439], [13.44088193, 52.49216266], [13.44086942, 52.49217037], [13.44089697, 52.49219305], [13.44091172, 52.49218627], [13.44095003, 52.49221339], [13.4409402, 52.49221814], [13.44093595, 52.49224174], [13.44094517, 52.49224755], [13.44079538, 52.49232404], [13.44075356, 52.49229341], [13.44075071, 52.49228621], [13.44075388, 52.49227905], [13.44075753, 52.49227605], [13.44072772, 52.49225336], [13.44070541, 52.49226375], [13.44070701, 52.49226969], [13.44070063, 52.49227771], [13.44054706, 52.49235579], [13.44055551, 52.49236249], [13.44057137, 52.49235641], [13.44058326, 52.49235651], [13.44059833, 52.49236644], [13.44052281, 52.49240636], [13.44051012, 52.49240934], [13.44049665, 52.4924083], [13.4404856, 52.49240348], [13.44048185, 52.49239998], [13.44047903, 52.49239187], [13.44048014, 52.49238774], [13.44048286, 52.49238391], [13.44049311, 52.49237697], [13.44046072, 52.49235265], [13.44044559, 52.49236034], [13.44042975, 52.49234922], [13.44037491, 52.4923766], [13.44033663, 52.49234833], [13.44036311, 52.49233476], [13.44034799, 52.49232432], [13.44031471, 52.49234129], [13.44026203, 52.4923033], [13.44029685, 52.49228519], [13.44028284, 52.49227568], [13.44025449, 52.49228925], [13.44021808, 52.49226055]]]}}, {"type": "Feature", "properties": {"id": "HAUS563115", "typ": "Kindertagesstätte"}, "geometry": {"type": "Polygon", "coordinates": [[[13.43280757, 52.49323374], [13.43274453, 52.49316566], [13.43273742, 52.49315799], [13.43275544, 52.49315043], [13.4326904, 52.49308186], [13.43281462, 52.49303694], [13.43295516, 52.49317849], [13.43280757, 52.49323374]]]}}, {"type": "Feature", "properties": {"id": "HAUS563984", "typ": "Kindertagesstätte"}, "geometry": {"type": "Polygon", "coordinates": [[[13.42685788, 52.49500938], [13.42693295, 52.49498194], [13.4268092, 52.49485745], [13.42689588, 52.49482428], [13.4268899, 52.49481649], [13.42690079, 52.49481237], [13.42690902, 52.49481994], [13.4269649, 52.49479697], [13.42711945, 52.49494748], [13.42688243, 52.49503446], [13.42685788, 52.49500938]]]}}, {"type": "Feature", "properties": {"id": "HAUS564287", "typ": "Kindertagesstätte"}, "geometry": {"type": "Polygon", "coordinates": [[[13.41993711, 52.48926414], [13.42004449, 52.48925904], [13.42004717, 52.48927649], [13.42030477, 52.4892635], [13.42031337, 52.48933024], [13.42032499, 52.48933018], [13.4203298, 52.4893694], [13.4201526, 52.48937736], [13.42015583, 52.48940946], [13.4201029, 52.48941121], [13.42010349, 52.4894158], [13.4199785, 52.48942017], [13.4199706, 52.48935503], [13.41995029, 52.48935658], [13.41993711, 52.48926414]]]}}, {"type": "Feature", "properties": {"id": "HAUS564551", "typ": "Kindertagesstätte"}, "geometry": {"type": "Polygon", "coordinates": [[[13.41250836, 52.49472165], [13.41254895, 52.49460701], [13.41268025, 52.49462366], [13.41268622, 52.49460931], [13.41290723, 52.49463814], [13.41287186, 52.4947377], [13.41278245, 52.49472665], [13.41277106, 52.49475627], [13.41250836, 52.49472165]]]}}, {"type": "Feature", "properties": {"id": "HAUS564750", "typ": "Kindertagesstätte"}, "geometry": {"type": "Polygon", "coordinates": [[[13.4151535, 52.49725488], [13.41509186, 52.49727246], [13.4151454, 52.49734697], [13.41521631, 52.49732822], [13.41525154, 52.49737696], [13.41484587, 52.49748638], [13.41485502, 52.49749986], [13.41479959, 52.49751427], [13.41478963, 52.49749956], [13.41477794, 52.49750275], [13.41479955, 52.49753228], [13.41476634, 52.49754132], [13.41474473, 52.49751179], [13.41437932, 52.49761133], [13.41425419, 52.49743195], [13.41465622, 52.49732595], [13.41469041, 52.49737652], [13.41476124, 52.49735805], [13.41472554, 52.49730887], [13.41511869, 52.49720529], [13.41512337, 52.49721142], [13.41511822, 52.49721267], [13.41512947, 52.49722949], [13.41513463, 52.49722824], [13.4151535, 52.49725488]]]}}, {"type": "Feature", "properties": {"id": "HAUS566629", "typ": "Kindertagesstätte"}, "geometry": {"type": "Polygon", "coordinates": [[[13.43480403, 52.49582361], [13.43475173, 52.49577086], [13.43480165, 52.49575165], [13.43485533, 52.49580494], [13.43480403, 52.49582361]]]}}, {"type": "Feature", "properties": {"id": "HAUS576728", "typ": "Kindertagesstätte"}, "geometry": {"type": "Polygon", "coordinates": [[[13.41581374, 52.46102976], [13.41583428, 52.46101156], [13.41617313, 52.4609736], [13.41618474, 52.46101353], [13.41627063, 52.46100407], [13.41629023, 52.46106826], [13.41612536, 52.46108747], [13.41613854, 52.46112982], [13.41604345, 52.46114133], [13.41605069, 52.46116588], [13.41596957, 52.4611749], [13.41597421, 52.46119046], [13.41586543, 52.46120285], [13.41581374, 52.46102976]]]}}, {"type": "Feature", "properties": {"id": "HAUS577400", "typ": "Kindertagesstätte"}, "geometry": {"type": "Polygon", "coordinates": [[[13.43329151, 52.4630046], [13.43329346, 52.46299787], [13.43330911, 52.46298361], [13.43330691, 52.46298288], [13.43337152, 52.46291109], [13.43338092, 52.46291426], [13.43338522, 52.46290932], [13.43343987, 52.46292729], [13.43343544, 52.46293231], [13.43345041, 52.46293729], [13.43345485, 52.46293226], [13.43350935, 52.4629505], [13.43350507, 52.46295535], [13.43352152, 52.46296086], [13.4335258, 52.46295601], [13.43358046, 52.46297417], [13.43357617, 52.46297901], [13.43359115, 52.46298397], [13.43359545, 52.46297913], [13.43364995, 52.46299755], [13.43364581, 52.46300213], [13.43369077, 52.46301703], [13.43363473, 52.46308003], [13.43352474, 52.46306538], [13.43352016, 52.46303526], [13.4334766, 52.4630369], [13.43333074, 52.46301743], [13.43329151, 52.4630046]]]}}, {"type": "Feature", "properties": {"id": "HAUS577572", "typ": "Kindertagesstätte"}, "geometry": {"type": "Polygon", "coordinates": [[[13.42328918, 52.46753828], [13.42330682, 52.46748583], [13.42331877, 52.46744479], [13.42336789, 52.46745017], [13.4234048, 52.46732658], [13.42358379, 52.4673463], [13.42357005, 52.46739139], [13.4235957, 52.46739431], [13.42360102, 52.46737463], [13.42363905, 52.46737232], [13.42366445, 52.46737385], [13.42370075, 52.46738058], [13.42372309, 52.46738787], [13.42371683, 52.46740781], [13.42374243, 52.46741068], [13.42375601, 52.46736556], [13.42393498, 52.46738564], [13.42389778, 52.46750932], [13.42394705, 52.4675147], [13.42392013, 52.46760893], [13.42369026, 52.46758319], [13.42369833, 52.4675566], [13.42385054, 52.46757349], [13.42385817, 52.46754699], [13.42367551, 52.46752655], [13.42365301, 52.46753203], [13.42364106, 52.46753329], [13.42361686, 52.46753273], [13.42360509, 52.46753092], [13.42358333, 52.4675244], [13.42356535, 52.4675145], [13.42338285, 52.46749415], [13.42336671, 52.46754677], [13.42328918, 52.46753828]]]}}, {"type": "Feature", "properties": {"id": "HAUS577687", "typ": "Kindertagesstätte"}, "geometry": {"type": "Polygon", "coordinates": [[[13.4284945, 52.48518342], [13.42857831, 52.48518147], [13.42865719, 52.48517962], [13.42866372, 52.48529421], [13.42869505, 52.48529364], [13.42870363, 52.48544956], [13.42867243, 52.48545024], [13.42867897, 52.48556518], [13.42845828, 52.48557024], [13.42845653, 52.48553974], [13.42843532, 52.48554051], [13.42843191, 52.48548173], [13.42845324, 52.48548123], [13.42845162, 52.48545103], [13.42846647, 52.48545078], [13.42846364, 52.48539938], [13.42845404, 52.48539955], [13.42843768, 52.48537733], [13.42845147, 52.48535455], [13.42846104, 52.48535435], [13.42845817, 52.48530295], [13.42844334, 52.48530325], [13.42844168, 52.48527335], [13.42842032, 52.48527376], [13.4284169, 52.48521445], [13.42843827, 52.48521404], [13.42843661, 52.48518554], [13.4284945, 52.48518342]]]}}, {"type": "Feature", "properties": {"id": "HAUS577708", "typ": "Kindertagesstätte"}, "geometry": {"type": "Polygon", "coordinates": [[[13.43463064, 52.48751331], [13.43469321, 52.48749103], [13.43470068, 52.48749876], [13.43472096, 52.48749157], [13.43469653, 52.48746634], [13.43478381, 52.48743485], [13.43495641, 52.48761278], [13.43498756, 52.48760152], [13.43498336, 52.4875972], [13.43531767, 52.48747638], [13.43536947, 52.4875299], [13.43532513, 52.48754591], [13.4353373, 52.4875584], [13.43534973, 52.48755392], [13.43538654, 52.48759168], [13.43508366, 52.487701], [13.43507992, 52.48769714], [13.43504862, 52.48770843], [13.43505235, 52.48771229], [13.43488269, 52.48777355], [13.43485125, 52.48774066], [13.43483213, 52.48774767], [13.43481021, 52.48772537], [13.43484708, 52.48771205], [13.43482744, 52.48769179], [13.43480972, 52.48769819], [13.43463064, 52.48751331]]]}}, {"type": "Feature", "properties": {"id": "HAUS577776", "typ": "Kindertagesstätte"}, "geometry": {"type": "Polygon", "coordinates": [[[13.43760917, 52.45051917], [13.43776464, 52.45047358], [13.4377996, 52.4505211], [13.43781277, 52.45051814], [13.43781894, 52.45053234], [13.43780736, 52.45053477], [13.43787549, 52.45062918], [13.43777933, 52.45066049], [13.43778406, 52.45066854], [13.43776357, 52.45067387], [13.43775429, 52.45066533], [13.43772366, 52.45067423], [13.43760917, 52.45051917]]]}}, {"type": "Feature", "properties": {"id": "HAUS577856", "typ": "Kindertagesstätte"}, "geometry": {"type": "Polygon", "coordinates": [[[13.43976012, 52.45730235], [13.43980369, 52.45717158], [13.43986299, 52.4571789], [13.43987128, 52.45715398], [13.43981191, 52.45714662], [13.43983143, 52.4570879], [13.44012323, 52.45712364], [13.44011285, 52.45715406], [13.44028359, 52.45717491], [13.44029368, 52.45714486], [13.44058334, 52.45718089], [13.44056411, 52.4572398], [13.44050415, 52.45723235], [13.44049596, 52.4572571], [13.44055578, 52.45726446], [13.44051228, 52.45739547], [13.43976012, 52.45730235]]]}}, {"type": "Feature", "properties": {"id": "HAUS578678", "typ": "Kindertagesstätte"}, "geometry": {"type": "Polygon", "coordinates": [[[13.44165849, 52.47247028], [13.44168619, 52.47242763], [13.4416956, 52.47242999], [13.44169906, 52.47241202], [13.44167142, 52.47240515], [13.44168756, 52.47238046], [13.44170462, 52.47238462], [13.44170808, 52.47236647], [13.44175251, 52.47236978], [13.44176406, 52.47235191], [13.44181155, 52.47236322], [13.44180488, 52.47237363], [13.44189772, 52.47238061], [13.44188764, 52.47243074], [13.44190426, 52.47243472], [13.44188321, 52.47246776], [13.44185911, 52.47246197], [13.44185009, 52.47250643], [13.44168238, 52.47249387], [13.4416857, 52.47247697], [13.44165849, 52.47247028]]]}}, {"type": "Feature", "properties": {"id": "HAUS578946", "typ": "Kindertagesstätte"}, "geometry": {"type": "Polygon", "coordinates": [[[13.47330019, 52.46648727], [13.47332995, 52.46646834], [13.47334484, 52.4664771], [13.47336379, 52.46646453], [13.4733358, 52.46644862], [13.47348016, 52.46635346], [13.47345378, 52.46633861], [13.47370924, 52.46616936], [13.47381753, 52.46623058], [13.47380514, 52.46623876], [13.47416917, 52.46644305], [13.47397297, 52.46657309], [13.47391605, 52.46654104], [13.47395297, 52.46651671], [13.47392678, 52.46650198], [13.47395077, 52.4664865], [13.47378646, 52.46639375], [13.47348389, 52.46659457], [13.47330019, 52.46648727]]]}}, {"type": "Feature", "properties": {"id": "HAUS578949", "typ": "Kindertagesstätte"}, "geometry": {"type": "Polygon", "coordinates": [[[13.43611234, 52.4764821], [13.43613322, 52.47642583], [13.43635353, 52.47642045], [13.43635477, 52.47641239], [13.43636095, 52.47641226], [13.43636119, 52.47641577], [13.43649814, 52.47641242], [13.43649795, 52.47640891], [13.43650396, 52.47640877], [13.43650449, 52.47641677], [13.43656146, 52.47641537], [13.43656811, 52.47651472], [13.43656195, 52.47651486], [13.43656189, 52.47651369], [13.43615449, 52.47652356], [13.43616751, 52.4764886], [13.43611234, 52.4764821]]]}}, {"type": "Feature", "properties": {"id": "HAUS578985", "typ": "Kindertagesstätte"}, "geometry": {"type": "Polygon", "coordinates": [[[13.43584726, 52.47742986], [13.4358878, 52.4773155], [13.43610902, 52.47734541], [13.43606711, 52.47745925], [13.43584726, 52.47742986]]]}}, {"type": "Feature", "properties": {"id": "HAUS579224", "typ": "Kindertagesstätte"}, "geometry": {"type": "Polygon", "coordinates": [[[13.44332618, 52.45467031], [13.44337081, 52.45453598], [13.44389695, 52.45460109], [13.44389519, 52.45460648], [13.4438934, 52.4546062], [13.44388356, 52.45463613], [13.44391551, 52.45464002], [13.44391907, 52.45462333], [13.44392673, 52.45462028], [13.44392848, 52.45462191], [13.44395048, 52.45461322], [13.44394872, 52.45461152], [13.44395637, 52.45460847], [13.4439828, 52.45461282], [13.44398921, 52.45459341], [13.44394057, 52.45458742], [13.44394014, 52.4545885], [13.44393119, 52.45458736], [13.44403798, 52.45426565], [13.44425799, 52.45429283], [13.44411403, 52.45472662], [13.444107, 52.45474773], [13.44407018, 52.45476258], [13.44332618, 52.45467031]]]}}, {"type": "Feature", "properties": {"id": "HAUS579260", "typ": "Kindertagesstätte"}, "geometry": {"type": "Polygon", "coordinates": [[[13.44268793, 52.46150813], [13.44269561, 52.4614836], [13.44273691, 52.46134906], [13.44282808, 52.46135954], [13.44277917, 52.46151879], [13.44268793, 52.46150813]]]}}, {"type": "Feature", "properties": {"id": "HAUS579354", "typ": "Kindertagesstätte"}, "geometry": {"type": "Polygon", "coordinates": [[[13.43025229, 52.46538904], [13.43074389, 52.46536275], [13.4307455, 52.46537373], [13.43080735, 52.46537045], [13.43080544, 52.46535946], [13.43090186, 52.46535407], [13.43090498, 52.46534082], [13.43138315, 52.4653818], [13.43135919, 52.46548738], [13.43130642, 52.46548292], [13.43130626, 52.46547959], [13.43101647, 52.46545412], [13.43100295, 52.4655146], [13.43096766, 52.46551565], [13.43096475, 52.46549619], [13.43075673, 52.46550712], [13.43075709, 52.46550936], [13.43065378, 52.46551474], [13.43065158, 52.46549717], [13.43060003, 52.46550026], [13.43060052, 52.46550802], [13.43032443, 52.46552315], [13.43032333, 52.46551536], [13.4302704, 52.46551806], [13.43025229, 52.46538904]]]}}, {"type": "Feature", "properties": {"id": "HAUS579734", "typ": "Kindertagesstätte"}, "geometry": {"type": "Polygon", "coordinates": [[[13.43160537, 52.491026], [13.43161695, 52.49102158], [13.43162896, 52.49103433], [13.43186284, 52.49094684], [13.43200342, 52.49108903], [13.43198382, 52.49109625], [13.43205748, 52.49117307], [13.43192017, 52.49122218], [13.43184617, 52.49114561], [13.43183233, 52.49114906], [13.43175735, 52.49107159], [13.43167953, 52.49109919], [13.43160537, 52.491026]]]}}, {"type": "Feature", "properties": {"id": "HAUS579776", "typ": "Kindertagesstätte"}, "geometry": {"type": "Polygon", "coordinates": [[[13.4224549, 52.48377635], [13.42245192, 52.48387897], [13.42234919, 52.48387717], [13.42234768, 52.48391868], [13.42192112, 52.48391336], [13.42192248, 52.48387194], [13.42190247, 52.48387182], [13.42190093, 52.48391736], [13.42190284, 52.48391738], [13.42190265, 52.483926], [13.42175768, 52.48392432], [13.42176307, 52.48371412], [13.42190804, 52.48371564], [13.42190486, 52.48376973], [13.42192576, 52.48377003], [13.42192713, 52.48372888], [13.42235412, 52.48373411], [13.42235261, 52.48377545], [13.4224549, 52.48377635]]]}}, {"type": "Feature", "properties": {"id": "HAUS580083", "typ": "Kindertagesstätte"}, "geometry": {"type": "Polygon", "coordinates": [[[13.41898588, 52.47762157], [13.41898655, 52.47761609], [13.41902511, 52.47762094], [13.41904256, 52.47756689], [13.41912511, 52.47757684], [13.41912398, 52.47758204], [13.41926463, 52.47759819], [13.41926794, 52.47759244], [13.4193178, 52.4775984], [13.41931684, 52.4776036], [13.41938242, 52.477612], [13.4193843, 52.47760814], [13.41939444, 52.47760989], [13.4193741, 52.47766512], [13.4193685, 52.47766469], [13.41935409, 52.47771319], [13.41934613, 52.4777117], [13.41935155, 52.47769768], [13.41918239, 52.4776788], [13.41917742, 52.47769344], [13.41899086, 52.47767211], [13.41900531, 52.47762425], [13.41898588, 52.47762157]]]}}, {"type": "Feature", "properties": {"id": "HAUS580394", "typ": "Kindertagesstätte"}, "geometry": {"type": "Polygon", "coordinates": [[[13.446626, 52.47232531], [13.44663816, 52.4722894], [13.44665922, 52.47228125], [13.44665757, 52.4722793], [13.44668827, 52.47226719], [13.44669055, 52.47226887], [13.44671492, 52.47225886], [13.44672154, 52.47224082], [13.4467966, 52.47225067], [13.44683701, 52.47213395], [13.44686972, 52.47213805], [13.44687835, 52.47211283], [13.44682308, 52.47210572], [13.44683308, 52.47207602], [13.44689293, 52.47208349], [13.4469, 52.47206078], [13.44689682, 52.47205996], [13.44690551, 52.47203389], [13.44686606, 52.47202866], [13.44688981, 52.47195935], [13.44696589, 52.47196908], [13.44697207, 52.47195049], [13.44694658, 52.47194714], [13.44696338, 52.4719002], [13.4470012, 52.47188399], [13.44704219, 52.47188949], [13.44705068, 52.47186549], [13.44708473, 52.47186967], [13.44709643, 52.47188034], [13.44708929, 52.47190118], [13.44720074, 52.47191558], [13.44717887, 52.47197719], [13.44714275, 52.4719728], [13.44713645, 52.47199099], [13.44718843, 52.47199771], [13.44717518, 52.47203736], [13.44720011, 52.47204054], [13.44718967, 52.4720703], [13.44716493, 52.47206709], [13.44715747, 52.47208817], [13.44711197, 52.47210592], [13.44705838, 52.47226135], [13.44706938, 52.4722718], [13.44706469, 52.472285], [13.44710243, 52.47229], [13.44710598, 52.47227869], [13.44721616, 52.47229313], [13.4472142, 52.47229936], [13.44723589, 52.47231946], [13.44725155, 52.47232175], [13.44722388, 52.47240212], [13.44688922, 52.47235909], [13.446883, 52.4723766], [13.44683467, 52.47237021], [13.44683993, 52.4723529], [13.446626, 52.47232531]]]}}, {"type": "Feature", "properties": {"id": "HAUS580468", "typ": "Kindertagesstätte"}, "geometry": {"type": "Polygon", "coordinates": [[[13.43929644, 52.46405485], [13.43932527, 52.4639577], [13.43963052, 52.46399137], [13.43962611, 52.46400631], [13.4397481, 52.46401985], [13.43972417, 52.46410106], [13.43929644, 52.46405485]]]}}, {"type": "Feature", "properties": {"id": "HAUS580552", "typ": "Kindertagesstätte"}, "geometry": {"type": "Polygon", "coordinates": [[[13.44728283, 52.47171431], [13.44735606, 52.47167414], [13.44747012, 52.47161135], [13.44759372, 52.47169509], [13.44740597, 52.47179787], [13.44728283, 52.47171431]]]}}, {"type": "Feature", "properties": {"id": "HAUS580932", "typ": "Kindertagesstätte"}, "geometry": {"type": "Polygon", "coordinates": [[[13.45551508, 52.48338142], [13.45559298, 52.48334309], [13.45560416, 52.48335152], [13.45594465, 52.48333047], [13.45595475, 52.48339144], [13.45594867, 52.48339182], [13.4559509, 52.48340519], [13.45597894, 52.48340346], [13.45599203, 52.48348232], [13.45596399, 52.48348405], [13.4559662, 52.48349741], [13.45597228, 52.48349703], [13.45597943, 52.48354014], [13.4557291, 52.48355561], [13.45564188, 52.48359854], [13.45553789, 52.48351982], [13.45557021, 52.4835039], [13.45553028, 52.48347368], [13.45556261, 52.48345777], [13.45552268, 52.48342756], [13.455555, 52.48341165], [13.45551508, 52.48338142]]]}}, {"type": "Feature", "properties": {"id": "HAUS581478", "typ": "Kindertagesstätte"}, "geometry": {"type": "Polygon", "coordinates": [[[13.44097882, 52.47505218], [13.44100102, 52.47499482], [13.44118439, 52.47502122], [13.44120505, 52.47496568], [13.44102245, 52.47493935], [13.44106991, 52.47481665], [13.44128037, 52.4748474], [13.44128516, 52.47483514], [13.44141701, 52.47485439], [13.44140155, 52.47489389], [13.44143186, 52.47489833], [13.44142542, 52.47491477], [13.44159252, 52.47493936], [13.44156191, 52.47501858], [13.44148641, 52.47500771], [13.44144665, 52.47510947], [13.4413562, 52.47509561], [13.44133473, 52.47514933], [13.44117317, 52.47512527], [13.44117915, 52.47511025], [13.44113712, 52.475104], [13.4411249, 52.47513512], [13.44107827, 52.47512839], [13.4411009, 52.47506978], [13.44097882, 52.47505218]]]}}, {"type": "Feature", "properties": {"id": "HAUS581620", "typ": "Kindertagesstätte"}, "geometry": {"type": "Polygon", "coordinates": [[[13.4307321, 52.48850074], [13.43082401, 52.4884693], [13.43087856, 52.48852655], [13.43090768, 52.48851572], [13.43098195, 52.48859394], [13.4309531, 52.48860307], [13.43103398, 52.48868741], [13.43106355, 52.48867638], [13.4311094, 52.48872314], [13.43097741, 52.48877246], [13.43091927, 52.48871072], [13.43088483, 52.48872193], [13.43084649, 52.48868182], [13.43086517, 52.48867514], [13.43082784, 52.48863502], [13.43080504, 52.48864261], [13.43078032, 52.48861911], [13.43078619, 52.48861596], [13.43076709, 52.48859613], [13.43076003, 52.4886], [13.43073885, 52.48857838], [13.430789, 52.48855932], [13.4307321, 52.48850074]]]}}, {"type": "Feature", "properties": {"id": "HAUS581741", "typ": "Kindertagesstätte"}, "geometry": {"type": "Polygon", "coordinates": [[[13.41927774, 52.47791727], [13.41927989, 52.47791225], [13.4192983, 52.47791522], [13.41931664, 52.47785173], [13.41929826, 52.47784975], [13.41932618, 52.47776272], [13.41943267, 52.47777551], [13.41943017, 52.47778836], [13.41968409, 52.4778169], [13.41967663, 52.47784464], [13.41963765, 52.47784051], [13.41962656, 52.47788263], [13.41967232, 52.47788968], [13.41965742, 52.47793164], [13.41965063, 52.47793033], [13.41965133, 52.47792682], [13.41943461, 52.47790196], [13.41942149, 52.47793449], [13.41927774, 52.47791727]]]}}, {"type": "Feature", "properties": {"id": "HAUS581803", "typ": "Kindertagesstätte"}, "geometry": {"type": "Polygon", "coordinates": [[[13.43678938, 52.46491508], [13.43679326, 52.46490232], [13.43671355, 52.46489348], [13.43678862, 52.46464656], [13.43696143, 52.46466615], [13.43694784, 52.46471142], [13.43693652, 52.46471024], [13.43688604, 52.46488297], [13.43689075, 52.46488351], [13.4368791, 52.46492303], [13.43687557, 52.46492258], [13.43687527, 52.46492447], [13.43678938, 52.46491508]]]}}, {"type": "Feature", "properties": {"id": "HAUS581843", "typ": "Kindertagesstätte"}, "geometry": {"type": "Polygon", "coordinates": [[[13.44427462, 52.47673709], [13.44439959, 52.47666027], [13.44452806, 52.47673765], [13.44447578, 52.4767708], [13.44451563, 52.47679332], [13.44460852, 52.47674013], [13.44456721, 52.4767126], [13.44471752, 52.47662495], [13.44486307, 52.4767158], [13.44471849, 52.47680125], [13.44469829, 52.47679152], [13.44465917, 52.47681361], [13.44467798, 52.47682522], [13.4445479, 52.4769021], [13.44444219, 52.47683825], [13.44446125, 52.47682835], [13.44442038, 52.47680422], [13.44440022, 52.47681293], [13.44427462, 52.47673709]]]}}, {"type": "Feature", "properties": {"id": "HAUS581913", "typ": "Kindertagesstätte"}, "geometry": {"type": "Polygon", "coordinates": [[[13.45262078, 52.4771584], [13.45300022, 52.47697053], [13.45306965, 52.47702213], [13.4530565, 52.47702874], [13.45306759, 52.47703702], [13.45310891, 52.47701651], [13.45316184, 52.47705622], [13.45312013, 52.4770769], [13.45313006, 52.47708443], [13.45314309, 52.47707802], [13.45321149, 52.47713012], [13.45306749, 52.47720143], [13.45307688, 52.47720849], [13.45298547, 52.47725362], [13.45297616, 52.47724664], [13.45283238, 52.47731784], [13.45276338, 52.47726605], [13.45277625, 52.47725965], [13.45276651, 52.47725226], [13.45272489, 52.47727286], [13.45267213, 52.47723316], [13.45271354, 52.47721266], [13.45270231, 52.47720417], [13.45268947, 52.47721049], [13.45262078, 52.4771584]]]}}, {"type": "Feature", "properties": {"id": "HAUS582406", "typ": "Kindertagesstätte"}, "geometry": {"type": "Polygon", "coordinates": [[[13.44049258, 52.48006059], [13.44055221, 52.47991339], [13.44064753, 52.47992792], [13.44063355, 52.47996241], [13.44066562, 52.47996732], [13.44066651, 52.47996525], [13.44094893, 52.48000802], [13.44094804, 52.48001018], [13.44103144, 52.48002288], [13.44103069, 52.48002486], [13.44108423, 52.48003304], [13.44110044, 52.47999298], [13.44119399, 52.48000714], [13.44112602, 52.48017455], [13.44103247, 52.48016038], [13.44104512, 52.48012949], [13.44099128, 52.48012132], [13.44099039, 52.48012356], [13.44077342, 52.48009051], [13.44077298, 52.48009159], [13.44075857, 52.48008941], [13.44074697, 52.48011769], [13.44057193, 52.48009118], [13.44057862, 52.48007484], [13.44057288, 52.48007402], [13.44057348, 52.48007285], [13.44049258, 52.48006059]]]}}, {"type": "Feature", "properties": {"id": "HAUS582867", "typ": "Kindertagesstätte"}, "geometry": {"type": "Polygon", "coordinates": [[[13.47215809, 52.46625562], [13.47225597, 52.46618925], [13.4722601, 52.46619153], [13.47228354, 52.46617564], [13.47227937, 52.46617336], [13.47237744, 52.46610683], [13.47242607, 52.46613278], [13.47246637, 52.46610546], [13.47244471, 52.46609355], [13.47246732, 52.46607755], [13.47248951, 52.46608976], [13.4725092, 52.46607641], [13.4723601, 52.46599432], [13.47242932, 52.46594759], [13.47246351, 52.46596644], [13.4724895, 52.46594922], [13.4725428, 52.46597843], [13.4725391, 52.46598097], [13.4725678, 52.4659967], [13.47259354, 52.46597929], [13.47264706, 52.46600847], [13.47264331, 52.466011], [13.47267223, 52.46602679], [13.47269798, 52.46600939], [13.47275093, 52.46603858], [13.47268064, 52.46608624], [13.47263675, 52.46606296], [13.47257242, 52.46610295], [13.47259885, 52.46611681], [13.4725261, 52.46616875], [13.47253957, 52.46617612], [13.47248252, 52.46621497], [13.47245096, 52.4661977], [13.47236433, 52.46625671], [13.47237939, 52.46626502], [13.47236944, 52.46627177], [13.4723654, 52.46626953], [13.47226298, 52.46633834], [13.4721751, 52.46628966], [13.47219515, 52.46627616], [13.47215809, 52.46625562]]]}}, {"type": "Feature", "properties": {"id": "HAUS582891", "typ": "Kindertagesstätte"}, "geometry": {"type": "Polygon", "coordinates": [[[13.44726669, 52.48673155], [13.44742809, 52.48664163], [13.44748115, 52.48667708], [13.44740328, 52.48672025], [13.4474942, 52.48678121], [13.44756768, 52.48674101], [13.44754289, 52.48672464], [13.44770522, 52.48663434], [13.44772997, 52.48665063], [13.44783354, 52.48659323], [13.44788478, 52.4866275], [13.44783147, 52.48665693], [13.44785291, 52.48666889], [13.44792796, 52.48671921], [13.44790199, 52.48673383], [13.44792291, 52.48674771], [13.44797656, 52.48671794], [13.44804888, 52.48676629], [13.44799509, 52.48679658], [13.44799707, 52.48679778], [13.44794397, 52.48682711], [13.44799233, 52.4868595], [13.44799048, 52.48686053], [13.44803489, 52.48689098], [13.44795666, 52.48693445], [13.44793516, 52.48691973], [13.4478279, 52.48697922], [13.4477559, 52.48693094], [13.44772982, 52.48694567], [13.44763534, 52.4868823], [13.44758315, 52.4869115], [13.44753514, 52.4868795], [13.44750906, 52.48689417], [13.44726669, 52.48673155]]]}}, {"type": "Feature", "properties": {"id": "HAUS583143", "typ": "Kindertagesstätte"}, "geometry": {"type": "Polygon", "coordinates": [[[13.42158647, 52.48354151], [13.4216189, 52.48341968], [13.42160314, 52.48341808], [13.42160417, 52.48341472], [13.4216377, 52.48341814], [13.42165175, 52.4834181], [13.42165243, 52.48348644], [13.42175403, 52.48348592], [13.42175417, 52.48344086], [13.42189199, 52.48344131], [13.42189427, 52.48358831], [13.42175115, 52.48358782], [13.42175067, 52.48357047], [13.42175637, 52.48356225], [13.42162616, 52.48356278], [13.42162638, 52.48354565], [13.42158647, 52.48354151]]]}}, {"type": "Feature", "properties": {"id": "HAUS583379", "typ": "Kindertagesstätte"}, "geometry": {"type": "Polygon", "coordinates": [[[13.43603809, 52.48459037], [13.43608781, 52.48456326], [13.43614995, 52.48453574], [13.43618438, 52.48456367], [13.4362586, 52.4845282], [13.43643792, 52.48466598], [13.43634545, 52.48471283], [13.4363547, 52.48472039], [13.43629336, 52.48475183], [13.43614001, 52.4846355], [13.43611375, 52.48464831], [13.43603809, 52.48459037]]]}}, {"type": "Feature", "properties": {"id": "HAUS583691", "typ": "Kindertagesstätte"}, "geometry": {"type": "Polygon", "coordinates": [[[13.46991491, 52.4686422], [13.46997007, 52.46860561], [13.47019271, 52.46873091], [13.47007235, 52.46881073], [13.4700236, 52.46878307], [13.46996342, 52.46882335], [13.46996635, 52.46882506], [13.46964657, 52.46903842], [13.46953365, 52.46897456], [13.46955886, 52.46895851], [13.46941362, 52.46887681], [13.46948694, 52.46882847], [13.46963129, 52.46891017], [13.46985622, 52.46876164], [13.46993493, 52.46880614], [13.46999379, 52.4687665], [13.46985016, 52.46868561], [13.46991491, 52.4686422]]]}}, {"type": "Feature", "properties": {"id": "HAUS583781", "typ": "Kindertagesstätte"}, "geometry": {"type": "Polygon", "coordinates": [[[13.43762799, 52.46470189], [13.43762809, 52.46470073], [13.437636, 52.46467415], [13.43764085, 52.46467065], [13.43772148, 52.46467869], [13.43774491, 52.46459794], [13.43825481, 52.4646542], [13.4382318, 52.46473414], [13.43824673, 52.46473564], [13.43824973, 52.46473705], [13.43825104, 52.46474038], [13.43824266, 52.46476871], [13.43823662, 52.46477122], [13.43822163, 52.46476971], [13.43819863, 52.46484975], [13.4381223, 52.46484154], [13.43811543, 52.46486723], [13.43802145, 52.4648572], [13.43802818, 52.46483133], [13.4377464, 52.46480077], [13.43773804, 52.46482951], [13.43768333, 52.4648234], [13.4376911, 52.4647961], [13.43768742, 52.46479565], [13.43771116, 52.46471435], [13.43763395, 52.46470596], [13.43762799, 52.46470189]]]}}, {"type": "Feature", "properties": {"id": "HAUS583966", "typ": "Kindertagesstätte"}, "geometry": {"type": "Polygon", "coordinates": [[[13.43592723, 52.48450745], [13.43598053, 52.4844817], [13.43601274, 52.48450649], [13.43600433, 52.48451074], [13.43601014, 52.484515], [13.436017, 52.48451151], [13.43608781, 52.48456326], [13.43603809, 52.48459037], [13.43592723, 52.48450745]]]}}, {"type": "Feature", "properties": {"id": "HAUS584088", "typ": "Kindertagesstätte"}, "geometry": {"type": "Polygon", "coordinates": [[[13.47223266, 52.46590471], [13.47219721, 52.46588484], [13.47226265, 52.46584089], [13.47227929, 52.46584999], [13.47244603, 52.46573742], [13.47256122, 52.46580129], [13.4723954, 52.46591363], [13.47234652, 52.4658867], [13.47228454, 52.46592834], [13.4722368, 52.4659019], [13.47223266, 52.46590471]]]}}, {"type": "Feature", "properties": {"id": "HAUS584266", "typ": "Kindertagesstätte"}, "geometry": {"type": "Polygon", "coordinates": [[[13.42441192, 52.46525167], [13.42442216, 52.46522196], [13.42444026, 52.46521491], [13.42444213, 52.46520974], [13.42448644, 52.4652151], [13.42448495, 52.46521969], [13.42450798, 52.4652405], [13.42459959, 52.46525128], [13.42463646, 52.46513556], [13.42467254, 52.46513956], [13.42473268, 52.46511524], [13.42473645, 52.46510451], [13.42482042, 52.46511428], [13.42481494, 52.46512925], [13.42486783, 52.46517788], [13.42488694, 52.46517924], [13.42493709, 52.46522384], [13.42493194, 52.46523583], [13.4249878, 52.46528545], [13.42502576, 52.46528995], [13.42500942, 52.46534127], [13.4249935, 52.4653393], [13.42494321, 52.46535995], [13.42493031, 52.46539854], [13.42486719, 52.465391], [13.42486261, 52.46539275], [13.42484283, 52.46537516], [13.42469236, 52.46535751], [13.42468951, 52.46536269], [13.42467978, 52.46536609], [13.42465194, 52.4653637], [13.42464144, 52.46535917], [13.42464084, 52.46535133], [13.42460151, 52.46534736], [13.42460396, 52.46533939], [13.42451554, 52.46532921], [13.42453672, 52.4652639], [13.42450179, 52.46525962], [13.4244986, 52.46526941], [13.424422, 52.46525959], [13.42441192, 52.46525167]]]}}, {"type": "Feature", "properties": {"id": "HAUS584364", "typ": "Kindertagesstätte"}, "geometry": {"type": "Polygon", "coordinates": [[[13.46554086, 52.4717265], [13.46559913, 52.47168562], [13.46562556, 52.47169909], [13.46568088, 52.47165969], [13.46569736, 52.47166876], [13.46574593, 52.47163444], [13.4657354, 52.47162914], [13.46579309, 52.47158956], [13.46577751, 52.47158202], [13.46583963, 52.471538], [13.46596067, 52.47160097], [13.46610054, 52.47150414], [13.46613602, 52.47152325], [13.46619257, 52.47148433], [13.46616421, 52.47146951], [13.46622634, 52.47142802], [13.46628931, 52.47146152], [13.46631963, 52.47144054], [13.46644259, 52.47150738], [13.46631205, 52.47159799], [13.46628753, 52.47158506], [13.46624939, 52.47160786], [13.46625993, 52.4716138], [13.46606616, 52.47175045], [13.46596027, 52.47169366], [13.4659062, 52.47170459], [13.46589862, 52.47170099], [13.46572113, 52.47182683], [13.46560388, 52.47176551], [13.46560828, 52.47176234], [13.46554086, 52.4717265]]]}}, {"type": "Feature", "properties": {"id": "HAUS584545", "typ": "Kindertagesstätte"}, "geometry": {"type": "Polygon", "coordinates": [[[13.43264168, 52.48729994], [13.43264624, 52.48729828], [13.43320556, 52.48709611], [13.43330257, 52.48719598], [13.43317019, 52.48724377], [13.43315287, 52.48722592], [13.43314146, 52.48723002], [13.43315876, 52.48724791], [13.43302626, 52.48729577], [13.43300885, 52.48727781], [13.43299692, 52.48728212], [13.43301434, 52.48730007], [13.43288218, 52.48734777], [13.43286482, 52.48732984], [13.43285287, 52.48733415], [13.43287027, 52.48735208], [13.43273838, 52.4873997], [13.43264168, 52.48729994]]]}}, {"type": "Feature", "properties": {"id": "HAUS584806", "typ": "Kindertagesstätte"}, "geometry": {"type": "Polygon", "coordinates": [[[13.4370934, 52.47689201], [13.43712346, 52.47681873], [13.43723517, 52.47683636], [13.43727556, 52.4767354], [13.43741289, 52.47675618], [13.4373853, 52.47682626], [13.43754444, 52.47685037], [13.43764457, 52.47660456], [13.43778368, 52.47662594], [13.43771249, 52.47680152], [13.4376539, 52.47694406], [13.43735537, 52.4768981], [13.43734294, 52.47693039], [13.4370934, 52.47689201]]]}}, {"type": "Feature", "properties": {"id": "HAUS584937", "typ": "Kindertagesstätte"}, "geometry": {"type": "Polygon", "coordinates": [[[13.43611234, 52.4764821], [13.43616751, 52.4764886], [13.43612456, 52.47660097], [13.43603048, 52.47658824], [13.43603172, 52.47658491], [13.43571139, 52.47654155], [13.43571063, 52.47654373], [13.4355612, 52.47652072], [13.43555984, 52.4765244], [13.43555378, 52.47652359], [13.43556701, 52.47648769], [13.43556125, 52.47648689], [13.43556988, 52.47646345], [13.43557566, 52.47646425], [13.43559512, 52.47641133], [13.43611234, 52.4764821]]]}}, {"type": "Feature", "properties": {"id": "HAUS585151", "typ": "Kindertagesstätte"}, "geometry": {"type": "Polygon", "coordinates": [[[13.43057764, 52.48914186], [13.43089607, 52.48902444], [13.43101044, 52.48913932], [13.43098409, 52.489149], [13.43109077, 52.48925706], [13.43112332, 52.4892453], [13.4311993, 52.48932221], [13.43091196, 52.48942854], [13.43080647, 52.48932232], [13.43085293, 52.48930513], [13.43082313, 52.48927465], [13.43083805, 52.48926921], [13.43081801, 52.48924888], [13.43080321, 52.48925428], [13.43074467, 52.4891944], [13.43066099, 52.48922525], [13.43057764, 52.48914186]]]}}, {"type": "Feature", "properties": {"id": "HAUS589860", "typ": "Kindertagesstätte"}, "geometry": {"type": "Polygon", "coordinates": [[[13.47633846, 52.46785188], [13.47662606, 52.46764153], [13.47674122, 52.46770224], [13.47663356, 52.46777991], [13.47690139, 52.46792026], [13.47680784, 52.46798562], [13.47663908, 52.46789494], [13.47667321, 52.46786931], [13.4765782, 52.46781986], [13.47645012, 52.46791226], [13.47633846, 52.46785188]]]}}, {"type": "Feature", "properties": {"id": "HAUS600453", "typ": "Kindertagesstätte"}, "geometry": {"type": "Polygon", "coordinates": [[[13.41807736, 52.46227577], [13.418068, 52.462308], [13.41785026, 52.46228754], [13.41784588, 52.46230457], [13.41775447, 52.46229679], [13.41777997, 52.46219414], [13.41787324, 52.46220214], [13.41787031, 52.46220954], [13.41809057, 52.46223037], [13.41807736, 52.46227577]]]}}, {"type": "Feature", "properties": {"id": "HAUS601026", "typ": "Kindertagesstätte"}, "geometry": {"type": "Polygon", "coordinates": [[[13.41755264, 52.46194802], [13.41765027, 52.46193631], [13.41765398, 52.46194706], [13.41780299, 52.46193149], [13.4178196, 52.46198772], [13.4176739, 52.46200598], [13.41769606, 52.46208216], [13.41775048, 52.46207606], [13.4177722, 52.46215426], [13.41761436, 52.4621714], [13.41755264, 52.46194802]]]}}, {"type": "Feature", "properties": {"id": "HAUS603636", "typ": "Kindertagesstätte"}, "geometry": {"type": "Polygon", "coordinates": [[[13.48489347, 52.47604347], [13.4852773, 52.47562025], [13.48542925, 52.47567399], [13.4851513, 52.4759812], [13.48530705, 52.47603314], [13.48547801, 52.47584472], [13.48532272, 52.47579174], [13.48534126, 52.47577125], [13.48549702, 52.47582377], [13.48560968, 52.4756996], [13.48576123, 52.47575059], [13.48566089, 52.47586091], [13.48568978, 52.47587051], [13.48566725, 52.47589609], [13.48563848, 52.47588554], [13.48544824, 52.47609468], [13.4854757, 52.47610382], [13.48545412, 52.47612756], [13.48542646, 52.4761186], [13.48532701, 52.47622794], [13.48517791, 52.47617545], [13.48528529, 52.47605712], [13.48512935, 52.47600546], [13.48504773, 52.47609568], [13.48489347, 52.47604347]]]}}, {"type": "Feature", "properties": {"id": "HAUS605015", "typ": "Kindertagesstätte"}, "geometry": {"type": "Polygon", "coordinates": [[[13.45897733, 52.49428729], [13.4590368, 52.49426316], [13.45903924, 52.49425029], [13.45904732, 52.49424311], [13.45905924, 52.49423834], [13.4590603, 52.49422472], [13.45907155, 52.49422075], [13.4590652, 52.49421492], [13.45913374, 52.49418507], [13.45915977, 52.49421021], [13.45919903, 52.49419346], [13.45917815, 52.4941757], [13.4591984, 52.49416637], [13.45921997, 52.49418453], [13.45922365, 52.49418295], [13.45925849, 52.49421265], [13.45921644, 52.49423175], [13.45926699, 52.49427562], [13.45928766, 52.49426712], [13.45933317, 52.49430786], [13.45933751, 52.49430638], [13.45934585, 52.49431376], [13.45923572, 52.49435657], [13.45925319, 52.49437283], [13.4592373, 52.49437876], [13.45924732, 52.49438927], [13.45920247, 52.49440801], [13.45919142, 52.49439793], [13.45917868, 52.49440336], [13.45911283, 52.49434667], [13.45909384, 52.49435427], [13.45904859, 52.49431512], [13.45907949, 52.49430367], [13.45905545, 52.49428353], [13.45899991, 52.49430846], [13.45897733, 52.49428729]]]}}, {"type": "Feature", "properties": {"id": "HAUS606009", "typ": "Kindertagesstätte"}, "geometry": {"type": "Polygon", "coordinates": [[[13.45148476, 52.49035329], [13.45155168, 52.49030414], [13.45153671, 52.49029593], [13.4516247, 52.49023282], [13.45168555, 52.49026531], [13.45169585, 52.4902578], [13.45173668, 52.49027997], [13.45171432, 52.49029514], [13.45177516, 52.49032709], [13.45162717, 52.49042938], [13.45148476, 52.49035329]]]}}, {"type": "Feature", "properties": {"id": "HAUS611615", "typ": "Kindertagesstätte"}, "geometry": {"type": "Polygon", "coordinates": [[[13.4342413, 52.45713001], [13.4343316, 52.45687717], [13.43440968, 52.45688764], [13.43441735, 52.45686527], [13.43439378, 52.45686206], [13.43447547, 52.45663378], [13.43465343, 52.45665765], [13.43459863, 52.45681171], [13.43458176, 52.45680946], [13.43457501, 52.45682835], [13.4345918, 52.45683058], [13.4345719, 52.45688597], [13.43451807, 52.45687904], [13.43446577, 52.45702419], [13.43452777, 52.45703226], [13.4345186, 52.45705881], [13.43454679, 52.45706255], [13.43450432, 52.45718256], [13.43434764, 52.45716185], [13.43435351, 52.4571449], [13.4342413, 52.45713001]]]}}, {"type": "Feature", "properties": {"id": "HAUS612562", "typ": "Kindertagesstätte"}, "geometry": {"type": "Polygon", "coordinates": [[[13.43663876, 52.48618561], [13.43679697, 52.48610852], [13.43691639, 52.48619954], [13.43689625, 52.48620939], [13.43701322, 52.48629881], [13.4370894, 52.48626161], [13.43708263, 52.48625637], [13.43713011, 52.48623322], [13.43713701, 52.48623851], [13.43733102, 52.48614377], [13.4373173, 52.48613324], [13.43732161, 52.48613122], [13.43744587, 52.48622555], [13.43721608, 52.48633794], [13.43720172, 52.48632677], [13.43717533, 52.48633958], [13.43718997, 52.48635069], [13.43711968, 52.48638495], [13.43710144, 52.48637092], [13.4369593, 52.48644047], [13.4367903, 52.48631174], [13.43679897, 52.48630752], [13.43663876, 52.48618561]]]}}, {"type": "Feature", "properties": {"id": "HAUS615421", "typ": "Kindertagesstätte"}, "geometry": {"type": "Polygon", "coordinates": [[[13.43791925, 52.47512937], [13.43795438, 52.47504753], [13.43822858, 52.47509146], [13.4382055, 52.47517514], [13.43791925, 52.47512937]]]}}, {"type": "Feature", "properties": {"id": "HAUS625980", "typ": "Kindertagesstätte"}, "geometry": {"type": "Polygon", "coordinates": [[[13.47446877, 52.47493707], [13.474556, 52.47487023], [13.47474431, 52.4749689], [13.47475922, 52.47495927], [13.47494004, 52.47505736], [13.47484668, 52.47512101], [13.47470048, 52.47504412], [13.47468837, 52.4750527], [13.47446877, 52.47493707]]]}}, {"type": "Feature", "properties": {"id": "HAUS628128", "typ": "Kindertagesstätte"}, "geometry": {"type": "Polygon", "coordinates": [[[13.48033372, 52.47972773], [13.4804208, 52.47965933], [13.48061439, 52.47974804], [13.48062309, 52.4797394], [13.4808128, 52.4798256], [13.48079372, 52.47984199], [13.48080322, 52.47984672], [13.48078942, 52.47985867], [13.48077746, 52.47985439], [13.48073004, 52.47989308], [13.48057539, 52.47982305], [13.48056444, 52.47983169], [13.48033372, 52.47972773]]]}}, {"type": "Feature", "properties": {"id": "HAUS628996", "typ": "Kindertagesstätte"}, "geometry": {"type": "Polygon", "coordinates": [[[13.48678087, 52.46258996], [13.4869032, 52.46252152], [13.48706273, 52.46262617], [13.48719413, 52.46255156], [13.48707112, 52.46247062], [13.48719298, 52.46240011], [13.48773042, 52.46275672], [13.48761, 52.46282517], [13.48722008, 52.46256863], [13.48708834, 52.46264298], [13.48732926, 52.46280105], [13.48746057, 52.46272686], [13.48748515, 52.46274303], [13.48735434, 52.4628175], [13.48751742, 52.46292449], [13.48739422, 52.46299418], [13.48678087, 52.46258996]]]}}, {"type": "Feature", "properties": {"id": "HAUS630873", "typ": "Kindertagesstätte"}, "geometry": {"type": "Polygon", "coordinates": [[[13.47512729, 52.47516033], [13.47554129, 52.47487557], [13.47563113, 52.47492458], [13.47534123, 52.47512653], [13.47536492, 52.47513769], [13.47537104, 52.4751323], [13.47548672, 52.47519724], [13.47538317, 52.4752704], [13.47525511, 52.47520136], [13.47523273, 52.4752175], [13.47512729, 52.47516033]]]}}, {"type": "Feature", "properties": {"id": "HAUS631335", "typ": "Kindertagesstätte"}, "geometry": {"type": "Polygon", "coordinates": [[[13.45274783, 52.49424328], [13.45279975, 52.49421078], [13.45317512, 52.49397562], [13.45329477, 52.49404511], [13.45322955, 52.49408795], [13.45322363, 52.49408461], [13.45298477, 52.49423587], [13.45300748, 52.49424849], [13.45301308, 52.49424587], [13.45311928, 52.49430937], [13.45301748, 52.49437456], [13.45288661, 52.49429801], [13.45286393, 52.49431239], [13.45274783, 52.49424328]]]}}, {"type": "Feature", "properties": {"id": "HAUS632230", "typ": "Kindertagesstätte"}, "geometry": {"type": "Polygon", "coordinates": [[[13.48627783, 52.46298267], [13.48638656, 52.46293038], [13.48654239, 52.46304842], [13.48655297, 52.46304213], [13.48670423, 52.46315603], [13.48659944, 52.46320915], [13.48647256, 52.46311497], [13.4864586, 52.46312177], [13.48627783, 52.46298267]]]}}, {"type": "Feature", "properties": {"id": "HAUS632809", "typ": "Kindertagesstätte"}, "geometry": {"type": "Polygon", "coordinates": [[[13.45287231, 52.49373116], [13.45304381, 52.49362184], [13.45303168, 52.49361516], [13.45319835, 52.49350994], [13.45329356, 52.49356821], [13.45315886, 52.49365357], [13.45317352, 52.49366349], [13.45297319, 52.49379089], [13.45287231, 52.49373116]]]}}, {"type": "Feature", "properties": {"id": "HAUS634467", "typ": "Kindertagesstätte"}, "geometry": {"type": "Polygon", "coordinates": [[[13.4583159, 52.49353772], [13.45841946, 52.49350668], [13.45867832, 52.4934291], [13.45866378, 52.49341092], [13.45871013, 52.49339648], [13.45870079, 52.49338489], [13.45887542, 52.49333366], [13.45899074, 52.49348417], [13.45889148, 52.49351475], [13.45890149, 52.49352773], [13.45877973, 52.49356329], [13.45875819, 52.49353478], [13.45858818, 52.49358463], [13.45866286, 52.49368035], [13.45847602, 52.49373637], [13.45843061, 52.49367947], [13.45844355, 52.49367618], [13.4583907, 52.49361013], [13.4583993, 52.49360727], [13.45838274, 52.49358631], [13.45836023, 52.49359223], [13.4583159, 52.49353772]]]}}, {"type": "Feature", "properties": {"id": "HAUS635210", "typ": "Kindertagesstätte"}, "geometry": {"type": "Polygon", "coordinates": [[[13.45646907, 52.49284955], [13.4570125, 52.49249133], [13.45714614, 52.49256687], [13.45699385, 52.49266734], [13.45660226, 52.49292499], [13.45646907, 52.49284955]]]}}, {"type": "Feature", "properties": {"id": "HAUS635343", "typ": "Kindertagesstätte"}, "geometry": {"type": "Polygon", "coordinates": [[[13.48149107, 52.47718539], [13.48153788, 52.47715055], [13.48187606, 52.47689299], [13.48200851, 52.47695847], [13.4819453, 52.47700564], [13.48193751, 52.4770018], [13.48172298, 52.47716195], [13.4817484, 52.47717437], [13.48175503, 52.4771703], [13.48187629, 52.47723013], [13.48178163, 52.47730351], [13.48163321, 52.47722902], [13.48161122, 52.47724543], [13.48149107, 52.47718539]]]}}, {"type": "Feature", "properties": {"id": "HAUS635430", "typ": "Kindertagesstätte"}, "geometry": {"type": "Polygon", "coordinates": [[[13.44664878, 52.49026265], [13.44728928, 52.48988742], [13.44740577, 52.48996239], [13.4472748, 52.49003876], [13.44729322, 52.4900524], [13.44723123, 52.49008973], [13.44721089, 52.49007603], [13.44695527, 52.49022508], [13.44697656, 52.4902385], [13.44691092, 52.49027777], [13.44688854, 52.49026399], [13.44676314, 52.49033712], [13.44664878, 52.49026265]]]}}, {"type": "Feature", "properties": {"id": "HAUS635436", "typ": "Kindertagesstätte"}, "geometry": {"type": "Polygon", "coordinates": [[[13.47697356, 52.46773338], [13.47713887, 52.46761883], [13.47712399, 52.46761052], [13.47727467, 52.46750593], [13.4773818, 52.46756472], [13.47725438, 52.46765015], [13.47727162, 52.46766031], [13.47708421, 52.46779169], [13.47697356, 52.46773338]]]}}, {"type": "Feature", "properties": {"id": "HAUS641697", "typ": "Kindertagesstätte"}, "geometry": {"type": "Polygon", "coordinates": [[[13.47836027, 52.49801602], [13.47887686, 52.49791188], [13.47896216, 52.49807357], [13.47844734, 52.49817725], [13.47836027, 52.49801602]]]}}, {"type": "Feature", "properties": {"id": "HAUS675137", "typ": "Kindertagesstätte"}, "geometry": {"type": "Polygon", "coordinates": [[[13.43784105, 52.47057899], [13.43785015, 52.47058008], [13.4382095, 52.47062309], [13.43817134, 52.47073895], [13.43775916, 52.47068956], [13.43779686, 52.47057364], [13.43784105, 52.47057899]]]}}, {"type": "Feature", "properties": {"id": "HAUS675589", "typ": "Kindertagesstätte"}, "geometry": {"type": "Polygon", "coordinates": [[[13.43655851, 52.46285058], [13.43657151, 52.46285124], [13.43661445, 52.46285533], [13.43664323, 52.46286034], [13.43666154, 52.46286548], [13.4366833, 52.46287566], [13.43670369, 52.4628906], [13.43671838, 52.46290923], [13.43672081, 52.46291419], [13.43671259, 52.46293446], [13.43670099, 52.46294846], [13.43668979, 52.46295774], [13.43667238, 52.46296775], [13.43664332, 52.46297864], [13.43660637, 52.46298666], [13.43656685, 52.46299275], [13.43653032, 52.46299565], [13.4364857, 52.46299577], [13.43644527, 52.46299266], [13.43640704, 52.46298754], [13.43638361, 52.46298132], [13.43636252, 52.46297252], [13.43633931, 52.46295732], [13.43632641, 52.46294385], [13.4363227, 52.46293229], [13.4363276, 52.46291652], [13.43633749, 52.46290164], [13.43635251, 52.46288863], [13.43637098, 52.46287727], [13.43639298, 52.46286858], [13.43641737, 52.46286276], [13.43648056, 52.46285325], [13.43651941, 52.4628505], [13.43655851, 52.46285058]]]}}]}