{"type": "FeatureCollection", "features": [{"type": "Feature", "properties": {"id": "c_rwvers_strassen_keine.77", "importid": 77, "elem_nr": "50500003_50500002.01", "bezirk": "Neukölln", "strschl": "00969", "str_name": "Dieselstraße", "grund_der_einschraenkung": "geringer Grundwasserflurabstand, Möglichkeit zur Versickerung unterliegt der Einzelfallentscheidung", "sachdatum": "2022-01-01T00:00:00+01:00"}, "geometry": {"type": "MultiLineString", "coordinates": [[[13.45932338, 52.47777101], [13.46143828, 52.47761769]]]}}, {"type": "Feature", "properties": {"id": "c_rwvers_strassen_keine.418", "importid": 418, "elem_nr": "49500072_49500073.01", "bezirk": "Neukölln", "strschl": "05983", "str_name": "KGA NCR", "grund_der_einschraenkung": "geringer Grundwasserflurabstand, Möglichkeit zur Versickerung unterliegt der Einzelfallentscheidung", "sachdatum": "2022-01-01T00:00:00+01:00"}, "geometry": {"type": "MultiLineString", "coordinates": [[[13.45200239, 52.47581134], [13.45235893, 52.47608955], [13.45216574, 52.47618992], [13.45287899, 52.47670231]]]}}, {"type": "Feature", "properties": {"id": "c_rwvers_strassen_keine.420", "importid": 420, "elem_nr": "50470008_50470007.01", "bezirk": "Neukölln", "strschl": "06109", "str_name": "KGA Alpental", "grund_der_einschraenkung": "geringer Grundwasserflurabstand, Möglichkeit zur Versickerung unterliegt der Einzelfallentscheidung", "sachdatum": "2022-01-01T00:00:00+01:00"}, "geometry": {"type": "MultiLineString", "coordinates": [[[13.45759937, 52.45075829], [13.45804662, 52.45111929], [13.45779024, 52.45123576], [13.45904787, 52.45240132]]]}}, {"type": "Feature", "properties": {"id": "c_rwvers_strassen_keine.421", "importid": 421, "elem_nr": "50470009_50470008.01", "bezirk": "Neukölln", "strschl": "06109", "str_name": "KGA Alpental", "grund_der_einschraenkung": "Versickerung aufgrund von geringem Grundwasserflurabstand nicht möglich", "sachdatum": "2022-01-01T00:00:00+01:00"}, "geometry": {"type": "MultiLineString", "coordinates": [[[13.45663571, 52.45158279], [13.45702086, 52.45125892], [13.45731723, 52.45107152], [13.45759937, 52.45075829]]]}}, {"type": "Feature", "properties": {"id": "c_rwvers_strassen_keine.422", "importid": 422, "elem_nr": "50470010_50460019.01", "bezirk": "Neukölln", "strschl": "06130", "str_name": "KGA Am Buschkrug", "grund_der_einschraenkung": "geringer Grundwasserflurabstand, Möglichkeit zur Versickerung unterliegt der Einzelfallentscheidung", "sachdatum": "2022-01-01T00:00:00+01:00"}, "geometry": {"type": "MultiLineString", "coordinates": [[[13.45597296, 52.45103725], [13.45690606, 52.44858971], [13.45753799, 52.44795795], [13.45787737, 52.44766906], [13.45893889, 52.44699656], [13.45975109, 52.44651692], [13.46040392, 52.44617364], [13.460675, 52.44605]]]}}, {"type": "Feature", "properties": {"id": "c_rwvers_strassen_keine.427", "importid": 427, "elem_nr": "50470008_50470011.01", "bezirk": "Neukölln", "strschl": "06189", "str_name": "KGA Bartas Grund", "grund_der_einschraenkung": "Versickerung aufgrund von geringem Grundwasserflurabstand nicht möglich", "sachdatum": "2022-01-01T00:00:00+01:00"}, "geometry": {"type": "MultiLineString", "coordinates": [[[13.45759937, 52.45075829], [13.45776625, 52.45058329], [13.45807951, 52.45020629], [13.45839736, 52.44978257], [13.45867076, 52.44944236]]]}}, {"type": "Feature", "properties": {"id": "c_rwvers_strassen_keine.428", "importid": 428, "elem_nr": "50500005_51490012.01", "bezirk": "Neukölln", "strschl": "06330", "str_name": "KGA Freiheit", "grund_der_einschraenkung": "geringer Grundwasserflurabstand, Möglichkeit zur Versickerung unterliegt der Einzelfallentscheidung", "sachdatum": "2022-01-01T00:00:00+01:00"}, "geometry": {"type": "MultiLineString", "coordinates": [[[13.46836688, 52.47572554], [13.4682998, 52.47555291], [13.46841068, 52.47541197], [13.46791521, 52.47527201], [13.46819606, 52.47493], [13.4686107, 52.47462411], [13.46915945, 52.47426357], [13.4693881, 52.474112], [13.46916161, 52.47365697], [13.46890165, 52.47351104], [13.46961287, 52.47297998], [13.46977389, 52.47288917]]]}}, {"type": "Feature", "properties": {"id": "c_rwvers_strassen_keine.432", "importid": 432, "elem_nr": "49510025_49510024.01", "bezirk": "Neukölln", "strschl": "06425", "str_name": "KGA Harztal", "grund_der_einschraenkung": "geringer Grundwasserflurabstand, Möglichkeit zur Versickerung unterliegt der Einzelfallentscheidung", "sachdatum": "2022-01-01T00:00:00+01:00"}, "geometry": {"type": "MultiLineString", "coordinates": [[[13.45009305, 52.48442582], [13.45130994, 52.48528585]]]}}, {"type": "Feature", "properties": {"id": "c_rwvers_strassen_keine.433", "importid": 433, "elem_nr": "50500019_50500020.01", "bezirk": "Neukölln", "strschl": "06450", "str_name": "KGA Heinrichs Ruh", "grund_der_einschraenkung": "geringer Grundwasserflurabstand, Möglichkeit zur Versickerung unterliegt der Einzelfallentscheidung", "sachdatum": "2022-01-01T00:00:00+01:00"}, "geometry": {"type": "MultiLineString", "coordinates": [[[13.46289644, 52.4753353], [13.46354558, 52.47570285], [13.46331545, 52.47584901], [13.46373411, 52.47606347], [13.46345376, 52.4762581]]]}}, {"type": "Feature", "properties": {"id": "c_rwvers_strassen_keine.440", "importid": 440, "elem_nr": "50500026_51500001.01", "bezirk": "Neukölln", "strschl": "06506", "str_name": "KGA Südpol", "grund_der_einschraenkung": "Versickerung aufgrund von geringem Grundwasserflurabstand nicht möglich", "sachdatum": "2022-01-01T00:00:00+01:00"}, "geometry": {"type": "MultiLineString", "coordinates": [[[13.46596266, 52.47759334], [13.46790313, 52.47617965], [13.46828887, 52.47613883], [13.46877578, 52.47579349]]]}}, {"type": "Feature", "properties": {"id": "c_rwvers_strassen_keine.441", "importid": 441, "elem_nr": "51500001_51500002.01", "bezirk": "Neukölln", "strschl": "06506", "str_name": "KGA Südpol", "grund_der_einschraenkung": "Versickerung aufgrund von geringem Grundwasserflurabstand nicht möglich", "sachdatum": "2022-01-01T00:00:00+01:00"}, "geometry": {"type": "MultiLineString", "coordinates": [[[13.46877578, 52.47579349], [13.4689726, 52.47590339]]]}}, {"type": "Feature", "properties": {"id": "c_rwvers_strassen_keine.450", "importid": 450, "elem_nr": "50500027_50500001.01", "bezirk": "Neukölln", "strschl": "06576", "str_name": "KGA Neuköllner Schweiz", "grund_der_einschraenkung": "Versickerung aufgrund von geringem Grundwasserflurabstand nicht möglich", "sachdatum": "2022-01-01T00:00:00+01:00"}, "geometry": {"type": "MultiLineString", "coordinates": [[[13.46351167, 52.47891553], [13.46370653, 52.47875853], [13.46403715, 52.47890636], [13.46569575, 52.47773587], [13.46517283, 52.47744848], [13.4648951, 52.47733128]]]}}, {"type": "Feature", "properties": {"id": "c_rwvers_strassen_keine.457", "importid": 457, "elem_nr": "50490029_50490028.01", "bezirk": "Neukölln", "strschl": "06694", "str_name": "KGA Friedenstal", "grund_der_einschraenkung": "geringer Grundwasserflurabstand, Möglichkeit zur Versickerung unterliegt der Einzelfallentscheidung", "sachdatum": "2022-01-01T00:00:00+01:00"}, "geometry": {"type": "MultiLineString", "coordinates": [[[13.46333627, 52.47299847], [13.46340193, 52.47394845], [13.46368064, 52.47419507]]]}}, {"type": "Feature", "properties": {"id": "c_rwvers_strassen_keine.460", "importid": 460, "elem_nr": "51490013_51490009.01", "bezirk": "Neukölln", "strschl": "06747", "str_name": "KGA Stolz von Rixdorf", "grund_der_einschraenkung": "geringer Grundwasserflurabstand, Möglichkeit zur Versickerung unterliegt der Einzelfallentscheidung", "sachdatum": "2022-01-01T00:00:00+01:00"}, "geometry": {"type": "MultiLineString", "coordinates": [[[13.469045, 52.47251372], [13.47191301, 52.47046044], [13.47137024, 52.47039413], [13.47126899, 52.47031222]]]}}, {"type": "Feature", "properties": {"id": "c_rwvers_strassen_keine.466", "importid": 466, "elem_nr": "50490032_50490029.01", "bezirk": "Neukölln", "strschl": "06774", "str_name": "KGA Treue Seele", "grund_der_einschraenkung": "geringer Grundwasserflurabstand, Möglichkeit zur Versickerung unterliegt der Einzelfallentscheidung", "sachdatum": "2022-01-01T00:00:00+01:00"}, "geometry": {"type": "MultiLineString", "coordinates": [[[13.46128644, 52.47492687], [13.46206103, 52.47440133], [13.46166441, 52.47420577], [13.46322549, 52.47310796], [13.46333627, 52.47299847]]]}}, {"type": "Feature", "properties": {"id": "c_rwvers_strassen_keine.467", "importid": 467, "elem_nr": "50480014_51490014.01", "bezirk": "Neukölln", "strschl": "06786", "str_name": "KGA Volksgärten", "grund_der_einschraenkung": "geringer Grundwasserflurabstand, Möglichkeit zur Versickerung unterliegt der Einzelfallentscheidung", "sachdatum": "2022-01-01T00:00:00+01:00"}, "geometry": {"type": "MultiLineString", "coordinates": [[[13.46658687, 52.46573718], [13.46730639, 52.46532655], [13.46986273, 52.46683343]]]}}, {"type": "Feature", "properties": {"id": "c_rwvers_strassen_keine.468", "importid": 468, "elem_nr": "50480014_50490033.01", "bezirk": "Neukölln", "strschl": "06786", "str_name": "KGA Volksgärten", "grund_der_einschraenkung": "geringer Grundwasserflurabstand, Möglichkeit zur Versickerung unterliegt der Einzelfallentscheidung", "sachdatum": "2022-01-01T00:00:00+01:00"}, "geometry": {"type": "MultiLineString", "coordinates": [[[13.46658687, 52.46573718], [13.46582312, 52.4661675], [13.46833396, 52.46764469], [13.46881556, 52.46754199]]]}}, {"type": "Feature", "properties": {"id": "c_rwvers_strassen_keine.472", "importid": 472, "elem_nr": "49510024_49510026.01", "bezirk": "Neukölln", "strschl": "06837", "str_name": "KGA Wilde Rose", "grund_der_einschraenkung": "Versickerung aufgrund von geringem Grundwasserflurabstand nicht möglich", "sachdatum": "2022-01-01T00:00:00+01:00"}, "geometry": {"type": "MultiLineString", "coordinates": [[[13.45130994, 52.48528585], [13.45183977, 52.48568564]]]}}, {"type": "Feature", "properties": {"id": "c_rwvers_strassen_keine.473", "importid": 473, "elem_nr": "50500029_50500033.01", "bezirk": "Neukölln", "strschl": "06862", "str_name": "KGA Zufriedenheit", "grund_der_einschraenkung": "geringer Grundwasserflurabstand, Möglichkeit zur Versickerung unterliegt der Einzelfallentscheidung", "sachdatum": "2022-01-01T00:00:00+01:00"}, "geometry": {"type": "MultiLineString", "coordinates": [[[13.46028962, 52.48249404], [13.46064261, 52.48296274], [13.46137118, 52.48336995], [13.46144102, 52.48370346]]]}}, {"type": "Feature", "properties": {"id": "c_rwvers_strassen_keine.474", "importid": 474, "elem_nr": "50500010_50500030.01", "bezirk": "Neukölln", "strschl": "06883", "str_name": "BLW Unterbezirk Neukölln Gruppe Kiehler Grund", "grund_der_einschraenkung": "geringer Grundwasserflurabstand, Möglichkeit zur Versickerung unterliegt der Einzelfallentscheidung", "sachdatum": "2022-01-01T00:00:00+01:00"}, "geometry": {"type": "MultiLineString", "coordinates": [[[13.45784243, 52.47845827], [13.4579256, 52.47864891], [13.45866302, 52.47941472]]]}}, {"type": "Feature", "properties": {"id": "c_rwvers_strassen_keine.477", "importid": 477, "elem_nr": "50480022_50480023.01", "bezirk": "Neukölln", "strschl": "07224", "str_name": "Britzer Hafensteg", "grund_der_einschraenkung": "Versickerung aufgrund von geringem Grundwasserflurabstand nicht möglich", "sachdatum": "2022-01-01T00:00:00+01:00"}, "geometry": {"type": "MultiLineString", "coordinates": [[[13.45465481, 52.46094587], [13.45504279, 52.46105517]]]}}, {"type": "Feature", "properties": {"id": "c_rwvers_strassen_keine.479", "importid": 479, "elem_nr": "49500034_49500037.01", "bezirk": "Neukölln", "strschl": "07253", "str_name": "Elsensteg", "grund_der_einschraenkung": "geringer Grundwasserflurabstand, Möglichkeit zur Versickerung unterliegt der Einzelfallentscheidung", "sachdatum": "2022-01-01T00:00:00+01:00"}, "geometry": {"type": "MultiLineString", "coordinates": [[[13.44673215, 52.48340888], [13.44720895, 52.48380142]]]}}, {"type": "Feature", "properties": {"id": "c_rwvers_strassen_keine.483", "importid": 483, "elem_nr": "49480009_49480010.01", "bezirk": "Neukölln", "strschl": "01679", "str_name": "Grenzallee", "grund_der_einschraenkung": "Versickerung aufgrund von geringem Grundwasserflurabstand nicht möglich", "sachdatum": "2022-01-01T00:00:00+01:00"}, "geometry": {"type": "MultiLineString", "coordinates": [[[13.45284875, 52.4652658], [13.45326052, 52.4652694], [13.45344453, 52.46527003], [13.45351454, 52.46527273]]]}}, {"type": "Feature", "properties": {"id": "c_rwvers_strassen_keine.485", "importid": 485, "elem_nr": "49510015_49510021.01", "bezirk": "Neukölln", "strschl": "07339", "str_name": "Lohmühlenbrücke", "grund_der_einschraenkung": "geringer Grundwasserflurabstand, Möglichkeit zur Versickerung unterliegt der Einzelfallentscheidung", "sachdatum": "2022-01-01T00:00:00+01:00"}, "geometry": {"type": "MultiLineString", "coordinates": [[[13.43913619, 52.48949092], [13.43955666, 52.48957072]]]}}, {"type": "Feature", "properties": {"id": "c_rwvers_strassen_keine.488", "importid": 488, "elem_nr": "49520030_49520029.01", "bezirk": "Friedrichshain-Kreuzberg", "strschl": "07453", "str_name": "Treptower Brücke", "grund_der_einschraenkung": "Versickerung aufgrund von geringem Grundwasserflurabstand nicht möglich", "sachdatum": "2022-01-01T00:00:00+01:00"}, "geometry": {"type": "MultiLineString", "coordinates": [[[13.44680693, 52.4947061], [13.44709759, 52.49492042]]]}}, {"type": "Feature", "properties": {"id": "c_rwvers_strassen_keine.489", "importid": 489, "elem_nr": "49520015_49520031.01", "bezirk": "Friedrichshain-Kreuzberg", "strschl": "07469", "str_name": "Wiener Brücke", "grund_der_einschraenkung": "geringer Grundwasserflurabstand, Möglichkeit zur Versickerung unterliegt der Einzelfallentscheidung", "sachdatum": "2022-01-01T00:00:00+01:00"}, "geometry": {"type": "MultiLineString", "coordinates": [[[13.44304671, 52.49359499], [13.44316445, 52.49360685], [13.44364245, 52.49337394]]]}}, {"type": "Feature", "properties": {"id": "c_rwvers_strassen_keine.492", "importid": 492, "elem_nr": "47520035_47520011.01", "bezirk": "Friedrichshain-Kreuzberg", "strschl": "07766", "str_name": "Böcklerpark", "grund_der_einschraenkung": "geringer Grundwasserflurabstand, Möglichkeit zur Versickerung unterliegt der Einzelfallentscheidung", "sachdatum": "2022-01-01T00:00:00+01:00"}, "geometry": {"type": "MultiLineString", "coordinates": [[[13.41017778, 52.49614572], [13.41049619, 52.49606991], [13.41068251, 52.4959067], [13.41145038, 52.49575352], [13.41181151, 52.49567419], [13.41195826, 52.49577511]]]}}, {"type": "Feature", "properties": {"id": "c_rwvers_strassen_keine.519", "importid": 519, "elem_nr": "51490017_51490015.01", "bezirk": "Neukölln", "strschl": "07845", "str_name": "Von-der-Schulenburg-Park", "grund_der_einschraenkung": "geringer Grundwasserflurabstand, Möglichkeit zur Versickerung unterliegt der Einzelfallentscheidung", "sachdatum": "2022-01-01T00:00:00+01:00"}, "geometry": {"type": "MultiLineString", "coordinates": [[[13.46923413, 52.46774654], [13.46990961, 52.46730619], [13.47070873, 52.46685431], [13.47109333, 52.46669575], [13.4712699, 52.46669598], [13.47157882, 52.46671885], [13.47185083, 52.46677672], [13.47200046, 52.46690812]]]}}, {"type": "Feature", "properties": {"id": "c_rwvers_strassen_keine.574", "importid": 574, "elem_nr": "50500036_50500031.01", "bezirk": "Neukölln", "strschl": "08306", "str_name": "KGA Märkische Schweiz", "grund_der_einschraenkung": "Versickerung aufgrund von geringem Grundwasserflurabstand nicht möglich", "sachdatum": "2022-01-01T00:00:00+01:00"}, "geometry": {"type": "MultiLineString", "coordinates": [[[13.46631559, 52.48011367], [13.46474225, 52.47928297], [13.46668538, 52.47797984]]]}}, {"type": "Feature", "properties": {"id": "c_rwvers_strassen_keine.672", "importid": 672, "elem_nr": "50520005_50520006.01", "bezirk": "Friedrichshain-Kreuzberg", "strschl": "09937", "str_name": "Dora-Benjamin-Park", "grund_der_einschraenkung": "geringer Grundwasserflurabstand, Möglichkeit zur Versickerung unterliegt der Einzelfallentscheidung", "sachdatum": "2022-01-01T00:00:00+01:00"}, "geometry": {"type": "MultiLineString", "coordinates": [[[13.465287, 52.49538957], [13.46563524, 52.49558505]]]}}, {"type": "Feature", "properties": {"id": "c_rwvers_strassen_keine.673", "importid": 673, "elem_nr": "50520008_51520015.01", "bezirk": "Friedrichshain-Kreuzberg", "strschl": "09937", "str_name": "Dora-Benjamin-Park", "grund_der_einschraenkung": "geringer Grundwasserflurabstand, Möglichkeit zur Versickerung unterliegt der Einzelfallentscheidung", "sachdatum": "2022-01-01T00:00:00+01:00"}, "geometry": {"type": "MultiLineString", "coordinates": [[[13.46682924, 52.49521013], [13.4680247, 52.494828], [13.46841274, 52.49530056]]]}}, {"type": "Feature", "properties": {"id": "c_rwvers_strassen_keine.681", "importid": 681, "elem_nr": "52470001_52470002.01", "bezirk": "Treptow-Köpenick", "strschl": "16234", "str_name": "Johannisthaler Chaussee", "grund_der_einschraenkung": "keine Versickerung möglich (Wasserschutzgebiet, Zone I)", "sachdatum": "2022-01-01T00:00:00+01:00"}, "geometry": {"type": "MultiLineString", "coordinates": [[[13.48737964, 52.45046789], [13.48741463, 52.45049895], [13.48826503, 52.45124846], [13.48836347, 52.45135856]]]}}, {"type": "Feature", "properties": {"id": "c_rwvers_strassen_keine.725", "importid": 725, "elem_nr": "51470008_51470007.01", "bezirk": "Treptow-Köpenick", "strschl": "40052", "str_name": "Alpenrosenweg", "grund_der_einschraenkung": "keine Versickerung im WSG möglich", "sachdatum": "2022-01-01T00:00:00+01:00"}, "geometry": {"type": "MultiLineString", "coordinates": [[[13.4793576, 52.45230602], [13.47990693, 52.4521054], [13.48035947, 52.45181389]]]}}, {"type": "Feature", "properties": {"id": "c_rwvers_strassen_keine.726", "importid": 726, "elem_nr": "51470007_51470009.01", "bezirk": "Treptow-Köpenick", "strschl": "40052", "str_name": "Alpenrosenweg", "grund_der_einschraenkung": "keine Versickerung im WSG möglich", "sachdatum": "2022-01-01T00:00:00+01:00"}, "geometry": {"type": "MultiLineString", "coordinates": [[[13.48035947, 52.45181389], [13.48083829, 52.45157993], [13.48135218, 52.4514152], [13.48186002, 52.45130259]]]}}, {"type": "Feature", "properties": {"id": "c_rwvers_strassen_keine.727", "importid": 727, "elem_nr": "51470009_51470010.01", "bezirk": "Treptow-Köpenick", "strschl": "40052", "str_name": "Alpenrosenweg", "grund_der_einschraenkung": "keine Versickerung im WSG möglich", "sachdatum": "2022-01-01T00:00:00+01:00"}, "geometry": {"type": "MultiLineString", "coordinates": [[[13.48186002, 52.45130259], [13.48362281, 52.45110343]]]}}, {"type": "Feature", "properties": {"id": "c_rwvers_strassen_keine.728", "importid": 728, "elem_nr": "51470010_52470003.01", "bezirk": "Treptow-Köpenick", "strschl": "40052", "str_name": "Alpenrosenweg", "grund_der_einschraenkung": "keine Versickerung im WSG möglich", "sachdatum": "2022-01-01T00:00:00+01:00"}, "geometry": {"type": "MultiLineString", "coordinates": [[[13.48362281, 52.45110343], [13.48555324, 52.45091432]]]}}, {"type": "Feature", "properties": {"id": "c_rwvers_strassen_keine.729", "importid": 729, "elem_nr": "52470003_52470001.01", "bezirk": "Treptow-Köpenick", "strschl": "40052", "str_name": "Alpenrosenweg", "grund_der_einschraenkung": "keine Versickerung im WSG möglich", "sachdatum": "2022-01-01T00:00:00+01:00"}, "geometry": {"type": "MultiLineString", "coordinates": [[[13.48555324, 52.45091432], [13.48622426, 52.45082435], [13.48724722, 52.45052713], [13.48737964, 52.45046789]]]}}, {"type": "Feature", "properties": {"id": "c_rwvers_strassen_keine.1066", "importid": 1066, "elem_nr": "51470015_52470002.01", "bezirk": "Treptow-Köpenick", "strschl": "41605", "str_name": "Königsheideweg", "grund_der_einschraenkung": "keine Versickerung möglich (Wasserschutzgebiet, Zone I)", "sachdatum": "2022-01-01T00:00:00+01:00"}, "geometry": {"type": "MultiLineString", "coordinates": [[[13.48239561, 52.45215947], [13.48269759, 52.45209674], [13.48300661, 52.45205551], [13.48334222, 52.45203364], [13.48381754, 52.45202546], [13.48443695, 52.45201675], [13.48520814, 52.45200998], [13.48554335, 52.452], [13.48581217, 52.45197144], [13.4861049, 52.45192732], [13.48662861, 52.45180455], [13.48709067, 52.45168662], [13.488051, 52.45144377], [13.48836347, 52.45135856]]]}}, {"type": "Feature", "properties": {"id": "c_rwvers_strassen_keine.1067", "importid": 1067, "elem_nr": "52470002_53460017.01", "bezirk": "Treptow-Köpenick", "strschl": "41605", "str_name": "Königsheideweg", "grund_der_einschraenkung": "keine Versickerung möglich (Wasserschutzgebiet, Zone I)", "sachdatum": "2022-01-01T00:00:00+01:00"}, "geometry": {"type": "MultiLineString", "coordinates": [[[13.48836347, 52.45135856], [13.48858794, 52.45128471], [13.48887547, 52.45115992], [13.48901809, 52.45108859], [13.4892403, 52.45099509], [13.4894239, 52.45092071], [13.48989739, 52.4507235], [13.49036752, 52.45052492], [13.49064743, 52.45042382], [13.49084016, 52.45036681], [13.49115484, 52.45027329], [13.4914418, 52.45019369], [13.49411344, 52.44941863], [13.49570293, 52.44896248], [13.49697681, 52.44859865], [13.49806805, 52.44828066], [13.49876411, 52.44807719], [13.49906187, 52.44799354], [13.49931554, 52.44791829], [13.49964995, 52.44780349], [13.49990105, 52.44770267], [13.50014371, 52.44761658], [13.50032638, 52.44755998], [13.50051451, 52.44752311]]]}}, {"type": "Feature", "properties": {"id": "c_rwvers_strassen_keine.1135", "importid": 1135, "elem_nr": "51470017_51470016.01", "bezirk": "Treptow-Köpenick", "strschl": "41862", "str_name": "Mahonienweg", "grund_der_einschraenkung": "keine Versickerung im WSG möglich", "sachdatum": "2022-01-01T00:00:00+01:00"}, "geometry": {"type": "MultiLineString", "coordinates": [[[13.47878362, 52.45019344], [13.48032479, 52.44939733]]]}}, {"type": "Feature", "properties": {"id": "c_rwvers_strassen_keine.1136", "importid": 1136, "elem_nr": "51470018_51470017.01", "bezirk": "Treptow-Köpenick", "strschl": "41862", "str_name": "Mahonienweg", "grund_der_einschraenkung": "keine Versickerung im WSG möglich", "sachdatum": "2022-01-01T00:00:00+01:00"}, "geometry": {"type": "MultiLineString", "coordinates": [[[13.47828841, 52.45049208], [13.47878362, 52.45019344]]]}}, {"type": "Feature", "properties": {"id": "c_rwvers_strassen_keine.1137", "importid": 1137, "elem_nr": "51470019_51470018.01", "bezirk": "Treptow-Köpenick", "strschl": "41862", "str_name": "Mahonienweg", "grund_der_einschraenkung": "keine Versickerung im WSG möglich", "sachdatum": "2022-01-01T00:00:00+01:00"}, "geometry": {"type": "MultiLineString", "coordinates": [[[13.47762704, 52.45077253], [13.47828841, 52.45049208]]]}}, {"type": "Feature", "properties": {"id": "c_rwvers_strassen_keine.1138", "importid": 1138, "elem_nr": "51470019_51470020.01", "bezirk": "Treptow-Köpenick", "strschl": "41862", "str_name": "Mahonienweg", "grund_der_einschraenkung": "keine Versickerung im WSG möglich", "sachdatum": "2022-01-01T00:00:00+01:00"}, "geometry": {"type": "MultiLineString", "coordinates": [[[13.47762704, 52.45077253], [13.47792322, 52.45105419]]]}}, {"type": "Feature", "properties": {"id": "c_rwvers_strassen_keine.1139", "importid": 1139, "elem_nr": "51470020_51470021.01", "bezirk": "Treptow-Köpenick", "strschl": "41862", "str_name": "Mahonienweg", "grund_der_einschraenkung": "keine Versickerung im WSG möglich", "sachdatum": "2022-01-01T00:00:00+01:00"}, "geometry": {"type": "MultiLineString", "coordinates": [[[13.47792322, 52.45105419], [13.47843579, 52.45084634]]]}}, {"type": "Feature", "properties": {"id": "c_rwvers_strassen_keine.1140", "importid": 1140, "elem_nr": "51470022_51470020.01", "bezirk": "Treptow-Köpenick", "strschl": "41862", "str_name": "Mahonienweg", "grund_der_einschraenkung": "keine Versickerung im WSG möglich", "sachdatum": "2022-01-01T00:00:00+01:00"}, "geometry": {"type": "MultiLineString", "coordinates": [[[13.4779657, 52.45110547], [13.47792322, 52.45105419]]]}}, {"type": "Feature", "properties": {"id": "c_rwvers_strassen_keine.1141", "importid": 1141, "elem_nr": "51470023_51470022.01", "bezirk": "Treptow-Köpenick", "strschl": "41862", "str_name": "Mahonienweg", "grund_der_einschraenkung": "keine Versickerung im WSG möglich", "sachdatum": "2022-01-01T00:00:00+01:00"}, "geometry": {"type": "MultiLineString", "coordinates": [[[13.4775076, 52.45129811], [13.4779657, 52.45110547]]]}}, {"type": "Feature", "properties": {"id": "c_rwvers_strassen_keine.1142", "importid": 1142, "elem_nr": "51470023_51470024.01", "bezirk": "Treptow-Köpenick", "strschl": "41862", "str_name": "Mahonienweg", "grund_der_einschraenkung": "keine Versickerung im WSG möglich", "sachdatum": "2022-01-01T00:00:00+01:00"}, "geometry": {"type": "MultiLineString", "coordinates": [[[13.4775076, 52.45129811], [13.47778761, 52.45157525]]]}}, {"type": "Feature", "properties": {"id": "c_rwvers_strassen_keine.1143", "importid": 1143, "elem_nr": "51470025_51470023.01", "bezirk": "Treptow-Köpenick", "strschl": "41862", "str_name": "Mahonienweg", "grund_der_einschraenkung": "keine Versickerung im WSG möglich", "sachdatum": "2022-01-01T00:00:00+01:00"}, "geometry": {"type": "MultiLineString", "coordinates": [[[13.47709074, 52.45147282], [13.4775076, 52.45129811]]]}}, {"type": "Feature", "properties": {"id": "c_rwvers_strassen_keine.1144", "importid": 1144, "elem_nr": "51470025_51470026.01", "bezirk": "Treptow-Köpenick", "strschl": "41862", "str_name": "Mahonienweg", "grund_der_einschraenkung": "keine Versickerung im WSG möglich", "sachdatum": "2022-01-01T00:00:00+01:00"}, "geometry": {"type": "MultiLineString", "coordinates": [[[13.47709074, 52.45147282], [13.47738553, 52.45173111]]]}}, {"type": "Feature", "properties": {"id": "c_rwvers_strassen_keine.1145", "importid": 1145, "elem_nr": "51470027_51470025.01", "bezirk": "Treptow-Köpenick", "strschl": "41862", "str_name": "Mahonienweg", "grund_der_einschraenkung": "keine Versickerung im WSG möglich", "sachdatum": "2022-01-01T00:00:00+01:00"}, "geometry": {"type": "MultiLineString", "coordinates": [[[13.4766651, 52.45163315], [13.47709074, 52.45147282]]]}}, {"type": "Feature", "properties": {"id": "c_rwvers_strassen_keine.1146", "importid": 1146, "elem_nr": "51470022_51470028.01", "bezirk": "Treptow-Köpenick", "strschl": "41862", "str_name": "Mahonienweg", "grund_der_einschraenkung": "keine Versickerung im WSG möglich", "sachdatum": "2022-01-01T00:00:00+01:00"}, "geometry": {"type": "MultiLineString", "coordinates": [[[13.4779657, 52.45110547], [13.47834858, 52.45141239]]]}}, {"type": "Feature", "properties": {"id": "c_rwvers_strassen_keine.1147", "importid": 1147, "elem_nr": "51470028_51470029.01", "bezirk": "Treptow-Köpenick", "strschl": "41862", "str_name": "Mahonienweg", "grund_der_einschraenkung": "keine Versickerung im WSG möglich", "sachdatum": "2022-01-01T00:00:00+01:00"}, "geometry": {"type": "MultiLineString", "coordinates": [[[13.47834858, 52.45141239], [13.47882433, 52.45121887]]]}}, {"type": "Feature", "properties": {"id": "c_rwvers_strassen_keine.1148", "importid": 1148, "elem_nr": "51470028_51470030.01", "bezirk": "Treptow-Köpenick", "strschl": "41862", "str_name": "Mahonienweg", "grund_der_einschraenkung": "keine Versickerung im WSG möglich", "sachdatum": "2022-01-01T00:00:00+01:00"}, "geometry": {"type": "MultiLineString", "coordinates": [[[13.47834858, 52.45141239], [13.47869024, 52.45173184]]]}}, {"type": "Feature", "properties": {"id": "c_rwvers_strassen_keine.1149", "importid": 1149, "elem_nr": "51470031_51470030.01", "bezirk": "Treptow-Köpenick", "strschl": "41862", "str_name": "Mahonienweg", "grund_der_einschraenkung": "keine Versickerung im WSG möglich", "sachdatum": "2022-01-01T00:00:00+01:00"}, "geometry": {"type": "MultiLineString", "coordinates": [[[13.47821291, 52.45195502], [13.47869024, 52.45173184]]]}}, {"type": "Feature", "properties": {"id": "c_rwvers_strassen_keine.1150", "importid": 1150, "elem_nr": "51470031_51470032.01", "bezirk": "Treptow-Köpenick", "strschl": "41862", "str_name": "Mahonienweg", "grund_der_einschraenkung": "keine Versickerung im WSG möglich", "sachdatum": "2022-01-01T00:00:00+01:00"}, "geometry": {"type": "MultiLineString", "coordinates": [[[13.47821291, 52.45195502], [13.47845629, 52.45219347]]]}}, {"type": "Feature", "properties": {"id": "c_rwvers_strassen_keine.1151", "importid": 1151, "elem_nr": "51470033_51470031.01", "bezirk": "Treptow-Köpenick", "strschl": "41862", "str_name": "Mahonienweg", "grund_der_einschraenkung": "keine Versickerung im WSG möglich", "sachdatum": "2022-01-01T00:00:00+01:00"}, "geometry": {"type": "MultiLineString", "coordinates": [[[13.47782262, 52.45210281], [13.47821291, 52.45195502]]]}}, {"type": "Feature", "properties": {"id": "c_rwvers_strassen_keine.1152", "importid": 1152, "elem_nr": "51470033_51470034.01", "bezirk": "Treptow-Köpenick", "strschl": "41862", "str_name": "Mahonienweg", "grund_der_einschraenkung": "keine Versickerung im WSG möglich", "sachdatum": "2022-01-01T00:00:00+01:00"}, "geometry": {"type": "MultiLineString", "coordinates": [[[13.47782262, 52.45210281], [13.47806599, 52.45234126]]]}}, {"type": "Feature", "properties": {"id": "c_rwvers_strassen_keine.1153", "importid": 1153, "elem_nr": "51470035_51470033.01", "bezirk": "Treptow-Köpenick", "strschl": "41862", "str_name": "Mahonienweg", "grund_der_einschraenkung": "keine Versickerung im WSG möglich", "sachdatum": "2022-01-01T00:00:00+01:00"}, "geometry": {"type": "MultiLineString", "coordinates": [[[13.47744413, 52.45223624], [13.47782262, 52.45210281]]]}}, {"type": "Feature", "properties": {"id": "c_rwvers_strassen_keine.1154", "importid": 1154, "elem_nr": "51470030_51470036.01", "bezirk": "Treptow-Köpenick", "strschl": "41862", "str_name": "Mahonienweg", "grund_der_einschraenkung": "keine Versickerung im WSG möglich", "sachdatum": "2022-01-01T00:00:00+01:00"}, "geometry": {"type": "MultiLineString", "coordinates": [[[13.47869024, 52.45173184], [13.47884424, 52.45186594]]]}}, {"type": "Feature", "properties": {"id": "c_rwvers_strassen_keine.1155", "importid": 1155, "elem_nr": "51470036_51470037.01", "bezirk": "Treptow-Köpenick", "strschl": "41862", "str_name": "Mahonienweg", "grund_der_einschraenkung": "keine Versickerung im WSG möglich", "sachdatum": "2022-01-01T00:00:00+01:00"}, "geometry": {"type": "MultiLineString", "coordinates": [[[13.47884424, 52.45186594], [13.47930826, 52.45166252]]]}}, {"type": "Feature", "properties": {"id": "c_rwvers_strassen_keine.1156", "importid": 1156, "elem_nr": "51470036_51470008.01", "bezirk": "Treptow-Köpenick", "strschl": "41862", "str_name": "Mahonienweg", "grund_der_einschraenkung": "keine Versickerung im WSG möglich", "sachdatum": "2022-01-01T00:00:00+01:00"}, "geometry": {"type": "MultiLineString", "coordinates": [[[13.47884424, 52.45186594], [13.4793576, 52.45230602]]]}}, {"type": "Feature", "properties": {"id": "c_rwvers_strassen_keine.1157", "importid": 1157, "elem_nr": "51470008_51470038.01", "bezirk": "Treptow-Köpenick", "strschl": "41862", "str_name": "Mahonienweg", "grund_der_einschraenkung": "keine Versickerung im WSG möglich", "sachdatum": "2022-01-01T00:00:00+01:00"}, "geometry": {"type": "MultiLineString", "coordinates": [[[13.4793576, 52.45230602], [13.47941473, 52.45237799]]]}}, {"type": "Feature", "properties": {"id": "c_rwvers_strassen_keine.1158", "importid": 1158, "elem_nr": "51470039_51470038.01", "bezirk": "Treptow-Köpenick", "strschl": "41862", "str_name": "Mahonienweg", "grund_der_einschraenkung": "keine Versickerung im WSG möglich", "sachdatum": "2022-01-01T00:00:00+01:00"}, "geometry": {"type": "MultiLineString", "coordinates": [[[13.47890953, 52.45257687], [13.47941473, 52.45237799]]]}}, {"type": "Feature", "properties": {"id": "c_rwvers_strassen_keine.1159", "importid": 1159, "elem_nr": "51470039_51470040.01", "bezirk": "Treptow-Köpenick", "strschl": "41862", "str_name": "Mahonienweg", "grund_der_einschraenkung": "keine Versickerung im WSG möglich", "sachdatum": "2022-01-01T00:00:00+01:00"}, "geometry": {"type": "MultiLineString", "coordinates": [[[13.47890953, 52.45257687], [13.4792087, 52.45284864]]]}}, {"type": "Feature", "properties": {"id": "c_rwvers_strassen_keine.1160", "importid": 1160, "elem_nr": "51470041_51470039.01", "bezirk": "Treptow-Köpenick", "strschl": "41862", "str_name": "Mahonienweg", "grund_der_einschraenkung": "keine Versickerung im WSG möglich", "sachdatum": "2022-01-01T00:00:00+01:00"}, "geometry": {"type": "MultiLineString", "coordinates": [[[13.47852645, 52.45276601], [13.47890953, 52.45257687]]]}}, {"type": "Feature", "properties": {"id": "c_rwvers_strassen_keine.1161", "importid": 1161, "elem_nr": "51470041_51470042.01", "bezirk": "Treptow-Köpenick", "strschl": "41862", "str_name": "Mahonienweg", "grund_der_einschraenkung": "keine Versickerung im WSG möglich", "sachdatum": "2022-01-01T00:00:00+01:00"}, "geometry": {"type": "MultiLineString", "coordinates": [[[13.47852645, 52.45276601], [13.4787463, 52.45300443]]]}}, {"type": "Feature", "properties": {"id": "c_rwvers_strassen_keine.1162", "importid": 1162, "elem_nr": "51470043_51470041.01", "bezirk": "Treptow-Köpenick", "strschl": "41862", "str_name": "Mahonienweg", "grund_der_einschraenkung": "keine Versickerung im WSG möglich", "sachdatum": "2022-01-01T00:00:00+01:00"}, "geometry": {"type": "MultiLineString", "coordinates": [[[13.47819805, 52.45287703], [13.47852645, 52.45276601]]]}}, {"type": "Feature", "properties": {"id": "c_rwvers_strassen_keine.1163", "importid": 1163, "elem_nr": "51470038_51470044.01", "bezirk": "Treptow-Köpenick", "strschl": "41862", "str_name": "Mahonienweg", "grund_der_einschraenkung": "keine Versickerung im WSG möglich", "sachdatum": "2022-01-01T00:00:00+01:00"}, "geometry": {"type": "MultiLineString", "coordinates": [[[13.47941473, 52.45237799], [13.47960544, 52.4525337]]]}}, {"type": "Feature", "properties": {"id": "c_rwvers_strassen_keine.1164", "importid": 1164, "elem_nr": "51470044_51470045.01", "bezirk": "Treptow-Köpenick", "strschl": "41862", "str_name": "Mahonienweg", "grund_der_einschraenkung": "keine Versickerung im WSG möglich", "sachdatum": "2022-01-01T00:00:00+01:00"}, "geometry": {"type": "MultiLineString", "coordinates": [[[13.47960544, 52.4525337], [13.48010033, 52.4523366]]]}}, {"type": "Feature", "properties": {"id": "c_rwvers_strassen_keine.1165", "importid": 1165, "elem_nr": "51470044_51470014.01", "bezirk": "Treptow-Köpenick", "strschl": "41862", "str_name": "Mahonienweg", "grund_der_einschraenkung": "keine Versickerung im WSG möglich", "sachdatum": "2022-01-01T00:00:00+01:00"}, "geometry": {"type": "MultiLineString", "coordinates": [[[13.47960544, 52.4525337], [13.47992808, 52.45282706], [13.48046679, 52.45318346]]]}}, {"type": "Feature", "properties": {"id": "c_rwvers_strassen_keine.1166", "importid": 1166, "elem_nr": "51470046_51470019.01", "bezirk": "Treptow-Köpenick", "strschl": "41862", "str_name": "Mahonienweg", "grund_der_einschraenkung": "keine Versickerung im WSG möglich", "sachdatum": "2022-01-01T00:00:00+01:00"}, "geometry": {"type": "MultiLineString", "coordinates": [[[13.47736463, 52.45051249], [13.47762704, 52.45077253]]]}}, {"type": "Feature", "properties": {"id": "c_rwvers_strassen_keine.1167", "importid": 1167, "elem_nr": "51470046_51470047.01", "bezirk": "Treptow-Köpenick", "strschl": "41862", "str_name": "Mahonienweg", "grund_der_einschraenkung": "keine Versickerung im WSG möglich", "sachdatum": "2022-01-01T00:00:00+01:00"}, "geometry": {"type": "MultiLineString", "coordinates": [[[13.47736463, 52.45051249], [13.47773614, 52.45025953]]]}}, {"type": "Feature", "properties": {"id": "c_rwvers_strassen_keine.1168", "importid": 1168, "elem_nr": "51470048_51470046.01", "bezirk": "Treptow-Köpenick", "strschl": "41862", "str_name": "Mahonienweg", "grund_der_einschraenkung": "keine Versickerung im WSG möglich", "sachdatum": "2022-01-01T00:00:00+01:00"}, "geometry": {"type": "MultiLineString", "coordinates": [[[13.4769873, 52.45030802], [13.47736463, 52.45051249]]]}}, {"type": "Feature", "properties": {"id": "c_rwvers_strassen_keine.1169", "importid": 1169, "elem_nr": "51470048_51470049.01", "bezirk": "Treptow-Köpenick", "strschl": "41862", "str_name": "Mahonienweg", "grund_der_einschraenkung": "keine Versickerung im WSG möglich", "sachdatum": "2022-01-01T00:00:00+01:00"}, "geometry": {"type": "MultiLineString", "coordinates": [[[13.4769873, 52.45030802], [13.47734853, 52.45004965]]]}}, {"type": "Feature", "properties": {"id": "c_rwvers_strassen_keine.1170", "importid": 1170, "elem_nr": "51470050_51470051.01", "bezirk": "Treptow-Köpenick", "strschl": "41862", "str_name": "Mahonienweg", "grund_der_einschraenkung": "keine Versickerung im WSG möglich", "sachdatum": "2022-01-01T00:00:00+01:00"}, "geometry": {"type": "MultiLineString", "coordinates": [[[13.47663492, 52.45012065], [13.47674389, 52.45008214], [13.47698877, 52.44987216]]]}}, {"type": "Feature", "properties": {"id": "c_rwvers_strassen_keine.1327", "importid": 1327, "elem_nr": "51470009_51470015.01", "bezirk": "Treptow-Köpenick", "strschl": "42730", "str_name": "Späthsfelder Weg", "grund_der_einschraenkung": "keine Versickerung im WSG möglich", "sachdatum": "2022-01-01T00:00:00+01:00"}, "geometry": {"type": "MultiLineString", "coordinates": [[[13.48186002, 52.45130259], [13.48237123, 52.4520759], [13.48239561, 52.45215947]]]}}, {"type": "Feature", "properties": {"id": "c_rwvers_strassen_keine.1399", "importid": 1399, "elem_nr": "53470025_53470024.01", "bezirk": "Treptow-Köpenick", "strschl": "43265", "str_name": "Südostallee", "grund_der_einschraenkung": "keine Versickerung möglich (Wasserschutzgebiet, Zone I)", "sachdatum": "2022-01-01T00:00:00+01:00"}, "geometry": {"type": "MultiLineString", "coordinates": [[[13.499214, 52.45726475], [13.50042868, 52.45668072], [13.50241823, 52.45571572], [13.50423368, 52.45483975]]]}}, {"type": "Feature", "properties": {"id": "c_rwvers_strassen_keine.1402", "importid": 1402, "elem_nr": "51470017_51470007.01", "bezirk": "Treptow-Köpenick", "strschl": "43311", "str_name": "Thujaweg", "grund_der_einschraenkung": "keine Versickerung im WSG möglich", "sachdatum": "2022-01-01T00:00:00+01:00"}, "geometry": {"type": "MultiLineString", "coordinates": [[[13.47878362, 52.45019344], [13.48035947, 52.45181389]]]}}, {"type": "Feature", "properties": {"id": "c_rwvers_strassen_keine.1526", "importid": 1526, "elem_nr": "50500041_50500042.01", "bezirk": "Treptow-Köpenick", "strschl": "44105", "str_name": "KGA Alte Sternwarte", "grund_der_einschraenkung": "geringer Grundwasserflurabstand, Möglichkeit zur Versickerung unterliegt der Einzelfallentscheidung", "sachdatum": "2022-01-01T00:00:00+01:00"}, "geometry": {"type": "MultiLineString", "coordinates": [[[13.46351453, 52.48333157], [13.4622751, 52.48413147]]]}}, {"type": "Feature", "properties": {"id": "c_rwvers_strassen_keine.1534", "importid": 1534, "elem_nr": "52470004_52470005.01", "bezirk": "Treptow-Köpenick", "strschl": "44169", "str_name": "KGA Blumenhain", "grund_der_einschraenkung": "keine Versickerung möglich (Wasserschutzgebiet, Zone I)", "sachdatum": "2022-01-01T00:00:00+01:00"}, "geometry": {"type": "MultiLineString", "coordinates": [[[13.48703789, 52.44935328], [13.48900497, 52.45106844]]]}}, {"type": "Feature", "properties": {"id": "c_rwvers_strassen_keine.1556", "importid": 1556, "elem_nr": "52470011_52470007.01", "bezirk": "Treptow-Köpenick", "strschl": "44244", "str_name": "KGA Hermannsruh", "grund_der_einschraenkung": "keine Versickerung möglich (Wasserschutzgebiet, Zone I)", "sachdatum": "2022-01-01T00:00:00+01:00"}, "geometry": {"type": "MultiLineString", "coordinates": [[[13.48957349, 52.45082646], [13.48764464, 52.44910956]]]}}, {"type": "Feature", "properties": {"id": "c_rwvers_strassen_keine.1562", "importid": 1562, "elem_nr": "50500036_50500043.01", "bezirk": "Treptow-Köpenick", "strschl": "44259", "str_name": "KGA Kreuztal", "grund_der_einschraenkung": "Versickerung aufgrund von geringem Grundwasserflurabstand nicht möglich", "sachdatum": "2022-01-01T00:00:00+01:00"}, "geometry": {"type": "MultiLineString", "coordinates": [[[13.46631559, 52.48011367], [13.46659666, 52.48013023], [13.46820532, 52.48098162], [13.46924394, 52.48030541], [13.4674267, 52.47933872]]]}}, {"type": "Feature", "properties": {"id": "c_rwvers_strassen_keine.1588", "importid": 1588, "elem_nr": "50500041_50500044.01", "bezirk": "Treptow-Köpenick", "strschl": "44393", "str_name": "KGA Sternwarte 1911", "grund_der_einschraenkung": "Versickerung aufgrund von geringem Grundwasserflurabstand nicht möglich", "sachdatum": "2022-01-01T00:00:00+01:00"}, "geometry": {"type": "MultiLineString", "coordinates": [[[13.46351453, 52.48333157], [13.46513289, 52.48234795]]]}}, {"type": "Feature", "properties": {"id": "c_rwvers_strassen_keine.1589", "importid": 1589, "elem_nr": "51480045_51480046.01", "bezirk": "Treptow-Köpenick", "strschl": "44430", "str_name": "KGA Waldesgrund", "grund_der_einschraenkung": "keine Versickerung im WSG möglich", "sachdatum": "2022-01-01T00:00:00+01:00"}, "geometry": {"type": "MultiLineString", "coordinates": [[[13.47814856, 52.4579904], [13.47889411, 52.45852693], [13.48068861, 52.45772664], [13.48081603, 52.45790114], [13.48094953, 52.45846117]]]}}, {"type": "Feature", "properties": {"id": "c_rwvers_strassen_keine.1590", "importid": 1590, "elem_nr": "51470070_51470072.01", "bezirk": "Treptow-Köpenick", "strschl": "44430", "str_name": "KGA Waldesgrund", "grund_der_einschraenkung": "keine Versickerung im WSG möglich", "sachdatum": "2022-01-01T00:00:00+01:00"}, "geometry": {"type": "MultiLineString", "coordinates": [[[13.4772726, 52.45730811], [13.47956202, 52.45630985]]]}}, {"type": "Feature", "properties": {"id": "c_rwvers_strassen_keine.1591", "importid": 1591, "elem_nr": "52500016_52500017.01", "bezirk": "Treptow-Köpenick", "strschl": "44481", "str_name": "Plänterwald", "grund_der_einschraenkung": "keine Versickerung im WSG möglich", "sachdatum": "2022-01-01T00:00:00+01:00"}, "geometry": {"type": "MultiLineString", "coordinates": [[[13.48731016, 52.47925407], [13.48750128, 52.47932439], [13.48774679, 52.47941724], [13.48784217, 52.47950812], [13.48803488, 52.47954159], [13.4882378, 52.47960653], [13.48838615, 52.47970466], [13.48893845, 52.48006297], [13.48911038, 52.48015483], [13.48928077, 52.48026467]]]}}, {"type": "Feature", "properties": {"id": "c_rwvers_strassen_keine.1592", "importid": 1592, "elem_nr": "52500018_52500019.01", "bezirk": "Treptow-Köpenick", "strschl": "44481", "str_name": "Plänterwald", "grund_der_einschraenkung": "keine Versickerung im WSG möglich", "sachdatum": "2022-01-01T00:00:00+01:00"}, "geometry": {"type": "MultiLineString", "coordinates": [[[13.48967437, 52.4805455], [13.48984446, 52.48075419], [13.48989713, 52.4808585], [13.48992897, 52.48103467], [13.49010955, 52.48118496], [13.49028138, 52.48130917], [13.49035477, 52.48137485], [13.4904032, 52.48142164]]]}}, {"type": "Feature", "properties": {"id": "c_rwvers_strassen_keine.1593", "importid": 1593, "elem_nr": "52500023_52500021.01", "bezirk": "Treptow-Köpenick", "strschl": "44481", "str_name": "Plänterwald", "grund_der_einschraenkung": "keine Versickerung im WSG möglich", "sachdatum": "2022-01-01T00:00:00+01:00"}, "geometry": {"type": "MultiLineString", "coordinates": [[[13.4858649, 52.48339611], [13.48619796, 52.48327159], [13.48643223, 52.48320087], [13.48681664, 52.48312943], [13.48712722, 52.4831298], [13.48777779, 52.48314314], [13.48818252, 52.48316338], [13.48872695, 52.48322962], [13.48907869, 52.4832498], [13.48966589, 52.48328912]]]}}, {"type": "Feature", "properties": {"id": "c_rwvers_strassen_keine.1594", "importid": 1594, "elem_nr": "51510048_52500023.01", "bezirk": "Treptow-Köpenick", "strschl": "44481", "str_name": "Plänterwald", "grund_der_einschraenkung": "keine Versickerung im WSG möglich", "sachdatum": "2022-01-01T00:00:00+01:00"}, "geometry": {"type": "MultiLineString", "coordinates": [[[13.47991743, 52.48448259], [13.48045278, 52.4841777], [13.48067682, 52.48408631], [13.48101839, 52.48406786], [13.48203245, 52.48411493], [13.48318498, 52.48412891], [13.48388881, 52.48406416], [13.48438092, 52.48392186], [13.48521505, 52.48361551], [13.4858649, 52.48339611]]]}}, {"type": "Feature", "properties": {"id": "c_rwvers_strassen_keine.1595", "importid": 1595, "elem_nr": "52500006_52500015.01", "bezirk": "Treptow-Köpenick", "strschl": "44481", "str_name": "Plänterwald", "grund_der_einschraenkung": "keine Versickerung im WSG möglich", "sachdatum": "2022-01-01T00:00:00+01:00"}, "geometry": {"type": "MultiLineString", "coordinates": [[[13.48546242, 52.47786432], [13.48587342, 52.47793583], [13.48606459, 52.47798728], [13.48654605, 52.47792944], [13.48676974, 52.47793689], [13.48705815, 52.4779561], [13.48763068, 52.47795857], [13.48774837, 52.47797578]]]}}, {"type": "Feature", "properties": {"id": "c_rwvers_strassen_keine.1596", "importid": 1596, "elem_nr": "52500017_52500018.01", "bezirk": "Treptow-Köpenick", "strschl": "44481", "str_name": "Plänterwald", "grund_der_einschraenkung": "keine Versickerung im WSG möglich", "sachdatum": "2022-01-01T00:00:00+01:00"}, "geometry": {"type": "MultiLineString", "coordinates": [[[13.48928077, 52.48026467], [13.48967437, 52.4805455]]]}}, {"type": "Feature", "properties": {"id": "c_rwvers_strassen_keine.1597", "importid": 1597, "elem_nr": "52500034_52500035.01", "bezirk": "Treptow-Köpenick", "strschl": "44481", "str_name": "Plänterwald", "grund_der_einschraenkung": "keine Versickerung im WSG möglich", "sachdatum": "2022-01-01T00:00:00+01:00"}, "geometry": {"type": "MultiLineString", "coordinates": [[[13.49048033, 52.47979515], [13.49137438, 52.48006936]]]}}, {"type": "Feature", "properties": {"id": "c_rwvers_strassen_keine.1598", "importid": 1598, "elem_nr": "52500018_52500034.01", "bezirk": "Treptow-Köpenick", "strschl": "44481", "str_name": "Plänterwald", "grund_der_einschraenkung": "keine Versickerung im WSG möglich", "sachdatum": "2022-01-01T00:00:00+01:00"}, "geometry": {"type": "MultiLineString", "coordinates": [[[13.48967437, 52.4805455], [13.4898322, 52.48043695], [13.49003121, 52.48033563], [13.49031612, 52.48006366], [13.49048033, 52.47979515]]]}}, {"type": "Feature", "properties": {"id": "c_rwvers_strassen_keine.1615", "importid": 1615, "elem_nr": "51510008_51510009.01", "bezirk": "Treptow-Köpenick", "strschl": "44757", "str_name": "Treptower Park", "grund_der_einschraenkung": "geringer Grundwasserflurabstand, Möglichkeit zur Versickerung unterliegt der Einzelfallentscheidung", "sachdatum": "2022-01-01T00:00:00+01:00"}, "geometry": {"type": "MultiLineString", "coordinates": [[[13.46923861, 52.48967129], [13.46925687, 52.48950416], [13.46932787, 52.489409], [13.47001284, 52.48929577], [13.47091319, 52.48905342], [13.47124176, 52.48897476]]]}}, {"type": "Feature", "properties": {"id": "c_rwvers_strassen_keine.1616", "importid": 1616, "elem_nr": "50510014_50510015.01", "bezirk": "Treptow-Köpenick", "strschl": "44757", "str_name": "Treptower Park", "grund_der_einschraenkung": "geringer Grundwasserflurabstand, Möglichkeit zur Versickerung unterliegt der Einzelfallentscheidung", "sachdatum": "2022-01-01T00:00:00+01:00"}, "geometry": {"type": "MultiLineString", "coordinates": [[[13.46506723, 52.48783511], [13.46529442, 52.48810591], [13.46543674, 52.48823641], [13.46556597, 52.48832376], [13.46602091, 52.48871619], [13.46623362, 52.48892587], [13.46656122, 52.48911773], [13.46684584, 52.48938771], [13.46701586, 52.48959643], [13.46710034, 52.48984996], [13.46710012, 52.48991017]]]}}, {"type": "Feature", "properties": {"id": "c_rwvers_strassen_keine.1617", "importid": 1617, "elem_nr": "51510030_51510029.01", "bezirk": "Treptow-Köpenick", "strschl": "44757", "str_name": "Treptower Park", "grund_der_einschraenkung": "Versickerung aufgrund von geringem Grundwasserflurabstand nicht möglich", "sachdatum": "2022-01-01T00:00:00+01:00"}, "geometry": {"type": "MultiLineString", "coordinates": [[[13.47755121, 52.48818214], [13.47756446, 52.48818216], [13.47786571, 52.48790395], [13.47851933, 52.48702497]]]}}, {"type": "Feature", "properties": {"id": "c_rwvers_strassen_keine.1618", "importid": 1618, "elem_nr": "51510031_51510037.01", "bezirk": "Treptow-Köpenick", "strschl": "44757", "str_name": "Treptower Park", "grund_der_einschraenkung": "geringer Grundwasserflurabstand, Möglichkeit zur Versickerung unterliegt der Einzelfallentscheidung", "sachdatum": "2022-01-01T00:00:00+01:00"}, "geometry": {"type": "MultiLineString", "coordinates": [[[13.47259032, 52.4910767], [13.4729635, 52.49044991], [13.47299295, 52.49002219], [13.47292269, 52.4894829]]]}}, {"type": "Feature", "properties": {"id": "c_rwvers_strassen_keine.1648", "importid": 1648, "elem_nr": "50520033_50520025.01", "bezirk": "Friedrichshain-Kreuzberg", "strschl": "49520", "str_name": "Parkwegbrücke", "grund_der_einschraenkung": "Versickerung aufgrund von geringem Grundwasserflurabstand nicht möglich", "sachdatum": "2022-01-01T00:00:00+01:00"}, "geometry": {"type": "MultiLineString", "coordinates": [[[13.46366227, 52.49517796], [13.46428493, 52.49562096]]]}}, {"type": "Feature", "properties": {"id": "c_rwvers_strassen_keine.2022", "importid": 2022, "elem_nr": "51510049_51510006.01", "bezirk": "Treptow-Köpenick", "strschl": "44757", "str_name": "Treptower Park", "grund_der_einschraenkung": "geringer Grundwasserflurabstand, Möglichkeit zur Versickerung unterliegt der Einzelfallentscheidung", "sachdatum": "2022-01-01T00:00:00+01:00"}, "geometry": {"type": "MultiLineString", "coordinates": [[[13.47128014, 52.48603867], [13.4711665, 52.48609265], [13.46899455, 52.48709989], [13.46930736, 52.48730969]]]}}, {"type": "Feature", "properties": {"id": "c_rwvers_strassen_keine.2023", "importid": 2023, "elem_nr": "51510006_51510050.01", "bezirk": "Treptow-Köpenick", "strschl": "44757", "str_name": "Treptower Park", "grund_der_einschraenkung": "geringer Grundwasserflurabstand, Möglichkeit zur Versickerung unterliegt der Einzelfallentscheidung", "sachdatum": "2022-01-01T00:00:00+01:00"}, "geometry": {"type": "MultiLineString", "coordinates": [[[13.46930736, 52.48730969], [13.46957743, 52.48753561], [13.47150598, 52.48667633], [13.4718514, 52.48653515]]]}}, {"type": "Feature", "properties": {"id": "c_rwvers_strassen_keine.2024", "importid": 2024, "elem_nr": "51510050_51510049.01", "bezirk": "Treptow-Köpenick", "strschl": "44757", "str_name": "Treptower Park", "grund_der_einschraenkung": "geringer Grundwasserflurabstand, Möglichkeit zur Versickerung unterliegt der Einzelfallentscheidung", "sachdatum": "2022-01-01T00:00:00+01:00"}, "geometry": {"type": "MultiLineString", "coordinates": [[[13.4718514, 52.48653515], [13.47224897, 52.48637265], [13.47243518, 52.4861644], [13.47237826, 52.48602413], [13.47225067, 52.48588557], [13.47203747, 52.4858143], [13.47176652, 52.48584091], [13.47142307, 52.48597077], [13.47128014, 52.48603867]]]}}]}