{"type": "FeatureCollection", "features": [{"type": "Feature", "properties": {"id": "da_autobahn2022.16", "importid": 16, "link_id": "46480020_46480021", "str_name": "A 100 BAB Stadtring", "laenge_m": 80, "kfz": 76180, "pkw": 61250, "lkw": 3995, "lnf": 9750, "lbus": 0, "rbus": 195, "krad": 980, "quelle_kfz": "Verkehrsmengenkarte 2019"}, "geometry": {"type": "MultiLineString", "coordinates": [[[13.40794524, 52.46175337], [13.40681285, 52.46197005]]]}}, {"type": "Feature", "properties": {"id": "da_autobahn2022.153", "importid": 153, "link_id": "46480023_46480022", "str_name": "100 z AS Oberlandstr u AS Gradestr Hauptfb", "laenge_m": 85, "kfz": 78200, "pkw": 63025, "lkw": 3965, "lnf": 10010, "lbus": 0, "rbus": 200, "krad": 1010, "quelle_kfz": "Verkehrsmengenkarte 2019"}, "geometry": {"type": "MultiLineString", "coordinates": [[[13.40652631, 52.46189841], [13.40682648, 52.46183467], [13.40747932, 52.46171501], [13.40772023, 52.46167537]]]}}, {"type": "Feature", "properties": {"id": "da_autobahn2022.157", "importid": 157, "link_id": "46480018_45490026", "str_name": "A 100 BAB Stadtring", "laenge_m": 841, "kfz": 80870, "pkw": 65155, "lkw": 4100, "lnf": 10350, "lbus": 0, "rbus": 210, "krad": 1045, "quelle_kfz": "Verkehrsmengenkarte 2019"}, "geometry": {"type": "MultiLineString", "coordinates": [[[13.40052682, 52.46544083], [13.40010138, 52.46556731], [13.3990831, 52.46584353], [13.39794377, 52.46618048], [13.39732596, 52.46637904], [13.39645562, 52.46669554], [13.39577069, 52.46697346], [13.39486855, 52.46735918], [13.39377907, 52.46783502], [13.39269236, 52.4683144], [13.39184704, 52.46866518], [13.39146204, 52.4688062], [13.39106287, 52.46893642], [13.39031002, 52.4691545], [13.38987325, 52.46927342]]]}}, {"type": "Feature", "properties": {"id": "da_autobahn2022.184", "importid": 184, "link_id": "46480021_46480018", "str_name": "A 100 BAB Stadtring", "laenge_m": 588, "kfz": 72500, "pkw": 58370, "lkw": 3740, "lnf": 9280, "lbus": 0, "rbus": 185, "krad": 935, "quelle_kfz": "Verkehrsmengenkarte 2019"}, "geometry": {"type": "MultiLineString", "coordinates": [[[13.40681285, 52.46197005], [13.40652737, 52.46203047], [13.40627095, 52.462093], [13.40592899, 52.46218116], [13.40562754, 52.46227697], [13.40530481, 52.46239757], [13.40474292, 52.4626701], [13.40442355, 52.46285843], [13.40414171, 52.46305626], [13.40390411, 52.46324578], [13.40357446, 52.46355713], [13.40337331, 52.46374641], [13.4030997, 52.46400387], [13.40271033, 52.46435189], [13.40246088, 52.46454305], [13.40205441, 52.46479618], [13.4017596, 52.46495284], [13.40145929, 52.46509683], [13.4011952, 52.46520923], [13.40084881, 52.46533839], [13.40052682, 52.46544083]]]}}, {"type": "Feature", "properties": {"id": "da_autobahn2022.185", "importid": 185, "link_id": "46480019_46480023", "str_name": "A 100 BAB Stadtring", "laenge_m": 616, "kfz": 72770, "pkw": 58830, "lkw": 3505, "lnf": 9315, "lbus": 0, "rbus": 185, "krad": 940, "quelle_kfz": "Verkehrsmengenkarte 2019"}, "geometry": {"type": "MultiLineString", "coordinates": [[[13.39987338, 52.46549114], [13.40013301, 52.46542148], [13.40048729, 52.46531921], [13.40080948, 52.46521471], [13.40119772, 52.46505941], [13.40151531, 52.46492095], [13.40198886, 52.46467223], [13.40236596, 52.46442221], [13.40269078, 52.46416429], [13.40291454, 52.46395499], [13.40313701, 52.46376454], [13.40321567, 52.46368509], [13.40336807, 52.46353115], [13.40357075, 52.46333765], [13.40377677, 52.46315524], [13.40387246, 52.46307051], [13.40418632, 52.46283635], [13.40450148, 52.46264005], [13.40484692, 52.46245917], [13.40526552, 52.46227209], [13.40553159, 52.46217648], [13.40567688, 52.46212428], [13.40611981, 52.4619928], [13.40652631, 52.46189841]]]}}, {"type": "Feature", "properties": {"id": "da_autobahn2022.204", "importid": 204, "link_id": "T0000298_46480020", "str_name": "A 100 BAB Stadtring", "laenge_m": 588, "kfz": 63110, "pkw": 50475, "lkw": 3580, "lnf": 8080, "lbus": 0, "rbus": 165, "krad": 815, "quelle_kfz": "Verkehrsmengenkarte 2019"}, "geometry": {"type": "MultiLineString", "coordinates": [[[13.41642583, 52.46071426], [13.41614951, 52.46071632], [13.41487694, 52.46077235], [13.41420334, 52.4608222], [13.41310997, 52.46093069], [13.412259, 52.46103882], [13.41213813, 52.46105587], [13.411208, 52.46118705], [13.41030328, 52.46132475], [13.40957145, 52.46145056], [13.40794524, 52.46175337]]]}}, {"type": "Feature", "properties": {"id": "da_autobahn2022.240", "importid": 240, "link_id": "50480021_50480020", "str_name": "113 ZB Dresden Hauptfb zw AS Späthstr u AD Neukölln", "laenge_m": 206, "kfz": 48670, "pkw": 40145, "lkw": 1800, "lnf": 6230, "lbus": 0, "rbus": 125, "krad": 375, "quelle_kfz": "Verkehrsmengenkarte 2019"}, "geometry": {"type": "MultiLineString", "coordinates": [[[13.45611033, 52.46126073], [13.45573192, 52.4616515], [13.45524196, 52.46224343], [13.455039, 52.46251765], [13.45471777, 52.46290412]]]}}, {"type": "Feature", "properties": {"id": "da_autobahn2022.246", "importid": 246, "link_id": "49480045_50480018", "str_name": "A 100 BAB Stadtring", "laenge_m": 475, "kfz": 45080, "pkw": 36240, "lkw": 2560, "lnf": 5770, "lbus": 0, "rbus": 155, "krad": 350, "quelle_kfz": "Verkehrsmengenkarte 2019"}, "geometry": {"type": "MultiLineString", "coordinates": [[[13.44858674, 52.46340043], [13.4508256, 52.46379195], [13.45146327, 52.46386323], [13.45175746, 52.46387542], [13.45190386, 52.46388149], [13.45226627, 52.46386538], [13.45270159, 52.46380887], [13.45299002, 52.46374226], [13.45327803, 52.46366027], [13.45362312, 52.4635321], [13.4540868, 52.46327208], [13.45440957, 52.46301875], [13.45467409, 52.46269563]]]}}, {"type": "Feature", "properties": {"id": "da_autobahn2022.247", "importid": 247, "link_id": "50480020_49480044", "str_name": "A 113 BAB Autobahnzubringer Dresden", "laenge_m": 488, "kfz": 47100, "pkw": 38800, "lkw": 1740, "lnf": 6030, "lbus": 0, "rbus": 160, "krad": 365, "quelle_kfz": "Verkehrsmengenkarte 2019"}, "geometry": {"type": "MultiLineString", "coordinates": [[[13.45471777, 52.46290412], [13.45430309, 52.46325162], [13.45422841, 52.46330458], [13.45413779, 52.46336884], [13.45389486, 52.46350194], [13.45365598, 52.46362664], [13.45334762, 52.46373875], [13.45299827, 52.46384646], [13.4526186, 52.46391512], [13.45220493, 52.46396004], [13.4518208, 52.46397245], [13.45148852, 52.46395651], [13.45099587, 52.4639034], [13.45036538, 52.4638004], [13.44967835, 52.46368298], [13.44896316, 52.46355548], [13.44828085, 52.46345251]]]}}, {"type": "Feature", "properties": {"id": "da_autobahn2022.248", "importid": 248, "link_id": "50480018_50480017", "str_name": "113 ZB Dresden Hauptfb zw AD Neukölln u AS Späthstr", "laenge_m": 185, "kfz": 47750, "pkw": 38510, "lkw": 2630, "lnf": 6110, "lbus": 0, "rbus": 125, "krad": 370, "quelle_kfz": "Verkehrsmengenkarte 2019"}, "geometry": {"type": "MultiLineString", "coordinates": [[[13.45467409, 52.46269563], [13.45521037, 52.46209164], [13.45565486, 52.46155395], [13.45591382, 52.46120891]]]}}, {"type": "Feature", "properties": {"id": "da_autobahn2022.249", "importid": 249, "link_id": "50480017_T0000348", "str_name": "A 113 BAB Autobahnzubringer Dresden", "laenge_m": 283, "kfz": 53270, "pkw": 42735, "lkw": 3115, "lnf": 6820, "lbus": 0, "rbus": 185, "krad": 410, "quelle_kfz": "Verkehrsmengenkarte 2019"}, "geometry": {"type": "MultiLineString", "coordinates": [[[13.45591382, 52.46120891], [13.45650023, 52.46050677], [13.4578026, 52.458943]]]}}, {"type": "Feature", "properties": {"id": "da_autobahn2022.250", "importid": 250, "link_id": "T0000348_50480027", "str_name": "A 113 BAB Autobahnzubringer Dresden", "laenge_m": 240, "kfz": 53270, "pkw": 42735, "lkw": 3115, "lnf": 6820, "lbus": 0, "rbus": 185, "krad": 410, "quelle_kfz": "Verkehrsmengenkarte 2019"}, "geometry": {"type": "MultiLineString", "coordinates": [[[13.4578026, 52.458943], [13.45797113, 52.45874067], [13.45875298, 52.4577982], [13.45936807, 52.45700536]]]}}, {"type": "Feature", "properties": {"id": "da_autobahn2022.251", "importid": 251, "link_id": "50480028_T0000349", "str_name": "A 113 BAB Autobahnzubringer Dresden", "laenge_m": 238, "kfz": 53640, "pkw": 43490, "lkw": 2675, "lnf": 6865, "lbus": 0, "rbus": 185, "krad": 415, "quelle_kfz": "Verkehrsmengenkarte 2019"}, "geometry": {"type": "MultiLineString", "coordinates": [[[13.45952141, 52.45705222], [13.45929074, 52.45739179], [13.45864547, 52.45819727], [13.45815061, 52.45879618], [13.45800043, 52.45897794]]]}}, {"type": "Feature", "properties": {"id": "da_autobahn2022.252", "importid": 252, "link_id": "T0000349_50480021", "str_name": "A 113 BAB Autobahnzubringer Dresden", "laenge_m": 284, "kfz": 53640, "pkw": 43490, "lkw": 2675, "lnf": 6865, "lbus": 0, "rbus": 185, "krad": 415, "quelle_kfz": "Verkehrsmengenkarte 2019"}, "geometry": {"type": "MultiLineString", "coordinates": [[[13.45800043, 52.45897794], [13.45762315, 52.45943453], [13.45611033, 52.46126073]]]}}, {"type": "Feature", "properties": {"id": "da_autobahn2022.253", "importid": 253, "link_id": "50480027_50470040", "str_name": "A 113 BAB Autobahnzubringer Dresden", "laenge_m": 631, "kfz": 48580, "pkw": 38985, "lkw": 2840, "lnf": 6220, "lbus": 0, "rbus": 165, "krad": 375, "quelle_kfz": "Verkehrsmengenkarte 2019"}, "geometry": {"type": "MultiLineString", "coordinates": [[[13.45936807, 52.45700536], [13.45959561, 52.45670674], [13.4601841, 52.45581997], [13.46112828, 52.45425392], [13.46213445, 52.45261335], [13.46244365, 52.45216755], [13.46279939, 52.45173017]]]}}, {"type": "Feature", "properties": {"id": "da_autobahn2022.254", "importid": 254, "link_id": "50470039_50480028", "str_name": "A 113 BAB Autobahnzubringer Dresden", "laenge_m": 623, "kfz": 50420, "pkw": 40840, "lkw": 2555, "lnf": 6455, "lbus": 0, "rbus": 175, "krad": 390, "quelle_kfz": "Verkehrsmengenkarte 2019"}, "geometry": {"type": "MultiLineString", "coordinates": [[[13.46291227, 52.45185128], [13.4625549, 52.45231812], [13.46174814, 52.45356523], [13.46130948, 52.45430572], [13.46038392, 52.45582518], [13.45992498, 52.45653681], [13.45952141, 52.45705222]]]}}, {"type": "Feature", "properties": {"id": "da_autobahn2022.255", "importid": 255, "link_id": "50470040_51460035", "str_name": "A 113 BAB Autobahnzubringer Dresden", "laenge_m": 1193, "kfz": 55940, "pkw": 44845, "lkw": 3365, "lnf": 7160, "lbus": 0, "rbus": 145, "krad": 435, "quelle_kfz": "Verkehrsmengenkarte 2019"}, "geometry": {"type": "MultiLineString", "coordinates": [[[13.46279939, 52.45173017], [13.46327722, 52.45120853], [13.46364243, 52.45086485], [13.46423399, 52.45037336], [13.46467969, 52.45003854], [13.4652456, 52.44967661], [13.46595654, 52.44925111], [13.46927819, 52.44764103], [13.47440285, 52.44514613], [13.47567096, 52.44452541]]]}}, {"type": "Feature", "properties": {"id": "da_autobahn2022.256", "importid": 256, "link_id": "51460036_50470039", "str_name": "A 113 BAB Autobahnzubringer Dresden", "laenge_m": 1142, "kfz": 55290, "pkw": 44605, "lkw": 3040, "lnf": 7075, "lbus": 0, "rbus": 140, "krad": 430, "quelle_kfz": "Verkehrsmengenkarte 2019"}, "geometry": {"type": "MultiLineString", "coordinates": [[[13.47517437, 52.444922], [13.47204711, 52.44644954], [13.47084855, 52.44702428], [13.46666688, 52.4490658], [13.46576139, 52.4495313], [13.46491085, 52.45005943], [13.46409129, 52.45068352], [13.46363438, 52.45109622], [13.46326014, 52.45145533], [13.46291227, 52.45185128]]]}}, {"type": "Feature", "properties": {"id": "da_autobahn2022.279", "importid": 279, "link_id": "49480044_49480043", "str_name": "A 100 BAB Stadtring", "laenge_m": 524, "kfz": 53270, "pkw": 42410, "lkw": 3205, "lnf": 6820, "lbus": 0, "rbus": 140, "krad": 685, "quelle_kfz": "Verkehrsmengenkarte 2019"}, "geometry": {"type": "MultiLineString", "coordinates": [[[13.44828085, 52.46345251], [13.44741468, 52.46330767], [13.44713157, 52.46326033], [13.4464728, 52.463151], [13.44603745, 52.46309108], [13.44515315, 52.46299226], [13.44436626, 52.46293746], [13.44416014, 52.46292311], [13.44375188, 52.46290416], [13.44226573, 52.46288262], [13.44151775, 52.46287663], [13.44129236, 52.46287068]]]}}, {"type": "Feature", "properties": {"id": "da_autobahn2022.284", "importid": 284, "link_id": "49480042_49480045", "str_name": "A 100 BAB Stadtring", "laenge_m": 548, "kfz": 52810, "pkw": 42330, "lkw": 2860, "lnf": 6760, "lbus": 0, "rbus": 180, "krad": 680, "quelle_kfz": "Verkehrsmengenkarte 2019"}, "geometry": {"type": "MultiLineString", "coordinates": [[[13.44130553, 52.46273771], [13.4423496, 52.46275203], [13.44319585, 52.46275931], [13.4443886, 52.46281243], [13.44455378, 52.46281979], [13.44526504, 52.46287561], [13.44532567, 52.4628828], [13.4460007, 52.46296277], [13.44659681, 52.46305195], [13.44831211, 52.46335234], [13.44858674, 52.46340043]]]}}, {"type": "Feature", "properties": {"id": "da_autobahn2022.285", "importid": 285, "link_id": "46480022_T0000281", "str_name": "A 100 BAB Stadtring", "laenge_m": 610, "kfz": 66060, "pkw": 53120, "lkw": 3465, "lnf": 8455, "lbus": 0, "rbus": 170, "krad": 850, "quelle_kfz": "Verkehrsmengenkarte 2019"}, "geometry": {"type": "MultiLineString", "coordinates": [[[13.40772023, 52.46167537], [13.4088233, 52.46146369], [13.41063742, 52.461133], [13.41163015, 52.4609822], [13.41208825, 52.46092029], [13.41278358, 52.46082634], [13.41409726, 52.46068702], [13.41455105, 52.46065741], [13.41520952, 52.46061985], [13.41627094, 52.46058948], [13.41651189, 52.46059568]]]}}]}