{"type": "FeatureCollection", "features": [{"type": "Feature", "properties": {"id": "db_bundesstrasse2022.648", "importid": 648, "link_id": "50510007_50520027", "str_name": "Elsenstr.", "laenge_m": 90, "kfz": 44680, "pkw": 34850, "lkw": 2110, "lnf": 5720, "lbus": 370, "rbus": 160, "krad": 1460, "quelle_kfz": "Verkehrsmengenkarte 2019"}, "geometry": {"type": "MultiLineString", "coordinates": [[[13.45930396, 52.49287069], [13.46014852, 52.49354787]]]}}, {"type": "Feature", "properties": {"id": "db_bundesstrasse2022.649", "importid": 649, "link_id": "50520027_50520028", "str_name": "Elsenstr.", "laenge_m": 59, "kfz": 44680, "pkw": 34850, "lkw": 2110, "lnf": 5720, "lbus": 370, "rbus": 160, "krad": 1460, "quelle_kfz": "Verkehrsmengenkarte 2019"}, "geometry": {"type": "MultiLineString", "coordinates": [[[13.46014852, 52.49354787], [13.46066839, 52.49391996]]]}}, {"type": "Feature", "properties": {"id": "db_bundesstrasse2022.650", "importid": 650, "link_id": "50520002_50520001", "str_name": "Elsenstr.", "laenge_m": 136, "kfz": 42500, "pkw": 33950, "lkw": 1430, "lnf": 5440, "lbus": 370, "rbus": 150, "krad": 1160, "quelle_kfz": "Verkehrsmengenkarte 2019"}, "geometry": {"type": "MultiLineString", "coordinates": [[[13.46365816, 52.49637971], [13.46402577, 52.49666782], [13.46423134, 52.49689], [13.46444769, 52.49714073], [13.46468281, 52.49743189]]]}}, {"type": "Feature", "properties": {"id": "db_bundesstrasse2022.660", "importid": 660, "link_id": "50520028_50520003", "str_name": "An den Treptowers", "laenge_m": 212, "kfz": 42500, "pkw": 33950, "lkw": 1430, "lnf": 5440, "lbus": 370, "rbus": 150, "krad": 1160, "quelle_kfz": "Verkehrsmengenkarte 2019"}, "geometry": {"type": "MultiLineString", "coordinates": [[[13.46066839, 52.49391996], [13.46174379, 52.49479161], [13.46189702, 52.49492565], [13.46201071, 52.4950163], [13.4621195, 52.4950837], [13.46229987, 52.49524589], [13.46252889, 52.49545182]]]}}, {"type": "Feature", "properties": {"id": "db_bundesstrasse2022.711", "importid": 711, "link_id": "51510003_51510045", "str_name": "Alt-Treptow", "laenge_m": 406, "kfz": 20340, "pkw": 15885, "lkw": 850, "lnf": 2605, "lbus": 285, "rbus": 55, "krad": 665, "quelle_kfz": "Verkehrsmengenkarte 2019"}, "geometry": {"type": "MultiLineString", "coordinates": [[[13.47643154, 52.48769162], [13.47656554, 52.48762017], [13.47669445, 52.48752726], [13.47687881, 52.4873512], [13.47731805, 52.48686538], [13.47739539, 52.48677985], [13.47742873, 52.48674382], [13.4779844, 52.48614335], [13.47899767, 52.48502554], [13.47927618, 52.48470048], [13.47933067, 52.48459582], [13.47932458, 52.48451898]]]}}, {"type": "Feature", "properties": {"id": "db_bundesstrasse2022.712", "importid": 712, "link_id": "50510006_50510008", "str_name": "Am Treptower Park", "laenge_m": 142, "kfz": 22520, "pkw": 18000, "lkw": 735, "lnf": 2885, "lbus": 325, "rbus": 60, "krad": 510, "quelle_kfz": "Verkehrsmengenkarte 2019"}, "geometry": {"type": "MultiLineString", "coordinates": [[[13.45766317, 52.49170965], [13.45785114, 52.4915965], [13.45845197, 52.49119811], [13.45906932, 52.49076451]]]}}, {"type": "Feature", "properties": {"id": "db_bundesstrasse2022.713", "importid": 713, "link_id": "50510030_50510031", "str_name": "Am Treptower Park", "laenge_m": 65, "kfz": 22160, "pkw": 17735, "lkw": 745, "lnf": 2835, "lbus": 285, "rbus": 60, "krad": 500, "quelle_kfz": "Verkehrsmengenkarte 2019"}, "geometry": {"type": "MultiLineString", "coordinates": [[[13.46449371, 52.48705481], [13.46514329, 52.48661989]]]}}, {"type": "Feature", "properties": {"id": "db_bundesstrasse2022.714", "importid": 714, "link_id": "50510031_50510032", "str_name": "Am Treptower Park", "laenge_m": 199, "kfz": 22060, "pkw": 17640, "lkw": 740, "lnf": 2825, "lbus": 285, "rbus": 60, "krad": 500, "quelle_kfz": "Verkehrsmengenkarte 2019"}, "geometry": {"type": "MultiLineString", "coordinates": [[[13.46514329, 52.48661989], [13.46711434, 52.48528952]]]}}, {"type": "Feature", "properties": {"id": "db_bundesstrasse2022.715", "importid": 715, "link_id": "50510032_51510046", "str_name": "Am Treptower Park", "laenge_m": 157, "kfz": 22060, "pkw": 17640, "lkw": 740, "lnf": 2825, "lbus": 285, "rbus": 60, "krad": 500, "quelle_kfz": "Verkehrsmengenkarte 2019"}, "geometry": {"type": "MultiLineString", "coordinates": [[[13.46711434, 52.48528952], [13.46866513, 52.48424483]]]}}, {"type": "Feature", "properties": {"id": "db_bundesstrasse2022.770", "importid": 770, "link_id": "51500020_51500014", "str_name": "Köpenicker Landstr.", "laenge_m": 206, "kfz": 30420, "pkw": 24465, "lkw": 1100, "lnf": 3890, "lbus": 355, "rbus": 80, "krad": 520, "quelle_kfz": "Verkehrsmengenkarte 2019"}, "geometry": {"type": "MultiLineString", "coordinates": [[[13.47313355, 52.48138478], [13.47333786, 52.48123586], [13.474479, 52.48044803], [13.47515307, 52.47999422]]]}}, {"type": "Feature", "properties": {"id": "db_bundesstrasse2022.771", "importid": 771, "link_id": "51500014_51500026", "str_name": "Köpenicker Landstr.", "laenge_m": 80, "kfz": 31060, "pkw": 24565, "lkw": 1490, "lnf": 3980, "lbus": 425, "rbus": 80, "krad": 530, "quelle_kfz": "Verkehrsmengenkarte 2019"}, "geometry": {"type": "MultiLineString", "coordinates": [[[13.47515307, 52.47999422], [13.47594156, 52.47946207]]]}}, {"type": "Feature", "properties": {"id": "db_bundesstrasse2022.772", "importid": 772, "link_id": "51500026_51500009", "str_name": "Köpenicker Landstr.", "laenge_m": 283, "kfz": 31060, "pkw": 24480, "lkw": 1490, "lnf": 3980, "lbus": 510, "rbus": 80, "krad": 530, "quelle_kfz": "Verkehrsmengenkarte 2019"}, "geometry": {"type": "MultiLineString", "coordinates": [[[13.47594156, 52.47946207], [13.47742589, 52.4784556], [13.47863586, 52.47766763], [13.47874601, 52.47757178]]]}}, {"type": "Feature", "properties": {"id": "db_bundesstrasse2022.773", "importid": 773, "link_id": "52490002_T0000582", "str_name": "Köpenicker Landstr.", "laenge_m": 205, "kfz": 25340, "pkw": 20370, "lkw": 1100, "lnf": 3240, "lbus": 180, "rbus": 70, "krad": 370, "quelle_kfz": "Verkehrsmengenkarte 2019"}, "geometry": {"type": "MultiLineString", "coordinates": [[[13.4838743, 52.47411493], [13.48397596, 52.47405016], [13.48590486, 52.47275067]]]}}, {"type": "Feature", "properties": {"id": "db_bundesstrasse2022.774", "importid": 774, "link_id": "T0000582_52490033", "str_name": "Köpenicker Landstr.", "laenge_m": 160, "kfz": 25340, "pkw": 20370, "lkw": 1100, "lnf": 3240, "lbus": 180, "rbus": 70, "krad": 370, "quelle_kfz": "Verkehrsmengenkarte 2019"}, "geometry": {"type": "MultiLineString", "coordinates": [[[13.48590486, 52.47275067], [13.48725662, 52.47184774], [13.48749312, 52.47168123]]]}}, {"type": "Feature", "properties": {"id": "db_bundesstrasse2022.802", "importid": 802, "link_id": "50510007_50510010", "str_name": "Puschkinallee", "laenge_m": 129, "kfz": 19790, "pkw": 15405, "lkw": 860, "lnf": 2535, "lbus": 285, "rbus": 55, "krad": 645, "quelle_kfz": "Verkehrsmengenkarte 2019"}, "geometry": {"type": "MultiLineString", "coordinates": [[[13.45930396, 52.49287069], [13.45950277, 52.49281233], [13.46100337, 52.4923379]]]}}, {"type": "Feature", "properties": {"id": "db_bundesstrasse2022.803", "importid": 803, "link_id": "50510010_51510003", "str_name": "Puschkinallee", "laenge_m": 1166, "kfz": 19790, "pkw": 15405, "lkw": 860, "lnf": 2535, "lbus": 285, "rbus": 55, "krad": 645, "quelle_kfz": "Verkehrsmengenkarte 2019"}, "geometry": {"type": "MultiLineString", "coordinates": [[[13.46100337, 52.4923379], [13.46515995, 52.49110168], [13.4710228, 52.48934533], [13.47365417, 52.4885604], [13.47617947, 52.48779894], [13.47631278, 52.48774717], [13.47643154, 52.48769162]]]}}, {"type": "Feature", "properties": {"id": "db_bundesstrasse2022.820", "importid": 820, "link_id": "50520011_50520001", "str_name": "Stralauer Allee", "laenge_m": 168, "kfz": 33320, "pkw": 27050, "lkw": 1000, "lnf": 4260, "lbus": 0, "rbus": 90, "krad": 910, "quelle_kfz": "Verkehrsmengenkarte 2019"}, "geometry": {"type": "MultiLineString", "coordinates": [[[13.46247828, 52.49812446], [13.46313417, 52.4979248], [13.46360724, 52.49777039], [13.46468281, 52.49743189]]]}}, {"type": "Feature", "properties": {"id": "db_bundesstrasse2022.821", "importid": 821, "link_id": "50520015_50520011", "str_name": "Stralauer Allee", "laenge_m": 207, "kfz": 33500, "pkw": 27170, "lkw": 1030, "lnf": 4290, "lbus": 0, "rbus": 90, "krad": 910, "quelle_kfz": "Verkehrsmengenkarte 2019"}, "geometry": {"type": "MultiLineString", "coordinates": [[[13.45975319, 52.49896151], [13.46101321, 52.4985538], [13.46212603, 52.49820708], [13.46247828, 52.49812446]]]}}, {"type": "Feature", "properties": {"id": "db_bundesstrasse2022.822", "importid": 822, "link_id": "50520023_50520015", "str_name": "Stralauer Allee", "laenge_m": 124, "kfz": 33600, "pkw": 27250, "lkw": 1040, "lnf": 4300, "lbus": 0, "rbus": 90, "krad": 910, "quelle_kfz": "Verkehrsmengenkarte 2019"}, "geometry": {"type": "MultiLineString", "coordinates": [[[13.4581193, 52.49946807], [13.45845162, 52.49936894], [13.45975319, 52.49896151]]]}}, {"type": "Feature", "properties": {"id": "db_bundesstrasse2022.823", "importid": 823, "link_id": "50520024_50520023", "str_name": "Stralauer Allee", "laenge_m": 207, "kfz": 34060, "pkw": 27590, "lkw": 1080, "lnf": 4360, "lbus": 0, "rbus": 90, "krad": 930, "quelle_kfz": "Verkehrsmengenkarte 2019"}, "geometry": {"type": "MultiLineString", "coordinates": [[[13.45542069, 52.5003388], [13.45562833, 52.5002652], [13.4581193, 52.49946807]]]}}, {"type": "Feature", "properties": {"id": "db_bundesstrasse2022.854", "importid": 854, "link_id": "50520003_50520002", "str_name": "Elsenstr.", "laenge_m": 128, "kfz": 42500, "pkw": 33950, "lkw": 1430, "lnf": 5440, "lbus": 370, "rbus": 150, "krad": 1160, "quelle_kfz": "Verkehrsmengenkarte 2019"}, "geometry": {"type": "MultiLineString", "coordinates": [[[13.46252889, 52.49545182], [13.46311356, 52.49591733], [13.46365816, 52.49637971]]]}}, {"type": "Feature", "properties": {"id": "db_bundesstrasse2022.972", "importid": 972, "link_id": "51500020_51500021", "str_name": "Bulgarische Str.", "laenge_m": 270, "kfz": 12530, "pkw": 9800, "lkw": 445, "lnf": 1605, "lbus": 285, "rbus": 35, "krad": 365, "quelle_kfz": "Verkehrsmengenkarte 2019"}, "geometry": {"type": "MultiLineString", "coordinates": [[[13.47313355, 52.48138478], [13.47330108, 52.48154048], [13.47352737, 52.48167186], [13.4745795, 52.48217606], [13.4761873, 52.48293453]]]}}, {"type": "Feature", "properties": {"id": "db_bundesstrasse2022.973", "importid": 973, "link_id": "51500021_51510045", "str_name": "Bulgarische Str.", "laenge_m": 278, "kfz": 12800, "pkw": 9950, "lkw": 525, "lnf": 1640, "lbus": 285, "rbus": 35, "krad": 370, "quelle_kfz": "Verkehrsmengenkarte 2019"}, "geometry": {"type": "MultiLineString", "coordinates": [[[13.4761873, 52.48293453], [13.47733418, 52.48347472], [13.47909501, 52.4843126], [13.47922134, 52.4843785], [13.47930039, 52.48445979], [13.47932458, 52.48451898]]]}}, {"type": "Feature", "properties": {"id": "db_bundesstrasse2022.979", "importid": 979, "link_id": "52490035_52490032", "str_name": "Köpenicker Landstr.", "laenge_m": 167, "kfz": 34420, "pkw": 27790, "lkw": 1340, "lnf": 4410, "lbus": 300, "rbus": 60, "krad": 500, "quelle_kfz": "Verkehrsmengenkarte 2019"}, "geometry": {"type": "MultiLineString", "coordinates": [[[13.49319418, 52.46785223], [13.49336416, 52.46772711], [13.49408957, 52.46723376], [13.49422557, 52.4671545], [13.49484097, 52.46673606]]]}}, {"type": "Feature", "properties": {"id": "db_bundesstrasse2022.980", "importid": 980, "link_id": "52490023_52490035", "str_name": "Köpenicker Landstr.", "laenge_m": 189, "kfz": 32060, "pkw": 25660, "lkw": 1510, "lnf": 4100, "lbus": 250, "rbus": 60, "krad": 460, "quelle_kfz": "Verkehrsmengenkarte 2019"}, "geometry": {"type": "MultiLineString", "coordinates": [[[13.49131675, 52.46910764], [13.4914437, 52.46901622], [13.49226911, 52.46845764], [13.49246334, 52.46833337], [13.49319418, 52.46785223]]]}}, {"type": "Feature", "properties": {"id": "db_bundesstrasse2022.981", "importid": 981, "link_id": "52490034_52490023", "str_name": "Köpenicker Landstr.", "laenge_m": 109, "kfz": 25340, "pkw": 20390, "lkw": 1100, "lnf": 3240, "lbus": 160, "rbus": 70, "krad": 370, "quelle_kfz": "Verkehrsmengenkarte 2019"}, "geometry": {"type": "MultiLineString", "coordinates": [[[13.49025919, 52.46984402], [13.4904466, 52.46972785], [13.49123047, 52.46918834], [13.49131675, 52.46910764]]]}}, {"type": "Feature", "properties": {"id": "db_bundesstrasse2022.982", "importid": 982, "link_id": "52490033_T0000583", "str_name": "Köpenicker Landstr.", "laenge_m": 160, "kfz": 25340, "pkw": 20380, "lkw": 1100, "lnf": 3240, "lbus": 170, "rbus": 70, "krad": 370, "quelle_kfz": "Verkehrsmengenkarte 2019"}, "geometry": {"type": "MultiLineString", "coordinates": [[[13.48749312, 52.47168123], [13.48908738, 52.47061508]]]}}, {"type": "Feature", "properties": {"id": "db_bundesstrasse2022.983", "importid": 983, "link_id": "T0000583_52490034", "str_name": "Köpenicker Landstr.", "laenge_m": 117, "kfz": 25340, "pkw": 20380, "lkw": 1100, "lnf": 3240, "lbus": 170, "rbus": 70, "krad": 370, "quelle_kfz": "Verkehrsmengenkarte 2019"}, "geometry": {"type": "MultiLineString", "coordinates": [[[13.48908738, 52.47061508], [13.48961617, 52.47026145], [13.49025919, 52.46984402]]]}}, {"type": "Feature", "properties": {"id": "db_bundesstrasse2022.984", "importid": 984, "link_id": "50510008_50510028", "str_name": "Am Treptower Park", "laenge_m": 292, "kfz": 22430, "pkw": 17975, "lkw": 730, "lnf": 2870, "lbus": 285, "rbus": 60, "krad": 510, "quelle_kfz": "Verkehrsmengenkarte 2019"}, "geometry": {"type": "MultiLineString", "coordinates": [[[13.45906932, 52.49076451], [13.45955678, 52.49042945], [13.46043358, 52.48984488], [13.46192831, 52.48879416]]]}}, {"type": "Feature", "properties": {"id": "db_bundesstrasse2022.985", "importid": 985, "link_id": "50510028_50510029", "str_name": "Am Treptower Park", "laenge_m": 86, "kfz": 22340, "pkw": 17875, "lkw": 750, "lnf": 2860, "lbus": 285, "rbus": 60, "krad": 505, "quelle_kfz": "Verkehrsmengenkarte 2019"}, "geometry": {"type": "MultiLineString", "coordinates": [[[13.46192831, 52.48879416], [13.46276873, 52.48822024]]]}}, {"type": "Feature", "properties": {"id": "db_bundesstrasse2022.986", "importid": 986, "link_id": "50510029_50510030", "str_name": "Am Treptower Park", "laenge_m": 174, "kfz": 22250, "pkw": 17805, "lkw": 745, "lnf": 2850, "lbus": 285, "rbus": 60, "krad": 505, "quelle_kfz": "Verkehrsmengenkarte 2019"}, "geometry": {"type": "MultiLineString", "coordinates": [[[13.46276873, 52.48822024], [13.46396108, 52.48742329], [13.46449371, 52.48705481]]]}}, {"type": "Feature", "properties": {"id": "db_bundesstrasse2022.987", "importid": 987, "link_id": "51510046_51500018", "str_name": "Am Treptower Park", "laenge_m": 118, "kfz": 21970, "pkw": 17555, "lkw": 755, "lnf": 2810, "lbus": 285, "rbus": 60, "krad": 500, "quelle_kfz": "Verkehrsmengenkarte 2019"}, "geometry": {"type": "MultiLineString", "coordinates": [[[13.46866513, 52.48424483], [13.46983354, 52.48345622]]]}}, {"type": "Feature", "properties": {"id": "db_bundesstrasse2022.988", "importid": 988, "link_id": "51500018_51500019", "str_name": "Am Treptower Park", "laenge_m": 99, "kfz": 21880, "pkw": 17475, "lkw": 755, "lnf": 2800, "lbus": 285, "rbus": 60, "krad": 495, "quelle_kfz": "Verkehrsmengenkarte 2019"}, "geometry": {"type": "MultiLineString", "coordinates": [[[13.46983354, 52.48345622], [13.47081503, 52.48279329]]]}}, {"type": "Feature", "properties": {"id": "db_bundesstrasse2022.989", "importid": 989, "link_id": "51500019_51500020", "str_name": "Am Treptower Park", "laenge_m": 223, "kfz": 21790, "pkw": 17395, "lkw": 750, "lnf": 2790, "lbus": 285, "rbus": 60, "krad": 495, "quelle_kfz": "Verkehrsmengenkarte 2019"}, "geometry": {"type": "MultiLineString", "coordinates": [[[13.47081503, 52.48279329], [13.47170606, 52.48219965], [13.47273146, 52.48153313], [13.4729364, 52.4814359], [13.47313355, 52.48138478]]]}}, {"type": "Feature", "properties": {"id": "db_bundesstrasse2022.1001", "importid": 1001, "link_id": "52480026_53480006", "str_name": "Schnellerstr.", "laenge_m": 513, "kfz": 34960, "pkw": 28340, "lkw": 1140, "lnf": 4470, "lbus": 210, "rbus": 60, "krad": 730, "quelle_kfz": "Verkehrsmengenkarte 2019"}, "geometry": {"type": "MultiLineString", "coordinates": [[[13.49758037, 52.46479767], [13.4990478, 52.46379108], [13.50078407, 52.46262239], [13.50135177, 52.4622542], [13.5017286, 52.46203029], [13.50269745, 52.46140378]]]}}, {"type": "Feature", "properties": {"id": "db_bundesstrasse2022.1008", "importid": 1008, "link_id": "52490032_52480027", "str_name": "Köpenicker Landstr.", "laenge_m": 59, "kfz": 36680, "pkw": 29940, "lkw": 1130, "lnf": 4700, "lbus": 300, "rbus": 70, "krad": 530, "quelle_kfz": "Verkehrsmengenkarte 2019"}, "geometry": {"type": "MultiLineString", "coordinates": [[[13.49484097, 52.46673606], [13.49542794, 52.46633955]]]}}, {"type": "Feature", "properties": {"id": "db_bundesstrasse2022.1009", "importid": 1009, "link_id": "50510006_50510041", "str_name": "Elsenstr.", "laenge_m": 30, "kfz": 34320, "pkw": 26750, "lkw": 1180, "lnf": 4390, "lbus": 770, "rbus": 160, "krad": 1090, "quelle_kfz": "Verkehrsmengenkarte 2019"}, "geometry": {"type": "MultiLineString", "coordinates": [[[13.45766317, 52.49170965], [13.45795835, 52.49190668]]]}}, {"type": "Feature", "properties": {"id": "db_bundesstrasse2022.1010", "importid": 1010, "link_id": "50510041_50510042", "str_name": "Elsenstr.", "laenge_m": 107, "kfz": 34320, "pkw": 26750, "lkw": 1180, "lnf": 4390, "lbus": 770, "rbus": 160, "krad": 1090, "quelle_kfz": "Verkehrsmengenkarte 2019"}, "geometry": {"type": "MultiLineString", "coordinates": [[[13.45795835, 52.49190668], [13.45805805, 52.49197324], [13.45886053, 52.49253635], [13.45898076, 52.49264094]]]}}, {"type": "Feature", "properties": {"id": "db_bundesstrasse2022.1011", "importid": 1011, "link_id": "50510042_50510007", "str_name": "Elsenstr.", "laenge_m": 34, "kfz": 34320, "pkw": 26750, "lkw": 1180, "lnf": 4390, "lbus": 770, "rbus": 160, "krad": 1090, "quelle_kfz": "Verkehrsmengenkarte 2019"}, "geometry": {"type": "MultiLineString", "coordinates": [[[13.45898076, 52.49264094], [13.45908744, 52.49273375], [13.45930396, 52.49287069]]]}}, {"type": "Feature", "properties": {"id": "db_bundesstrasse2022.1014", "importid": 1014, "link_id": "51500009_52490002", "str_name": "Köpenicker Landstr.", "laenge_m": 518, "kfz": 25340, "pkw": 20210, "lkw": 1100, "lnf": 3240, "lbus": 340, "rbus": 70, "krad": 370, "quelle_kfz": "Verkehrsmengenkarte 2019"}, "geometry": {"type": "MultiLineString", "coordinates": [[[13.47874601, 52.47757178], [13.47882241, 52.47750777], [13.47939689, 52.47711909], [13.47954519, 52.47703677], [13.48032646, 52.47651366], [13.48121825, 52.47590423], [13.48267801, 52.47491671], [13.4838743, 52.47411493]]]}}, {"type": "Feature", "properties": {"id": "db_bundesstrasse2022.1040", "importid": 1040, "link_id": "52490051_53490038", "str_name": "Minna-Todenhagen-Brücke", "laenge_m": 424, "kfz": 20480, "pkw": 16290, "lkw": 1020, "lnf": 2620, "lbus": 0, "rbus": 90, "krad": 450, "quelle_kfz": "Zählung 20181008"}, "geometry": {"type": "MultiLineString", "coordinates": [[[13.49712537, 52.46690139], [13.49759102, 52.46724035], [13.49830861, 52.46767052], [13.49978736, 52.46851476], [13.50160792, 52.46955839]]]}}, {"type": "Feature", "properties": {"id": "db_bundesstrasse2022.1041", "importid": 1041, "link_id": "52480029_52490051", "str_name": "Minna-Todenhagen-Str.", "laenge_m": 127, "kfz": 20480, "pkw": 16290, "lkw": 1020, "lnf": 2620, "lbus": 0, "rbus": 90, "krad": 450, "quelle_kfz": "Zählung 20181008"}, "geometry": {"type": "MultiLineString", "coordinates": [[[13.49591646, 52.46603195], [13.49613611, 52.46615844], [13.49701856, 52.46682117], [13.49712537, 52.46690139]]]}}, {"type": "Feature", "properties": {"id": "db_bundesstrasse2022.1042", "importid": 1042, "link_id": "52480029_52480026", "str_name": "Köpenicker Landstr.", "laenge_m": 178, "kfz": 34960, "pkw": 28340, "lkw": 1140, "lnf": 4470, "lbus": 210, "rbus": 60, "krad": 730, "quelle_kfz": "Verkehrsmengenkarte 2019"}, "geometry": {"type": "MultiLineString", "coordinates": [[[13.49591646, 52.46603195], [13.49604147, 52.46592945], [13.49641879, 52.46569298], [13.49697504, 52.46528519], [13.49725686, 52.46504751], [13.49758037, 52.46479767]]]}}, {"type": "Feature", "properties": {"id": "db_bundesstrasse2022.1043", "importid": 1043, "link_id": "52480027_52480029", "str_name": "Köpenicker Landstr.", "laenge_m": 48, "kfz": 36680, "pkw": 29940, "lkw": 1130, "lnf": 4700, "lbus": 300, "rbus": 70, "krad": 530, "quelle_kfz": "Verkehrsmengenkarte 2019"}, "geometry": {"type": "MultiLineString", "coordinates": [[[13.49542794, 52.46633955], [13.4957427, 52.4661582], [13.49591646, 52.46603195]]]}}]}