{"type": "FeatureCollection", "features": [{"type": "Feature", "properties": {"id": "de_strassen_oberirdischeubahn2022.109", "importid": 109, "name": "Track_1751", "gruppe_txt": "U-Bahn"}, "geometry": {"type": "MultiLineString", "coordinates": [[[13.40499141, 52.49838453], [13.4029567, 52.49836873]]]}}, {"type": "Feature", "properties": {"id": "de_strassen_oberirdischeubahn2022.110", "importid": 110, "name": "Track_1752", "gruppe_txt": "U-Bahn"}, "geometry": {"type": "MultiLineString", "coordinates": [[[13.4029567, 52.49836873], [13.40138318, 52.4983565]]]}}, {"type": "Feature", "properties": {"id": "de_strassen_oberirdischeubahn2022.117", "importid": 117, "name": "Track_1776", "gruppe_txt": "U-Bahn"}, "geometry": {"type": "MultiLineString", "coordinates": [[[13.40560415, 52.49838893], [13.40499141, 52.49838453]]]}}, {"type": "Feature", "properties": {"id": "de_strassen_oberirdischeubahn2022.119", "importid": 119, "name": "Track_1778", "gruppe_txt": "U-Bahn"}, "geometry": {"type": "MultiLineString", "coordinates": [[[13.40645786, 52.49839279], [13.40560415, 52.49838893]]]}}, {"type": "Feature", "properties": {"id": "de_strassen_oberirdischeubahn2022.120", "importid": 120, "name": "Track_1779", "gruppe_txt": "U-Bahn"}, "geometry": {"type": "MultiLineString", "coordinates": [[[13.41170387, 52.49858082], [13.40918902, 52.49845186], [13.40823262, 52.49840891], [13.40717225, 52.49839427], [13.40646492, 52.49839173]]]}}, {"type": "Feature", "properties": {"id": "de_strassen_oberirdischeubahn2022.121", "importid": 121, "name": "Track_1786", "gruppe_txt": "U-Bahn"}, "geometry": {"type": "MultiLineString", "coordinates": [[[13.40138318, 52.4983565], [13.40009992, 52.4983465]]]}}, {"type": "Feature", "properties": {"id": "de_strassen_oberirdischeubahn2022.122", "importid": 122, "name": "Track_1787", "gruppe_txt": "U-Bahn"}, "geometry": {"type": "MultiLineString", "coordinates": [[[13.40009992, 52.4983465], [13.39953724, 52.49834212]]]}}, {"type": "Feature", "properties": {"id": "de_strassen_oberirdischeubahn2022.179", "importid": 179, "name": "Track_1769", "gruppe_txt": "U-Bahn"}, "geometry": {"type": "MultiLineString", "coordinates": [[[13.41938184, 52.49904966], [13.4175109, 52.49893095]]]}}, {"type": "Feature", "properties": {"id": "de_strassen_oberirdischeubahn2022.180", "importid": 180, "name": "Track_1770", "gruppe_txt": "U-Bahn"}, "geometry": {"type": "MultiLineString", "coordinates": [[[13.42576085, 52.49916675], [13.42519508, 52.49915035], [13.4241334, 52.49913269], [13.42256936, 52.49912208]]]}}, {"type": "Feature", "properties": {"id": "de_strassen_oberirdischeubahn2022.181", "importid": 181, "name": "Track_1772", "gruppe_txt": "U-Bahn"}, "geometry": {"type": "MultiLineString", "coordinates": [[[13.42256939, 52.49912041], [13.4224803, 52.49911706], [13.4204226, 52.4990946], [13.41939873, 52.49905027]]]}}, {"type": "Feature", "properties": {"id": "de_strassen_oberirdischeubahn2022.184", "importid": 184, "name": "Track_1780", "gruppe_txt": "U-Bahn"}, "geometry": {"type": "MultiLineString", "coordinates": [[[13.42843494, 52.49929173], [13.42731447, 52.49922403]]]}}, {"type": "Feature", "properties": {"id": "de_strassen_oberirdischeubahn2022.187", "importid": 187, "name": "Track_5994", "gruppe_txt": "U-Bahn"}, "geometry": {"type": "MultiLineString", "coordinates": [[[13.42730737, 52.49922402], [13.42675694, 52.49920364], [13.42576085, 52.49916675]]]}}, {"type": "Feature", "properties": {"id": "de_strassen_oberirdischeubahn2022.192", "importid": 192, "name": "Track_1767", "gruppe_txt": "U-Bahn"}, "geometry": {"type": "MultiLineString", "coordinates": [[[13.43744357, 52.50020361], [13.43676494, 52.5001051], [13.43488345, 52.49983198]]]}}, {"type": "Feature", "properties": {"id": "de_strassen_oberirdischeubahn2022.193", "importid": 193, "name": "Track_1771", "gruppe_txt": "U-Bahn"}, "geometry": {"type": "MultiLineString", "coordinates": [[[13.43362858, 52.49964841], [13.43147156, 52.49933187]]]}}, {"type": "Feature", "properties": {"id": "de_strassen_oberirdischeubahn2022.194", "importid": 194, "name": "Track_1782", "gruppe_txt": "U-Bahn"}, "geometry": {"type": "MultiLineString", "coordinates": [[[13.42973059, 52.49936849], [13.42844151, 52.49929268]]]}}, {"type": "Feature", "properties": {"id": "de_strassen_oberirdischeubahn2022.195", "importid": 195, "name": "Track_5993", "gruppe_txt": "U-Bahn"}, "geometry": {"type": "MultiLineString", "coordinates": [[[13.43488345, 52.49983198], [13.43362987, 52.49964999]]]}}, {"type": "Feature", "properties": {"id": "de_strassen_oberirdischeubahn2022.199", "importid": 199, "name": "Track_1781", "gruppe_txt": "U-Bahn"}, "geometry": {"type": "MultiLineString", "coordinates": [[[13.43147156, 52.49933187], [13.43122617, 52.4993078], [13.43099771, 52.49931059], [13.4307614, 52.49932763], [13.43026663, 52.49937909], [13.43012589, 52.49938243]]]}}, {"type": "Feature", "properties": {"id": "de_strassen_oberirdischeubahn2022.200", "importid": 200, "name": "Track_1783", "gruppe_txt": "U-Bahn"}, "geometry": {"type": "MultiLineString", "coordinates": [[[13.43012589, 52.49938243], [13.4300797, 52.49938353], [13.42989022, 52.49937688], [13.42973059, 52.49936849]]]}}, {"type": "Feature", "properties": {"id": "de_strassen_oberirdischeubahn2022.201", "importid": 201, "name": "Track_5995", "gruppe_txt": "U-Bahn"}, "geometry": {"type": "MultiLineString", "coordinates": [[[13.41748408, 52.49893284], [13.41739296, 52.49892658]]]}}, {"type": "Feature", "properties": {"id": "de_strassen_oberirdischeubahn2022.202", "importid": 202, "name": "Track_1746", "gruppe_txt": "U-Bahn"}, "geometry": {"type": "MultiLineString", "coordinates": [[[13.41446188, 52.4985438], [13.41408203, 52.49851539], [13.41384378, 52.49852182]]]}}, {"type": "Feature", "properties": {"id": "de_strassen_oberirdischeubahn2022.203", "importid": 203, "name": "Track_1773", "gruppe_txt": "U-Bahn"}, "geometry": {"type": "MultiLineString", "coordinates": [[[13.41384378, 52.49852182], [13.4127305, 52.49859694]]]}}, {"type": "Feature", "properties": {"id": "de_strassen_oberirdischeubahn2022.204", "importid": 204, "name": "Track_1774", "gruppe_txt": "U-Bahn"}, "geometry": {"type": "MultiLineString", "coordinates": [[[13.4127305, 52.49859694], [13.41247344, 52.49860915], [13.41220475, 52.49861025], [13.41169349, 52.4985808]]]}}, {"type": "Feature", "properties": {"id": "de_strassen_oberirdischeubahn2022.205", "importid": 205, "name": "Track_1775", "gruppe_txt": "U-Bahn"}, "geometry": {"type": "MultiLineString", "coordinates": [[[13.41675298, 52.4988678], [13.41611863, 52.49878521], [13.41461687, 52.49856186]]]}}, {"type": "Feature", "properties": {"id": "de_strassen_oberirdischeubahn2022.206", "importid": 206, "name": "Track_1784", "gruppe_txt": "U-Bahn"}, "geometry": {"type": "MultiLineString", "coordinates": [[[13.41461687, 52.49856186], [13.41445189, 52.49854142]]]}}, {"type": "Feature", "properties": {"id": "de_strassen_oberirdischeubahn2022.207", "importid": 207, "name": "Track_1788", "gruppe_txt": "U-Bahn"}, "geometry": {"type": "MultiLineString", "coordinates": [[[13.41739296, 52.49892658], [13.4170575, 52.49890354], [13.41675298, 52.4988678]]]}}, {"type": "Feature", "properties": {"id": "de_strassen_oberirdischeubahn2022.1028", "importid": 1028, "name": "Track_0088", "gruppe_txt": "Tram"}, "geometry": {"type": "MultiLineString", "coordinates": [[[13.47714758, 52.50065966], [13.47910948, 52.49978278], [13.4803438, 52.49921495]]]}}, {"type": "Feature", "properties": {"id": "de_strassen_oberirdischeubahn2022.1029", "importid": 1029, "name": "Track_0089", "gruppe_txt": "Tram"}, "geometry": {"type": "MultiLineString", "coordinates": [[[13.4808313, 52.49898804], [13.48109808, 52.49887009], [13.48149847, 52.49868238], [13.48418863, 52.49744674]]]}}, {"type": "Feature", "properties": {"id": "de_strassen_oberirdischeubahn2022.1030", "importid": 1030, "name": "Track_0090", "gruppe_txt": "Tram"}, "geometry": {"type": "MultiLineString", "coordinates": [[[13.48428248, 52.49740379], [13.48455796, 52.49728038], [13.48497736, 52.49708611]]]}}, {"type": "Feature", "properties": {"id": "de_strassen_oberirdischeubahn2022.1031", "importid": 1031, "name": "Track_0091", "gruppe_txt": "Tram"}, "geometry": {"type": "MultiLineString", "coordinates": [[[13.48503581, 52.49705903], [13.48568047, 52.49676041]]]}}, {"type": "Feature", "properties": {"id": "de_strassen_oberirdischeubahn2022.1032", "importid": 1032, "name": "Track_0092", "gruppe_txt": "Tram"}, "geometry": {"type": "MultiLineString", "coordinates": [[[13.48609399, 52.49656881], [13.4874197, 52.49594958], [13.48765404, 52.49583646]]]}}, {"type": "Feature", "properties": {"id": "de_strassen_oberirdischeubahn2022.1033", "importid": 1033, "name": "Track_0093", "gruppe_txt": "Tram"}, "geometry": {"type": "MultiLineString", "coordinates": [[[13.48803761, 52.49558052], [13.48826088, 52.49537551], [13.48899536, 52.49467123], [13.4896966, 52.49403998], [13.49010652, 52.49364656]]]}}, {"type": "Feature", "properties": {"id": "de_strassen_oberirdischeubahn2022.1034", "importid": 1034, "name": "Track_0094", "gruppe_txt": "Tram"}, "geometry": {"type": "MultiLineString", "coordinates": [[[13.49036628, 52.4934], [13.49073925, 52.49304399]]]}}, {"type": "Feature", "properties": {"id": "de_strassen_oberirdischeubahn2022.1035", "importid": 1035, "name": "Track_0095", "gruppe_txt": "Tram"}, "geometry": {"type": "MultiLineString", "coordinates": [[[13.49076238, 52.49302285], [13.49123362, 52.49261751], [13.49190256, 52.49197497]]]}}, {"type": "Feature", "properties": {"id": "de_strassen_oberirdischeubahn2022.1036", "importid": 1036, "name": "Track_0096", "gruppe_txt": "Tram"}, "geometry": {"type": "MultiLineString", "coordinates": [[[13.49213462, 52.49175144], [13.49298351, 52.49093513]]]}}, {"type": "Feature", "properties": {"id": "de_strassen_oberirdischeubahn2022.1037", "importid": 1037, "name": "Track_0097", "gruppe_txt": "Tram"}, "geometry": {"type": "MultiLineString", "coordinates": [[[13.4929835, 52.49093562], [13.4939256, 52.49002806]]]}}, {"type": "Feature", "properties": {"id": "de_strassen_oberirdischeubahn2022.1038", "importid": 1038, "name": "Track_0098", "gruppe_txt": "Tram"}, "geometry": {"type": "MultiLineString", "coordinates": [[[13.49415512, 52.48980739], [13.49511303, 52.48888732], [13.49530616, 52.48870588], [13.49588005, 52.48815096]]]}}, {"type": "Feature", "properties": {"id": "de_strassen_oberirdischeubahn2022.1039", "importid": 1039, "name": "Track_0099", "gruppe_txt": "Tram"}, "geometry": {"type": "MultiLineString", "coordinates": [[[13.49629136, 52.48775496], [13.49709897, 52.48697925], [13.49725442, 52.48683012], [13.49757477, 52.4865221], [13.49822249, 52.48589932]]]}}, {"type": "Feature", "properties": {"id": "de_strassen_oberirdischeubahn2022.1040", "importid": 1040, "name": "Track_0100", "gruppe_txt": "Tram"}, "geometry": {"type": "MultiLineString", "coordinates": [[[13.49849462, 52.48563717], [13.49991501, 52.48427045], [13.50093153, 52.48337982]]]}}, {"type": "Feature", "properties": {"id": "de_strassen_oberirdischeubahn2022.1750", "importid": 1750, "name": "Track_0117", "gruppe_txt": "Tram"}, "geometry": {"type": "MultiLineString", "coordinates": [[[13.48057473, 52.49910764], [13.4808313, 52.49898804]]]}}, {"type": "Feature", "properties": {"id": "de_strassen_oberirdischeubahn2022.1751", "importid": 1751, "name": "Track_0118", "gruppe_txt": "Tram"}, "geometry": {"type": "MultiLineString", "coordinates": [[[13.4803438, 52.49921495], [13.48057524, 52.49910733]]]}}, {"type": "Feature", "properties": {"id": "de_strassen_oberirdischeubahn2022.1752", "importid": 1752, "name": "Track_0119", "gruppe_txt": "Tram"}, "geometry": {"type": "MultiLineString", "coordinates": [[[13.48418863, 52.49744674], [13.48421987, 52.49743235]]]}}, {"type": "Feature", "properties": {"id": "de_strassen_oberirdischeubahn2022.1753", "importid": 1753, "name": "Track_0120", "gruppe_txt": "Tram"}, "geometry": {"type": "MultiLineString", "coordinates": [[[13.48568047, 52.49676041], [13.4857307, 52.49673714]]]}}, {"type": "Feature", "properties": {"id": "de_strassen_oberirdischeubahn2022.1754", "importid": 1754, "name": "Track_0121", "gruppe_txt": "Tram"}, "geometry": {"type": "MultiLineString", "coordinates": [[[13.48606911, 52.49658037], [13.48609399, 52.49656881]]]}}, {"type": "Feature", "properties": {"id": "de_strassen_oberirdischeubahn2022.1755", "importid": 1755, "name": "Track_0122", "gruppe_txt": "Tram"}, "geometry": {"type": "MultiLineString", "coordinates": [[[13.49010652, 52.49364656], [13.49012564, 52.49362858]]]}}, {"type": "Feature", "properties": {"id": "de_strassen_oberirdischeubahn2022.1756", "importid": 1756, "name": "Track_0123", "gruppe_txt": "Tram"}, "geometry": {"type": "MultiLineString", "coordinates": [[[13.49190256, 52.49197497], [13.49194202, 52.49193706]]]}}, {"type": "Feature", "properties": {"id": "de_strassen_oberirdischeubahn2022.1757", "importid": 1757, "name": "Track_0124", "gruppe_txt": "Tram"}, "geometry": {"type": "MultiLineString", "coordinates": [[[13.4939256, 52.49002806], [13.49394596, 52.49000845]]]}}, {"type": "Feature", "properties": {"id": "de_strassen_oberirdischeubahn2022.1758", "importid": 1758, "name": "Track_0125", "gruppe_txt": "Tram"}, "geometry": {"type": "MultiLineString", "coordinates": [[[13.49588005, 52.48815096], [13.4958959, 52.4881357]]]}}, {"type": "Feature", "properties": {"id": "de_strassen_oberirdischeubahn2022.1759", "importid": 1759, "name": "Track_0126", "gruppe_txt": "Tram"}, "geometry": {"type": "MultiLineString", "coordinates": [[[13.49822249, 52.48589932], [13.49824433, 52.48587832]]]}}, {"type": "Feature", "properties": {"id": "de_strassen_oberirdischeubahn2022.2241", "importid": 2241, "name": "Track_2119", "gruppe_txt": "Tram"}, "geometry": {"type": "MultiLineString", "coordinates": [[[13.48427793, 52.49740583], [13.48428248, 52.49740379]]]}}, {"type": "Feature", "properties": {"id": "de_strassen_oberirdischeubahn2022.2242", "importid": 2242, "name": "Track_2120", "gruppe_txt": "Tram"}, "geometry": {"type": "MultiLineString", "coordinates": [[[13.48497736, 52.49708611], [13.48503581, 52.49705903]]]}}, {"type": "Feature", "properties": {"id": "de_strassen_oberirdischeubahn2022.2243", "importid": 2243, "name": "Track_2121", "gruppe_txt": "Tram"}, "geometry": {"type": "MultiLineString", "coordinates": [[[13.49036198, 52.4934041], [13.49036628, 52.4934]]]}}, {"type": "Feature", "properties": {"id": "de_strassen_oberirdischeubahn2022.2244", "importid": 2244, "name": "Track_2122", "gruppe_txt": "Tram"}, "geometry": {"type": "MultiLineString", "coordinates": [[[13.49073925, 52.49304399], [13.49076238, 52.49302285]]]}}, {"type": "Feature", "properties": {"id": "de_strassen_oberirdischeubahn2022.2245", "importid": 2245, "name": "Track_2123", "gruppe_txt": "Tram"}, "geometry": {"type": "MultiLineString", "coordinates": [[[13.49212714, 52.49175868], [13.49213462, 52.49175144]]]}}, {"type": "Feature", "properties": {"id": "de_strassen_oberirdischeubahn2022.2246", "importid": 2246, "name": "Track_2124", "gruppe_txt": "Tram"}, "geometry": {"type": "MultiLineString", "coordinates": [[[13.49415203, 52.48981033], [13.49415512, 52.48980739]]]}}, {"type": "Feature", "properties": {"id": "de_strassen_oberirdischeubahn2022.2247", "importid": 2247, "name": "Track_2126", "gruppe_txt": "Tram"}, "geometry": {"type": "MultiLineString", "coordinates": [[[13.498491, 52.48564066], [13.49849462, 52.48563717]]]}}, {"type": "Feature", "properties": {"id": "de_strassen_oberirdischeubahn2022.2304", "importid": 2304, "name": "Track_2200", "gruppe_txt": "Tram"}, "geometry": {"type": "MultiLineString", "coordinates": [[[13.48421987, 52.49743235], [13.48427793, 52.49740583]]]}}, {"type": "Feature", "properties": {"id": "de_strassen_oberirdischeubahn2022.2305", "importid": 2305, "name": "Track_2201", "gruppe_txt": "Tram"}, "geometry": {"type": "MultiLineString", "coordinates": [[[13.4857307, 52.49673714], [13.48606911, 52.49658037]]]}}, {"type": "Feature", "properties": {"id": "de_strassen_oberirdischeubahn2022.2306", "importid": 2306, "name": "Track_2202", "gruppe_txt": "Tram"}, "geometry": {"type": "MultiLineString", "coordinates": [[[13.49012564, 52.49362858], [13.49036198, 52.4934041]]]}}, {"type": "Feature", "properties": {"id": "de_strassen_oberirdischeubahn2022.2307", "importid": 2307, "name": "Track_2203", "gruppe_txt": "Tram"}, "geometry": {"type": "MultiLineString", "coordinates": [[[13.49194202, 52.49193706], [13.49212714, 52.49175868]]]}}, {"type": "Feature", "properties": {"id": "de_strassen_oberirdischeubahn2022.2308", "importid": 2308, "name": "Track_2204", "gruppe_txt": "Tram"}, "geometry": {"type": "MultiLineString", "coordinates": [[[13.49394596, 52.49000845], [13.49415203, 52.48981033]]]}}, {"type": "Feature", "properties": {"id": "de_strassen_oberirdischeubahn2022.2309", "importid": 2309, "name": "Track_2205", "gruppe_txt": "Tram"}, "geometry": {"type": "MultiLineString", "coordinates": [[[13.4958959, 52.4881357], [13.49629078, 52.48775552]]]}}, {"type": "Feature", "properties": {"id": "de_strassen_oberirdischeubahn2022.2310", "importid": 2310, "name": "Track_2206", "gruppe_txt": "Tram"}, "geometry": {"type": "MultiLineString", "coordinates": [[[13.49828434, 52.48583985], [13.49830885, 52.48581628]]]}}, {"type": "Feature", "properties": {"id": "de_strassen_oberirdischeubahn2022.2311", "importid": 2311, "name": "Track_2207", "gruppe_txt": "Tram"}, "geometry": {"type": "MultiLineString", "coordinates": [[[13.49824433, 52.48587832], [13.49828429, 52.48583989]]]}}, {"type": "Feature", "properties": {"id": "de_strassen_oberirdischeubahn2022.2312", "importid": 2312, "name": "Track_2208", "gruppe_txt": "Tram"}, "geometry": {"type": "MultiLineString", "coordinates": [[[13.49830885, 52.48581628], [13.498491, 52.48564066]]]}}, {"type": "Feature", "properties": {"id": "de_strassen_oberirdischeubahn2022.4608", "importid": 4608, "name": "Track_0108", "gruppe_txt": "Tram"}, "geometry": {"type": "MultiLineString", "coordinates": [[[13.48765601, 52.49583646], [13.48775877, 52.49578801], [13.48782534, 52.49575039], [13.48789912, 52.49569885], [13.48796022, 52.49565022], [13.48803761, 52.49558052]]]}}]}