{"type": "FeatureCollection", "features": [{"type": "Feature", "properties": {"id": "df_laermschutzeinrichtung2022.86", "importid": 86, "typ": "Lärmschutzeinrichtung"}, "geometry": {"type": "MultiLineString", "coordinates": [[[13.40396507, 52.46522594], [13.40433707, 52.46518971], [13.40479967, 52.46516083], [13.40479509, 52.46510618], [13.40516255, 52.46509537], [13.40547993, 52.46509362], [13.40574883, 52.4651077], [13.40590814, 52.46511626], [13.40606521, 52.46513111], [13.40640193, 52.46514666], [13.40679354, 52.46516051], [13.40699139, 52.46516977], [13.40755291, 52.46522248], [13.40797221, 52.46526055]]]}}, {"type": "Feature", "properties": {"id": "df_laermschutzeinrichtung2022.419", "importid": 419, "typ": "Lärmschutzeinrichtung"}, "geometry": {"type": "MultiLineString", "coordinates": [[[13.44132843, 52.46301241], [13.44130505, 52.46300995], [13.44120094, 52.46300832]]]}}, {"type": "Feature", "properties": {"id": "df_laermschutzeinrichtung2022.420", "importid": 420, "typ": "Lärmschutzeinrichtung"}, "geometry": {"type": "MultiLineString", "coordinates": [[[13.4411998, 52.46301087], [13.44122294, 52.46258116]]]}}, {"type": "Feature", "properties": {"id": "df_laermschutzeinrichtung2022.421", "importid": 421, "typ": "Lärmschutzeinrichtung"}, "geometry": {"type": "MultiLineString", "coordinates": [[[13.44122897, 52.46258505], [13.44130715, 52.46257208], [13.4413387, 52.4625691]]]}}, {"type": "Feature", "properties": {"id": "df_laermschutzeinrichtung2022.422", "importid": 422, "typ": "Lärmschutzeinrichtung"}, "geometry": {"type": "MultiLineString", "coordinates": [[[13.44168854, 52.46281841], [13.44166132, 52.46281864], [13.44121067, 52.46280702]]]}}, {"type": "Feature", "properties": {"id": "df_laermschutzeinrichtung2022.424", "importid": 424, "typ": "Lärmschutzeinrichtung"}, "geometry": {"type": "MultiLineString", "coordinates": [[[13.44875691, 52.46348519], [13.44885836, 52.4635025], [13.44900216, 52.46352725], [13.4491042, 52.46354475], [13.44921491, 52.46356406], [13.4492846, 52.46357593], [13.44949765, 52.46361292], [13.44979832, 52.46366549], [13.44993889, 52.46368952], [13.45022163, 52.46373838], [13.45043408, 52.46377554], [13.45053774, 52.46379322], [13.45071713, 52.46382224], [13.45088799, 52.46384892]]]}}, {"type": "Feature", "properties": {"id": "df_laermschutzeinrichtung2022.425", "importid": 425, "typ": "Lärmschutzeinrichtung"}, "geometry": {"type": "MultiLineString", "coordinates": [[[13.44494885, 52.46319524], [13.44498445, 52.46319808], [13.44504871, 52.46320555], [13.44522564, 52.46322406], [13.44557359, 52.46326306], [13.44579315, 52.46328973], [13.44607593, 52.46332745], [13.44628811, 52.46335743], [13.44657544, 52.46339948], [13.44707803, 52.4634742], [13.44732468, 52.46349113]]]}}, {"type": "Feature", "properties": {"id": "df_laermschutzeinrichtung2022.426", "importid": 426, "typ": "Lärmschutzeinrichtung"}, "geometry": {"type": "MultiLineString", "coordinates": [[[13.45183748, 52.46421222], [13.45172758, 52.46420774], [13.45162638, 52.46420211], [13.45152327, 52.46419477], [13.45141398, 52.46418508], [13.45132339, 52.46417524], [13.4511153, 52.46414806], [13.450904, 52.46411593], [13.45069315, 52.46408075], [13.45058831, 52.46406289], [13.45056273, 52.46405791]]]}}, {"type": "Feature", "properties": {"id": "df_laermschutzeinrichtung2022.427", "importid": 427, "typ": "Lärmschutzeinrichtung"}, "geometry": {"type": "MultiLineString", "coordinates": [[[13.45088799, 52.46384892], [13.45088636, 52.46385359], [13.45102796, 52.46387393], [13.45103019, 52.46386908], [13.45113975, 52.46388362], [13.45121122, 52.46389226], [13.45128196, 52.46390054], [13.45128359, 52.46389677], [13.45142964, 52.46390993], [13.45142904, 52.46391406], [13.4515598, 52.46392387], [13.45165085, 52.46392958], [13.45172691, 52.46393185], [13.45188846, 52.46393397]]]}}, {"type": "Feature", "properties": {"id": "df_laermschutzeinrichtung2022.428", "importid": 428, "typ": "Lärmschutzeinrichtung"}, "geometry": {"type": "MultiLineString", "coordinates": [[[13.44744434, 52.46297878], [13.44738817, 52.46296971], [13.44731745, 52.46295711], [13.44726937, 52.46295039], [13.44719746, 52.46294237], [13.44712421, 52.46293651], [13.44705067, 52.46293083], [13.44697668, 52.46292604], [13.44690447, 52.46291775], [13.44682669, 52.46290559], [13.44668936, 52.46288454], [13.44654688, 52.46286266], [13.44640321, 52.46284222], [13.44625999, 52.46282205], [13.44611809, 52.4628027], [13.44597516, 52.46278405], [13.44561324, 52.46274189], [13.44550074, 52.4627304], [13.44543985, 52.46272419]]]}}, {"type": "Feature", "properties": {"id": "df_laermschutzeinrichtung2022.429", "importid": 429, "typ": "Lärmschutzeinrichtung"}, "geometry": {"type": "MultiLineString", "coordinates": [[[13.44816283, 52.46364891], [13.44821576, 52.4636648], [13.4485132, 52.46371784], [13.44876256, 52.46376342], [13.44897368, 52.46380355], [13.4492214, 52.46385209], [13.44942942, 52.463895], [13.44969168, 52.46395156], [13.44991365, 52.46400213], [13.45038814, 52.46411669], [13.45063774, 52.46417674], [13.45076489, 52.46420496], [13.45087016, 52.46422633], [13.45100278, 52.46424863], [13.45113924, 52.46427067], [13.45123983, 52.46428269], [13.45134572, 52.46429345], [13.45144765, 52.46430196], [13.45155783, 52.46430886], [13.4517023, 52.4643124], [13.45176645, 52.46431258], [13.45183767, 52.46431161]]]}}, {"type": "Feature", "properties": {"id": "df_laermschutzeinrichtung2022.430", "importid": 430, "typ": "Lärmschutzeinrichtung"}, "geometry": {"type": "MultiLineString", "coordinates": [[[13.45183767, 52.46431161], [13.45189565, 52.46431053], [13.45194406, 52.46431015], [13.45200498, 52.46430745], [13.45209313, 52.46430372], [13.45216745, 52.46429897], [13.45226547, 52.46429058], [13.45236439, 52.46428084], [13.45244079, 52.46427197], [13.45254811, 52.46425487]]]}}, {"type": "Feature", "properties": {"id": "df_laermschutzeinrichtung2022.431", "importid": 431, "typ": "Lärmschutzeinrichtung"}, "geometry": {"type": "MultiLineString", "coordinates": [[[13.45188846, 52.46393397], [13.45196408, 52.46393391], [13.45205148, 52.46393287], [13.45211491, 52.46393017], [13.45217878, 52.46392757], [13.45226811, 52.46392123], [13.45235082, 52.46391533], [13.45242781, 52.46390709], [13.45252039, 52.46389698], [13.45261844, 52.46388311], [13.45271649, 52.46386716], [13.45283502, 52.46384487], [13.4529459, 52.46382293]]]}}, {"type": "Feature", "properties": {"id": "df_laermschutzeinrichtung2022.432", "importid": 432, "typ": "Lärmschutzeinrichtung"}, "geometry": {"type": "MultiLineString", "coordinates": [[[13.45358134, 52.46375403], [13.45354509, 52.46376944]]]}}, {"type": "Feature", "properties": {"id": "df_laermschutzeinrichtung2022.433", "importid": 433, "typ": "Lärmschutzeinrichtung"}, "geometry": {"type": "MultiLineString", "coordinates": [[[13.45328112, 52.46371597], [13.45336587, 52.46368502], [13.45339249, 52.46367434], [13.45344901, 52.46365304]]]}}, {"type": "Feature", "properties": {"id": "df_laermschutzeinrichtung2022.434", "importid": 434, "typ": "Lärmschutzeinrichtung"}, "geometry": {"type": "MultiLineString", "coordinates": [[[13.45382305, 52.46421262], [13.45386546, 52.46424179], [13.45390538, 52.46426764], [13.45395675, 52.46429944], [13.45401211, 52.46432927], [13.45406996, 52.4643591], [13.45412885, 52.46438758], [13.45419084, 52.46441436], [13.45424768, 52.46443835], [13.45431115, 52.46446253], [13.45437433, 52.464485], [13.45444046, 52.46450594], [13.4545088, 52.46452644], [13.45457377, 52.46454406], [13.45464565, 52.46456106], [13.4547143, 52.46457581], [13.45478237, 52.46458948], [13.45488178, 52.46460508]]]}}, {"type": "Feature", "properties": {"id": "df_laermschutzeinrichtung2022.435", "importid": 435, "typ": "Lärmschutzeinrichtung"}, "geometry": {"type": "MultiLineString", "coordinates": [[[13.45336755, 52.46323042], [13.45335825, 52.46327633], [13.45335293, 52.46332018], [13.45335049, 52.46334255], [13.45334849, 52.46336574], [13.45334825, 52.46338793], [13.45334887, 52.46340296]]]}}, {"type": "Feature", "properties": {"id": "df_laermschutzeinrichtung2022.436", "importid": 436, "typ": "Lärmschutzeinrichtung"}, "geometry": {"type": "MultiLineString", "coordinates": [[[13.45367334, 52.46408245], [13.45364052, 52.46404825], [13.45360961, 52.46401298], [13.45357858, 52.46397043]]]}}, {"type": "Feature", "properties": {"id": "df_laermschutzeinrichtung2022.437", "importid": 437, "typ": "Lärmschutzeinrichtung"}, "geometry": {"type": "MultiLineString", "coordinates": [[[13.45336593, 52.46356931], [13.45335564, 52.46352859], [13.45335031, 52.4635009]]]}}, {"type": "Feature", "properties": {"id": "df_laermschutzeinrichtung2022.438", "importid": 438, "typ": "Lärmschutzeinrichtung"}, "geometry": {"type": "MultiLineString", "coordinates": [[[13.4413424, 52.46256915], [13.44143141, 52.46256241], [13.4415314, 52.46255921], [13.44165349, 52.46255856], [13.44175895, 52.46255768]]]}}, {"type": "Feature", "properties": {"id": "df_laermschutzeinrichtung2022.439", "importid": 439, "typ": "Lärmschutzeinrichtung"}, "geometry": {"type": "MultiLineString", "coordinates": [[[13.44132843, 52.46301241], [13.44137079, 52.46301679], [13.44142211, 52.46302172], [13.44151346, 52.46302771], [13.44173394, 52.4630427]]]}}, {"type": "Feature", "properties": {"id": "df_laermschutzeinrichtung2022.440", "importid": 440, "typ": "Lärmschutzeinrichtung"}, "geometry": {"type": "MultiLineString", "coordinates": [[[13.44173394, 52.4630427], [13.44181955, 52.46304787], [13.44190252, 52.46305123], [13.44198078, 52.46305387], [13.44207229, 52.46305653], [13.44216512, 52.4630582], [13.44226737, 52.4630598], [13.44245466, 52.46306063], [13.44259855, 52.46306103], [13.44273964, 52.46306251], [13.44291781, 52.46306467], [13.44308288, 52.46306655], [13.44327708, 52.46306973], [13.44343053, 52.46307248], [13.44353984, 52.46307516], [13.44376845, 52.46308271], [13.44393218, 52.46308907], [13.44398572, 52.46309131], [13.44408381, 52.46310261], [13.44412618, 52.46310474], [13.44424357, 52.46310968]]]}}, {"type": "Feature", "properties": {"id": "df_laermschutzeinrichtung2022.441", "importid": 441, "typ": "Lärmschutzeinrichtung"}, "geometry": {"type": "MultiLineString", "coordinates": [[[13.44175891, 52.46255881], [13.44191062, 52.46255742], [13.4420696, 52.46255952], [13.4422304, 52.46256276], [13.44239123, 52.46256488], [13.44258916, 52.4625641], [13.44275423, 52.46257489], [13.4429774, 52.46257928], [13.44308495, 52.46258133], [13.44318455, 52.46258149], [13.44329697, 52.46257923], [13.44345986, 52.46257355], [13.44356948, 52.46257184], [13.44370336, 52.46257303], [13.44383988, 52.46257693], [13.44395933, 52.4625817], [13.44411055, 52.46258885], [13.44423367, 52.46259524], [13.44430064, 52.46260159], [13.44434429, 52.46260044], [13.44444726, 52.46260635], [13.44450417, 52.46261246], [13.44451785, 52.46261437]]]}}, {"type": "Feature", "properties": {"id": "df_laermschutzeinrichtung2022.442", "importid": 442, "typ": "Lärmschutzeinrichtung"}, "geometry": {"type": "MultiLineString", "coordinates": [[[13.45413864, 52.46240909], [13.45417181, 52.4623917], [13.45422311, 52.4623668], [13.45425908, 52.46235004], [13.45432777, 52.4623159], [13.45440368, 52.46228034], [13.45446029, 52.46225166]]]}}, {"type": "Feature", "properties": {"id": "df_laermschutzeinrichtung2022.443", "importid": 443, "typ": "Lärmschutzeinrichtung"}, "geometry": {"type": "MultiLineString", "coordinates": [[[13.45446029, 52.46225166], [13.45451203, 52.46222649], [13.45458118, 52.46218866], [13.45466169, 52.46214412], [13.45472613, 52.46210575], [13.4548158, 52.46204998], [13.45488439, 52.46200461], [13.45496081, 52.46195071], [13.45508946, 52.46185923], [13.4551867, 52.46178622], [13.4552354, 52.46174864], [13.45533356, 52.46166547], [13.4553966, 52.4616094]]]}}, {"type": "Feature", "properties": {"id": "df_laermschutzeinrichtung2022.444", "importid": 444, "typ": "Lärmschutzeinrichtung"}, "geometry": {"type": "MultiLineString", "coordinates": [[[13.4553966, 52.4616094], [13.45547015, 52.46153761], [13.45550974, 52.46149606], [13.45553678, 52.46146599], [13.45556961, 52.46138224]]]}}, {"type": "Feature", "properties": {"id": "df_laermschutzeinrichtung2022.446", "importid": 446, "typ": "Lärmschutzeinrichtung"}, "geometry": {"type": "MultiLineString", "coordinates": [[[13.45780239, 52.45868854], [13.4578743, 52.45865715], [13.45790342, 52.45862169], [13.45796639, 52.45854315], [13.45805418, 52.45843669], [13.45811818, 52.45835985], [13.45818232, 52.45828248], [13.45828504, 52.45815942], [13.45834711, 52.45808294], [13.45844466, 52.45796535], [13.45853276, 52.45785494], [13.45863342, 52.45772999], [13.45876468, 52.45756635], [13.45886697, 52.45743565], [13.45897297, 52.45729821], [13.45907853, 52.45716186], [13.45918188, 52.45702558], [13.4593166, 52.45684038], [13.45943109, 52.45667276], [13.45954001, 52.45650342], [13.45962956, 52.45635716], [13.45970183, 52.45623109], [13.45978819, 52.45607268], [13.45983975, 52.45597633], [13.45987737, 52.45590709], [13.45996432, 52.45574896], [13.46004993, 52.45559415], [13.46013238, 52.45545875], [13.46029547, 52.45519827], [13.46043563, 52.45497219]]]}}, {"type": "Feature", "properties": {"id": "df_laermschutzeinrichtung2022.447", "importid": 447, "typ": "Lärmschutzeinrichtung"}, "geometry": {"type": "MultiLineString", "coordinates": [[[13.46079399, 52.45438047], [13.46068534, 52.45456059], [13.4605644, 52.45476163], [13.46043563, 52.45497219]]]}}, {"type": "Feature", "properties": {"id": "df_laermschutzeinrichtung2022.448", "importid": 448, "typ": "Lärmschutzeinrichtung"}, "geometry": {"type": "MultiLineString", "coordinates": [[[13.46136561, 52.4547393], [13.46135612, 52.45475932], [13.46128003, 52.45488683], [13.46115154, 52.45510089], [13.46103667, 52.45529251], [13.46093823, 52.45545691]]]}}, {"type": "Feature", "properties": {"id": "df_laermschutzeinrichtung2022.449", "importid": 449, "typ": "Lärmschutzeinrichtung"}, "geometry": {"type": "MultiLineString", "coordinates": [[[13.46093823, 52.45545691], [13.46083034, 52.45563065], [13.46073831, 52.45577153], [13.46066777, 52.45586992], [13.46059414, 52.45596912], [13.46046939, 52.45612567], [13.46034615, 52.45627342], [13.46021774, 52.45642539], [13.46014369, 52.45651758], [13.4600634, 52.45662485], [13.45992216, 52.4568247], [13.459808, 52.45698135], [13.45969903, 52.45712786]]]}}, {"type": "Feature", "properties": {"id": "df_laermschutzeinrichtung2022.450", "importid": 450, "typ": "Lärmschutzeinrichtung"}, "geometry": {"type": "MultiLineString", "coordinates": [[[13.45947476, 52.45741701], [13.45952649, 52.45735552], [13.45955768, 52.45731576], [13.4596217, 52.45723083], [13.45969903, 52.45712786]]]}}, {"type": "Feature", "properties": {"id": "df_laermschutzeinrichtung2022.451", "importid": 451, "typ": "Lärmschutzeinrichtung"}, "geometry": {"type": "MultiLineString", "coordinates": [[[13.46098965, 52.45406279], [13.46114224, 52.45381425], [13.46124897, 52.45363664], [13.46134355, 52.45347915], [13.46141371, 52.45336332]]]}}, {"type": "Feature", "properties": {"id": "df_laermschutzeinrichtung2022.452", "importid": 452, "typ": "Lärmschutzeinrichtung"}, "geometry": {"type": "MultiLineString", "coordinates": [[[13.46141371, 52.45336332], [13.46148624, 52.45324201], [13.46156262, 52.4531163], [13.46162034, 52.45302095], [13.46171241, 52.45286695], [13.46177486, 52.45276729], [13.46182191, 52.45269285], [13.46189479, 52.45257691], [13.46196335, 52.45247924], [13.4620505, 52.45237684], [13.462143, 52.4522632], [13.46222899, 52.45216204], [13.46233358, 52.45203287], [13.46239873, 52.45196443], [13.46253208, 52.4518251], [13.46263206, 52.45171695], [13.46275863, 52.45157873], [13.46290308, 52.45141968], [13.46312013, 52.45119531], [13.46321905, 52.45109624], [13.46333493, 52.45098568], [13.46351012, 52.45082398], [13.46365887, 52.45069244], [13.46375123, 52.45061555], [13.46388236, 52.45051634], [13.46413579, 52.45031862], [13.46425171, 52.45023305], [13.46446011, 52.45007876]]]}}, {"type": "Feature", "properties": {"id": "df_laermschutzeinrichtung2022.453", "importid": 453, "typ": "Lärmschutzeinrichtung"}, "geometry": {"type": "MultiLineString", "coordinates": [[[13.46476544, 52.45032784], [13.46455261, 52.45048482], [13.46439743, 52.45060728], [13.46425462, 52.45072166], [13.46410929, 52.45084278], [13.46398962, 52.45094623], [13.46392306, 52.4510068], [13.46385795, 52.45107375], [13.46378294, 52.45115309], [13.46368963, 52.45124571], [13.46348147, 52.45145238], [13.46339392, 52.45153961], [13.46330072, 52.45164427], [13.46321415, 52.45174561], [13.4631045, 52.45188304], [13.46301195, 52.45200981], [13.46294908, 52.45210354], [13.46284933, 52.45226786], [13.46278833, 52.4523758], [13.46273958, 52.45247144], [13.46265528, 52.45263488], [13.46257491, 52.4527675], [13.46246868, 52.45293226], [13.4623759, 52.45308095], [13.46225883, 52.45327256], [13.46215952, 52.45343661], [13.46207131, 52.45358216], [13.4620192, 52.45367007], [13.46200258, 52.45370851]]]}}, {"type": "Feature", "properties": {"id": "df_laermschutzeinrichtung2022.454", "importid": 454, "typ": "Lärmschutzeinrichtung"}, "geometry": {"type": "MultiLineString", "coordinates": [[[13.4617266, 52.45422648], [13.4618194, 52.45407374], [13.4618718, 52.4539888], [13.46192286, 52.4539044], [13.46194582, 52.45386174], [13.46196246, 52.45381845], [13.4619788, 52.45377417], [13.46199264, 52.45373096], [13.46200258, 52.45370851]]]}}, {"type": "Feature", "properties": {"id": "df_laermschutzeinrichtung2022.455", "importid": 455, "typ": "Lärmschutzeinrichtung"}, "geometry": {"type": "MultiLineString", "coordinates": [[[13.46446011, 52.45007876], [13.46464843, 52.44994638], [13.46484748, 52.44981365], [13.46502632, 52.44969913], [13.46521929, 52.44958005], [13.46546737, 52.44943301], [13.46569494, 52.44930472], [13.46589404, 52.44919742], [13.46610006, 52.44908932], [13.46638431, 52.44894322], [13.46660917, 52.44883164], [13.46681279, 52.44873207], [13.46711264, 52.44858591], [13.46736459, 52.44846394], [13.46760887, 52.44834546], [13.46781456, 52.44824634], [13.46805457, 52.44813029], [13.46831507, 52.44800204], [13.46855213, 52.44788768], [13.46889262, 52.44772224], [13.46924254, 52.44755268], [13.46952837, 52.44741404], [13.46984881, 52.44725863], [13.47018974, 52.44709283]]]}}, {"type": "Feature", "properties": {"id": "df_laermschutzeinrichtung2022.456", "importid": 456, "typ": "Lärmschutzeinrichtung"}, "geometry": {"type": "MultiLineString", "coordinates": [[[13.47016774, 52.44748947], [13.46983801, 52.44765044], [13.46950872, 52.44780844], [13.4691834, 52.44796824], [13.46885706, 52.44812633], [13.46846676, 52.44831552], [13.46801281, 52.44853661], [13.46754987, 52.44876066], [13.46713378, 52.44896373], [13.46674596, 52.44915472], [13.46645435, 52.44930224], [13.4662193, 52.44942603], [13.46590759, 52.44959546], [13.46567824, 52.44972959], [13.46544253, 52.44987144], [13.46515341, 52.45005859], [13.4648995, 52.45023079], [13.46476544, 52.45032784]]]}}, {"type": "Feature", "properties": {"id": "df_laermschutzeinrichtung2022.499", "importid": 499, "typ": "Lärmschutzeinrichtung"}, "geometry": {"type": "MultiLineString", "coordinates": [[[13.48641844, 52.49863136], [13.48610039, 52.49876892], [13.48569475, 52.49894027], [13.48551249, 52.49902219], [13.48549534, 52.49904571]]]}}, {"type": "Feature", "properties": {"id": "df_laermschutzeinrichtung2022.500", "importid": 500, "typ": "Lärmschutzeinrichtung"}, "geometry": {"type": "MultiLineString", "coordinates": [[[13.48809719, 52.49779911], [13.48855847, 52.49762548], [13.48899763, 52.497461], [13.48954248, 52.49725836], [13.490049, 52.49706851], [13.49064544, 52.4968449], [13.49088173, 52.49676024], [13.4908879, 52.49676582], [13.49091339, 52.49676019]]]}}, {"type": "Feature", "properties": {"id": "df_laermschutzeinrichtung2022.502", "importid": 502, "typ": "Lärmschutzeinrichtung"}, "geometry": {"type": "MultiLineString", "coordinates": [[[13.46192353, 52.4862954], [13.46243292, 52.48596513]]]}}, {"type": "Feature", "properties": {"id": "df_laermschutzeinrichtung2022.503", "importid": 503, "typ": "Lärmschutzeinrichtung"}, "geometry": {"type": "MultiLineString", "coordinates": [[[13.45711689, 52.47825159], [13.45712947, 52.47830885]]]}}, {"type": "Feature", "properties": {"id": "df_laermschutzeinrichtung2022.504", "importid": 504, "typ": "Lärmschutzeinrichtung"}, "geometry": {"type": "MultiLineString", "coordinates": [[[13.45754616, 52.47811282], [13.45754665, 52.47806141]]]}}, {"type": "Feature", "properties": {"id": "df_laermschutzeinrichtung2022.505", "importid": 505, "typ": "Lärmschutzeinrichtung"}, "geometry": {"type": "MultiLineString", "coordinates": [[[13.45767271, 52.47873299], [13.45765836, 52.47863861]]]}}, {"type": "Feature", "properties": {"id": "df_laermschutzeinrichtung2022.506", "importid": 506, "typ": "Lärmschutzeinrichtung"}, "geometry": {"type": "MultiLineString", "coordinates": [[[13.45724784, 52.47891391], [13.45723254, 52.47883579]]]}}, {"type": "Feature", "properties": {"id": "df_laermschutzeinrichtung2022.507", "importid": 507, "typ": "Lärmschutzeinrichtung"}, "geometry": {"type": "MultiLineString", "coordinates": [[[13.45681194, 52.47706769], [13.45685927, 52.47729774], [13.45697678, 52.477908], [13.45702241, 52.47821281]]]}}, {"type": "Feature", "properties": {"id": "df_laermschutzeinrichtung2022.508", "importid": 508, "typ": "Lärmschutzeinrichtung"}, "geometry": {"type": "MultiLineString", "coordinates": [[[13.45600195, 52.47365708], [13.45596908, 52.47359377]]]}}, {"type": "Feature", "properties": {"id": "df_laermschutzeinrichtung2022.509", "importid": 509, "typ": "Lärmschutzeinrichtung"}, "geometry": {"type": "MultiLineString", "coordinates": [[[13.45619857, 52.47403669], [13.45616201, 52.47393904]]]}}, {"type": "Feature", "properties": {"id": "df_laermschutzeinrichtung2022.510", "importid": 510, "typ": "Lärmschutzeinrichtung"}, "geometry": {"type": "MultiLineString", "coordinates": [[[13.47029685, 52.47018371], [13.46982897, 52.470121], [13.46907707, 52.47002348], [13.46843933, 52.46993447], [13.46768084, 52.46982948], [13.46699894, 52.46974517]]]}}, {"type": "Feature", "properties": {"id": "df_laermschutzeinrichtung2022.562", "importid": 562, "typ": "Lärmschutzeinrichtung"}, "geometry": {"type": "MultiLineString", "coordinates": [[[13.45188205, 52.46376699], [13.45156, 52.46376193], [13.45144274, 52.46376077], [13.45118159, 52.46375769], [13.451107, 52.46375614], [13.45107169, 52.46375537]]]}}, {"type": "Feature", "properties": {"id": "df_laermschutzeinrichtung2022.564", "importid": 564, "typ": "Lärmschutzeinrichtung"}, "geometry": {"type": "MultiLineString", "coordinates": [[[13.43424822, 52.46237018], [13.43388071, 52.4623328], [13.43351228, 52.46230272], [13.43318075, 52.46228142], [13.4329682, 52.46227074], [13.43277897, 52.46226057]]]}}, {"type": "Feature", "properties": {"id": "df_laermschutzeinrichtung2022.565", "importid": 565, "typ": "Lärmschutzeinrichtung"}, "geometry": {"type": "MultiLineString", "coordinates": [[[13.43415744, 52.46227312], [13.43389918, 52.46224728], [13.43353606, 52.46221532], [13.43320452, 52.46219546], [13.4329771, 52.46218583], [13.43279871, 52.46217898]]]}}, {"type": "Feature", "properties": {"id": "df_laermschutzeinrichtung2022.566", "importid": 566, "typ": "Lärmschutzeinrichtung"}, "geometry": {"type": "MultiLineString", "coordinates": [[[13.43230839, 52.46186717], [13.43285482, 52.46188979], [13.43348391, 52.46192712], [13.43403367, 52.46197304], [13.43441106, 52.46201047]]]}}, {"type": "Feature", "properties": {"id": "df_laermschutzeinrichtung2022.567", "importid": 567, "typ": "Lärmschutzeinrichtung"}, "geometry": {"type": "MultiLineString", "coordinates": [[[13.46093734, 52.45437789], [13.46039587, 52.45528028]]]}}, {"type": "Feature", "properties": {"id": "df_laermschutzeinrichtung2022.568", "importid": 568, "typ": "Lärmschutzeinrichtung"}, "geometry": {"type": "MultiLineString", "coordinates": [[[13.46136205, 52.45446791], [13.46081922, 52.45536793]]]}}, {"type": "Feature", "properties": {"id": "df_laermschutzeinrichtung2022.569", "importid": 569, "typ": "Lärmschutzeinrichtung"}, "geometry": {"type": "MultiLineString", "coordinates": [[[13.46111036, 52.45415783], [13.46172639, 52.45314064]]]}}, {"type": "Feature", "properties": {"id": "df_laermschutzeinrichtung2022.570", "importid": 570, "typ": "Lärmschutzeinrichtung"}, "geometry": {"type": "MultiLineString", "coordinates": [[[13.46152836, 52.45422181], [13.4621367, 52.45319743]]]}}, {"type": "Feature", "properties": {"id": "df_laermschutzeinrichtung2022.576", "importid": 576, "typ": "Lärmschutzeinrichtung"}, "geometry": {"type": "MultiLineString", "coordinates": [[[13.4119807, 52.46085133], [13.41299393, 52.46072238], [13.4135577, 52.46066246], [13.41408874, 52.46061579], [13.41455706, 52.4605796], [13.41509021, 52.46055405], [13.41551063, 52.46053368], [13.41580538, 52.4605209], [13.41625177, 52.4605164], [13.4165932, 52.46052281]]]}}, {"type": "Feature", "properties": {"id": "df_laermschutzeinrichtung2022.579", "importid": 579, "typ": "Lärmschutzeinrichtung"}, "geometry": {"type": "MultiLineString", "coordinates": [[[13.43230832, 52.46178384], [13.43279003, 52.46180134], [13.4331159, 52.46180359], [13.4335266, 52.46182151], [13.43403623, 52.46185973], [13.43437507, 52.46189377]]]}}, {"type": "Feature", "properties": {"id": "df_laermschutzeinrichtung2022.604", "importid": 604, "typ": "Lärmschutzeinrichtung"}, "geometry": {"type": "MultiLineString", "coordinates": [[[13.41204642, 52.46116785], [13.41302265, 52.46105071], [13.41375987, 52.46096199], [13.41428885, 52.46091792], [13.41468991, 52.46088692], [13.41518408, 52.46085868], [13.4156479, 52.460841], [13.41610304, 52.46082321], [13.41662702, 52.46080005]]]}}, {"type": "Feature", "properties": {"id": "df_laermschutzeinrichtung2022.606", "importid": 606, "typ": "Lärmschutzeinrichtung"}, "geometry": {"type": "MultiLineString", "coordinates": [[[13.41195906, 52.46102308], [13.41310159, 52.46088137], [13.41348309, 52.46084763], [13.41395573, 52.46080085], [13.41462336, 52.46074382], [13.41509079, 52.46070763], [13.41553725, 52.46068983], [13.416118, 52.46067765], [13.41652506, 52.46066215]]]}}]}