{"type": "FeatureCollection", "features": [{"type": "Feature", "properties": {"id": 1606, "strasse": "Karl-Marx-Straße (Neukölln)", "ortsteil": "Neukölln"}, "geometry": {"type": "Point", "coordinates": [13.43261, 52.48255004]}}, {"type": "Feature", "properties": {"id": 1617, "strasse": "Gitschiner Straße (Kreuzberg)", "ortsteil": "Kreuzberg"}, "geometry": {"type": "Point", "coordinates": [13.408153, 52.49844004]}}, {"type": "Feature", "properties": {"id": 1620, "strasse": "Skalitzer Straße (Kreuzberg)", "ortsteil": "Kreuzberg"}, "geometry": {"type": "Point", "coordinates": [13.427461, 52.49914204]}}, {"type": "Feature", "properties": {"id": 1624, "strasse": "Elsenstraße (Alt-Treptow)", "ortsteil": "Alt-Treptow"}, "geometry": {"type": "Point", "coordinates": [13.458296, 52.49208204]}}, {"type": "Feature", "properties": {"id": 1628, "strasse": "Sonnenallee (Neukölln)", "ortsteil": "Neukölln"}, "geometry": {"type": "Point", "coordinates": [13.429488, 52.48647004]}}, {"type": "Feature", "properties": {"id": 1633, "strasse": "Puschkinallee (Alt-Treptow)", "ortsteil": "Alt-Treptow"}, "geometry": {"type": "Point", "coordinates": [13.459779, 52.49273904]}}, {"type": "Feature", "properties": {"id": 1634, "strasse": "Buschkrugallee (Britz)", "ortsteil": "Britz"}, "geometry": {"type": "Point", "coordinates": [13.445174, 52.46249904]}}, {"type": "Feature", "properties": {"id": 1637, "strasse": "Bergiusstraße (Neukölln)", "ortsteil": "Neukölln"}, "geometry": {"type": "Point", "coordinates": [13.457355, 52.46479704]}}, {"type": "Feature", "properties": {"id": 1644, "strasse": "Markgrafendamm (Friedrichshain)", "ortsteil": "Friedrichshain"}, "geometry": {"type": "Point", "coordinates": [13.465129, 52.49803104]}}, {"type": "Feature", "properties": {"id": 1649, "strasse": "Flughafenstraße (Neukölln)", "ortsteil": "Neukölln"}, "geometry": {"type": "Point", "coordinates": [13.422402, 52.48047404]}}, {"type": "Feature", "properties": {"id": 1656, "strasse": "Bergiusstraße (Neukölln)", "ortsteil": "Neukölln"}, "geometry": {"type": "Point", "coordinates": [13.456424, 52.46547504]}}, {"type": "Feature", "properties": {"id": 1662, "strasse": "Silbersteinstraße (Neukölln)", "ortsteil": "Neukölln"}, "geometry": {"type": "Point", "coordinates": [13.441794, 52.46763404]}}, {"type": "Feature", "properties": {"id": 1684, "strasse": "Kiefholzstraße", "ortsteil": "Baumschulenweg"}, "geometry": {"type": "Point", "coordinates": [13.487076, 52.46558204]}}, {"type": "Feature", "properties": {"id": 1701, "strasse": "Am Treptower Park", "ortsteil": "Alt-Treptow"}, "geometry": {"type": "Point", "coordinates": [13.457605, 52.49167404]}}, {"type": "Feature", "properties": {"id": 1718, "strasse": "\tRoseggerstraße", "ortsteil": "Neukölln"}, "geometry": {"type": "Point", "coordinates": [13.445716, 52.47953104]}}, {"type": "Feature", "properties": {"id": 1721, "strasse": "\tFlughafenstraße", "ortsteil": "Neukölln"}, "geometry": {"type": "Point", "coordinates": [13.432941, 52.48173204]}}, {"type": "Feature", "properties": {"id": 1727, "strasse": "\tNiemetzstraße", "ortsteil": "Neukölln"}, "geometry": {"type": "Point", "coordinates": [13.452407, 52.47083104]}}, {"type": "Feature", "properties": {"id": 1735, "strasse": "Eichbuschallee", "ortsteil": "Plänterwald"}, "geometry": {"type": "Point", "coordinates": [13.479857, 52.47219404]}}, {"type": "Feature", "properties": {"id": 1741, "strasse": "\tMainzer Straße", "ortsteil": "Neukölln"}, "geometry": {"type": "Point", "coordinates": [13.428739, 52.47822304]}}, {"type": "Feature", "properties": {"id": 1747, "strasse": "\tMariannenstraße", "ortsteil": "Kreuzberg"}, "geometry": {"type": "Point", "coordinates": [13.422651, 52.49966104]}}, {"type": "Feature", "properties": {"id": 1757, "strasse": "Baumschulenstraße", "ortsteil": "Baumschulenweg"}, "geometry": {"type": "Point", "coordinates": [13.4925, 52.47030004]}}, {"type": "Feature", "properties": {"id": 1758, "strasse": "Gradestraße", "ortsteil": "Britz"}, "geometry": {"type": "Point", "coordinates": [13.4331, 52.45280004]}}, {"type": "Feature", "properties": {"id": 1768, "strasse": "Baerwaldstraße", "ortsteil": "Kreuzberg"}, "geometry": {"type": "Point", "coordinates": [13.4031, 52.49390004]}}, {"type": "Feature", "properties": {"id": 1781, "strasse": "Skalitzer Straße", "ortsteil": "Kreuzberg"}, "geometry": {"type": "Point", "coordinates": [13.4161, 52.49860004]}}, {"type": "Feature", "properties": {"id": 1783, "strasse": "\tElsenbrücke", "ortsteil": "Alt-Treptow"}, "geometry": {"type": "Point", "coordinates": [13.463257, 52.49596904]}}, {"type": "Feature", "properties": {"id": 1789, "strasse": "Karl-Marx-Straße", "ortsteil": "Neukölln"}, "geometry": {"type": "Point", "coordinates": [13.435272, 52.48088004]}}, {"type": "Feature", "properties": {"id": 1791, "strasse": "Neuköllnische Allee", "ortsteil": "Neukölln"}, "geometry": {"type": "Point", "coordinates": [13.456055, 52.46913504]}}]}