{"type": "FeatureCollection", "features": [{"type": "Feature", "properties": {"id": "fgue.2", "gid": 2, "kennz": "FGUE-804", "bezirk": "Nk", "plz": "12051", "strasse": "Silbersteinstraße", "hausnr": "42", "jahr": 2002, "lage": "westlich Hertastraße", "grund": "Schulwegsicherung", "besond": null, "kosten": 10500.0, "fahrbahn": "10", "breite": "4", "fg": "k.A.", "kfz": "k.A."}, "geometry": {"type": "Point", "coordinates": [13.43447734, 52.4667283]}}, {"type": "Feature", "properties": {"id": "fgue.112", "gid": 112, "kennz": "FGUE-12181", "bezirk": "Fr-Kr", "plz": "10999", "strasse": "Reichenberger Straße", "hausnr": "42", "jahr": 2011, "lage": "Manteuffelstraße", "grund": "Schulwegsicherung, Kinderheim", "besond": "\\N", "kosten": 17000.0, "fahrbahn": "7 m", "breite": "4 m", "fg": "166", "kfz": "325"}, "geometry": {"type": "Point", "coordinates": [13.42490576, 52.49713472]}}, {"type": "Feature", "properties": {"id": "fgue.156", "gid": 156, "kennz": "FGUE-304", "bezirk": "Fr-Kr", "plz": "10999", "strasse": "Wiener Straße", "hausnr": "48", "jahr": 2002, "lage": "westlich Glogauer Str.", "grund": "Zugang zum Görlitzer Park", "besond": null, "kosten": 13000.0, "fahrbahn": "10", "breite": "4", "fg": "k.A.", "kfz": "k.A."}, "geometry": {"type": "Point", "coordinates": [13.43878876, 52.49503644]}}, {"type": "Feature", "properties": {"id": "fgue.228", "gid": 228, "kennz": "FGUE-808", "bezirk": "Nk", "plz": "12051", "strasse": "Silbersteinstraße", "hausnr": "110", "jahr": 2003, "lage": null, "grund": "Schulwegsicherung", "besond": null, "kosten": 27000.0, "fahrbahn": "10", "breite": "4", "fg": "ca. 70", "kfz": "< 900"}, "geometry": {"type": "Point", "coordinates": [13.42636676, 52.46577564]}}, {"type": "Feature", "properties": {"id": "fgue.229", "gid": 229, "kennz": "FGUE-809", "bezirk": "Nk", "plz": "12059", "strasse": "Harzer Straße", "hausnr": "39", "jahr": 2004, "lage": "westlich Brockenstraße", "grund": "Schulwegsicherung", "besond": "lange Mittelinsel, Vorbeifahren an haltendem Bus nicht möglich", "kosten": 30700.0, "fahrbahn": "2 x 4,25 Fb; 3,5 MI", "breite": "5", "fg": "ca. 100", "kfz": "< 600"}, "geometry": {"type": "Point", "coordinates": [13.45125614, 52.48387088]}}, {"type": "Feature", "properties": {"id": "fgue.230", "gid": 230, "kennz": "FGUE-810", "bezirk": "Nk", "plz": "12055", "strasse": "Saalestraße", "hausnr": "47", "jahr": 2006, "lage": "am S-Bf Sonnenallee", "grund": "ÖPNV-Umsteigpunkt", "besond": "Zugang S-Bf", "kosten": 63300.0, "fahrbahn": "2 x 3,5 Fb, 2,5 MI", "breite": "5", "fg": "> 100", "kfz": "ca. 850"}, "geometry": {"type": "Point", "coordinates": [13.45514869, 52.47288281]}}, {"type": "Feature", "properties": {"id": "fgue.231", "gid": 231, "kennz": "FGUE-811", "bezirk": "Nk", "plz": "12347", "strasse": "Hannemannstraße", "hausnr": "38", "jahr": 2006, "lage": "Pintschallee / Riesestraße", "grund": "Schulwegsicherung", "besond": null, "kosten": 13200.0, "fahrbahn": "2 x 3,5 Fb, 2,5 MI", "breite": "4", "fg": "ca. 80", "kfz": "< 600"}, "geometry": {"type": "Point", "coordinates": [13.44407378, 52.45490517]}}, {"type": "Feature", "properties": {"id": "fgue.233", "gid": 233, "kennz": "FGUE-813", "bezirk": "Nk", "plz": "12053", "strasse": "Morusstraße", "hausnr": "32", "jahr": 2007, "lage": null, "grund": "Schulwegsicherung", "besond": "T-30-Zone", "kosten": 0.0, "fahrbahn": "6 Fb + 2 x 2,5 GWV", "breite": "4", "fg": "140", "kfz": "148"}, "geometry": {"type": "Point", "coordinates": [13.43356645, 52.47584094]}}, {"type": "Feature", "properties": {"id": "fgue.235", "gid": 235, "kennz": "FGUE-815", "bezirk": "Nk", "plz": "12059", "strasse": "Treptower Straße", "hausnr": "10", "jahr": 2008, "lage": "Stuttgarter Straße", "grund": "Schulwegsicherung", "besond": null, "kosten": 0.0, "fahrbahn": "6 Fb, 2 x 2,5 GWV", "breite": "3", "fg": "175", "kfz": "492"}, "geometry": {"type": "Point", "coordinates": [13.44871061, 52.47855742]}}, {"type": "Feature", "properties": {"id": "fgue.236", "gid": 236, "kennz": "FGUE-816", "bezirk": "Nk", "plz": "12051", "strasse": "Mariendorfer Weg", "hausnr": "69/70", "jahr": 2009, "lage": null, "grund": "Schulwegsicherung", "besond": null, "kosten": 0.0, "fahrbahn": "7 Fb, 2 x 2 GWV", "breite": "4", "fg": "317", "kfz": "854"}, "geometry": {"type": "Point", "coordinates": [13.43049449, 52.46433825]}}, {"type": "Feature", "properties": {"id": "fgue.237", "gid": 237, "kennz": "FGUE-817", "bezirk": "Nk", "plz": "12053", "strasse": "Reuterstraße", "hausnr": "9", "jahr": 2009, "lage": "Sasarsteig", "grund": "Schulwegsicherung", "besond": "Tempo-30-Zone", "kosten": 0.0, "fahrbahn": "6 Fb, 2 x 2,5 GWV", "breite": "4", "fg": "169", "kfz": "336"}, "geometry": {"type": "Point", "coordinates": [13.42897528, 52.48255433]}}, {"type": "Feature", "properties": {"id": "fgue.241", "gid": 241, "kennz": "FGUE-903", "bezirk": "Tr-Koe", "plz": "12435", "strasse": "Neue Krugallee", "hausnr": "4", "jahr": 2003, "lage": "nördlich Am Plänterwald", "grund": "Schulwegsicherung", "besond": "Zugang zum Plänterwald", "kosten": 13100.0, "fahrbahn": "8 Fb;", "breite": "5", "fg": "ca. 70", "kfz": "730"}, "geometry": {"type": "Point", "coordinates": [13.48118024, 52.48261779]}}, {"type": "Feature", "properties": {"id": "fgue.247", "gid": 247, "kennz": "FGUE-910", "bezirk": "Tr-Koe", "plz": "12435", "strasse": "Karl-Kunger-Straße", "hausnr": "19", "jahr": 2006, "lage": "Bouchéstraße", "grund": "Schulwegsicherung", "besond": null, "kosten": 21000.0, "fahrbahn": "8,5 Fb, 2 x 2,0 GWV", "breite": "4", "fg": "ca. 70", "kfz": "< 600"}, "geometry": {"type": "Point", "coordinates": [13.44863887, 52.49040142]}}, {"type": "Feature", "properties": {"id": "fgue.400", "gid": 400, "kennz": "FGUE-12186", "bezirk": "Te-Sch", "plz": "12099", "strasse": "Oberlandstraße", "hausnr": "105", "jahr": 2011, "lage": "Holzmannstraße", "grund": "Sonderschule", "besond": "\\N", "kosten": 45300.0, "fahrbahn": "12 ( 7 ) m", "breite": "3 m", "fg": "47", "kfz": "817"}, "geometry": {"type": "Point", "coordinates": [13.41827649, 52.46494319]}}, {"type": "Feature", "properties": {"id": "fgue.413", "gid": 413, "kennz": "FGUE-12205", "bezirk": "Nk", "plz": "12055", "strasse": "Saalestraße", "hausnr": "72", "jahr": 2012, "lage": "Wipperstraße", "grund": "Zugang zum S-Bf Neukölln", "besond": "\\N", "kosten": 45000.0, "fahrbahn": "6,5 m", "breite": "4 m", "fg": "200", "kfz": "600"}, "geometry": {"type": "Point", "coordinates": [13.44475373, 52.47007936]}}, {"type": "Feature", "properties": {"id": "fgue.430", "gid": 430, "kennz": "FGUE-12219", "bezirk": "Nk", "plz": "12047", "strasse": "Reuterstraße", "hausnr": "56 + 57", "jahr": 2013, "lage": "Weserstraße", "grund": "Spielplatz, zentraler Kietzplatz", "besond": "2 FGÜ", "kosten": 59000.0, "fahrbahn": "6 m + 4 (4,5) m + 2 (2,5) m MI", "breite": "je 4 m", "fg": "290 / 130", "kfz": "365"}, "geometry": {"type": "Point", "coordinates": [13.42899923, 52.48830297]}}, {"type": "Feature", "properties": {"id": "fgue.432", "gid": 432, "kennz": "FGUE-12217", "bezirk": "Nk", "plz": "12359", "strasse": "Ballinstraße", "hausnr": "12", "jahr": 2013, "lage": "Woermannkehre", "grund": "Querungshilfe erforderlich", "besond": "\\N", "kosten": 47500.0, "fahrbahn": "8 m + 2 x 2 m GWV", "breite": "4 m", "fg": "130", "kfz": "300"}, "geometry": {"type": "Point", "coordinates": [13.44927704, 52.46188483]}}, {"type": "Feature", "properties": {"id": "fgue.433", "gid": 433, "kennz": "FGUE-12216", "bezirk": "Nk", "plz": "12049", "strasse": "Karlsgartenstraße", "hausnr": "12", "jahr": 2013, "lage": "Fontanestraße", "grund": "Schulwegsicherung", "besond": "FGÜ kombiniert mit markierten GWV", "kosten": 57500.0, "fahrbahn": "5,5 m + 2 x 2,75 m GWV", "breite": "4 m", "fg": "100", "kfz": "130"}, "geometry": {"type": "Point", "coordinates": [13.42137773, 52.48192633]}}, {"type": "Feature", "properties": {"id": "fgue.480", "gid": 480, "kennz": "FGUE-12231", "bezirk": "Tr-Koe", "plz": "12435", "strasse": "Kiefholzstraße", "hausnr": "402", "jahr": 2013, "lage": "\\N", "grund": "Schulwegsicherung", "besond": "\\N", "kosten": 19000.0, "fahrbahn": "6 m Fb + 2 x 2 m Rf-Streifen", "breite": "4", "fg": "110", "kfz": "770"}, "geometry": {"type": "Point", "coordinates": [13.45646973, 52.48721009]}}, {"type": "Feature", "properties": {"id": "fgue.515", "gid": 515, "kennz": "FGUE-12245", "bezirk": "Nk", "plz": "12059", "strasse": "Treptower Straße", "hausnr": "69", "jahr": 2014, "lage": "Harzer Straße", "grund": "Zugang Spielplatz", "besond": "\\N", "kosten": 31700.0, "fahrbahn": "6 m", "breite": "4 m", "fg": "200", "kfz": "440"}, "geometry": {"type": "Point", "coordinates": [13.45409641, 52.48263889]}}, {"type": "Feature", "properties": {"id": "fgue.521", "gid": 521, "kennz": "FGUE-12260", "bezirk": "Tr-Koe", "plz": "12437", "strasse": "Kiefholzstraße", "hausnr": "249", "jahr": 2014, "lage": "Marientaler Straße", "grund": "Schulwegsicherung", "besond": "\\N", "kosten": 23800.0, "fahrbahn": "4 m + 3 m MI + 4 m", "breite": "4 m", "fg": "140", "kfz": "480"}, "geometry": {"type": "Point", "coordinates": [13.48900314, 52.4642311]}}, {"type": "Feature", "properties": {"id": "fgue.549", "gid": 549, "kennz": "FGUE-12285", "bezirk": "Fr-Kr", "plz": "10967", "strasse": "Graefestraße", "hausnr": "37", "jahr": 2015, "lage": "\\N", "grund": "Seniorenheim, Kitas", "besond": "\\N", "kosten": 41000.0, "fahrbahn": "5,5 m", "breite": "4 m", "fg": "60", "kfz": "250"}, "geometry": {"type": "Point", "coordinates": [13.41511628, 52.48964775]}}, {"type": "Feature", "properties": {"id": "fgue.551", "gid": 551, "kennz": "FGUE-12287", "bezirk": "Fr-Kr", "plz": "10961", "strasse": "Geibelstraße", "hausnr": "12", "jahr": 2015, "lage": "Wilmsstraße", "grund": "Schulwegsicherung", "besond": "\\N", "kosten": 94500.0, "fahrbahn": "6,5 m", "breite": "4 m", "fg": "ca. 100", "kfz": "ca. 350"}, "geometry": {"type": "Point", "coordinates": [13.40656285, 52.4945426]}}, {"type": "Feature", "properties": {"id": "fgue.554", "gid": 554, "kennz": "FGUE-12290", "bezirk": "Nk", "plz": "12051", "strasse": "Thomasstraße", "hausnr": "32", "jahr": 2015, "lage": "Selkestraße", "grund": "Schulwegsicherung", "besond": "\\N", "kosten": 72500.0, "fahrbahn": "3,5 m", "breite": "6 m", "fg": "ca. 90", "kfz": "ca. 300"}, "geometry": {"type": "Point", "coordinates": [13.43593448, 52.47276807]}}, {"type": "Feature", "properties": {"id": "fgue.1494816", "gid": 1494816, "kennz": "FGUE-12300", "bezirk": "Fr-Kr", "plz": "10997", "strasse": "Schlesische Straße", "hausnr": "26", "jahr": 2015, "lage": "Heckmannufer", "grund": "Geschäftsstraße", "besond": "MI aus Fertigteilen", "kosten": 23000.0, "fahrbahn": "4 m + 2,5 m MI + 4 m", "breite": "5 m", "fg": "95", "kfz": "1430"}, "geometry": {"type": "Point", "coordinates": [13.44821768, 52.49762885]}}, {"type": "Feature", "properties": {"id": "fgue.1494842", "gid": 1494842, "kennz": "FGUE-12330", "bezirk": "Fr-Kr", "plz": "10961", "strasse": "Baerwaldstraße", "hausnr": "67", "jahr": 2017, "lage": "Wilmsstraße", "grund": "Schulwegsicherung", "besond": "\\N", "kosten": 141800.0, "fahrbahn": "2 x 4,5 m", "breite": "4 m", "fg": "65", "kfz": "785"}, "geometry": {"type": "Point", "coordinates": [13.40447149, 52.49511847]}}, {"type": "Feature", "properties": {"id": "fgue.1494843", "gid": 1494843, "kennz": "FGUE-12331", "bezirk": "Nk", "plz": "12047", "strasse": "Friedelstraße", "hausnr": "23", "jahr": 2017, "lage": "Pflügerstraße", "grund": "Schulwegsicherung", "besond": "\\N", "kosten": 68700.0, "fahrbahn": "6,5 m", "breite": "4 m", "fg": "ca. 80", "kfz": "ca. 300"}, "geometry": {"type": "Point", "coordinates": [13.42790467, 52.49158817]}}, {"type": "Feature", "properties": {"id": "fgue.1494849", "gid": 1494849, "kennz": "FGUE-12337", "bezirk": "Fr-Kr", "plz": "10245", "strasse": "Alt-Stralau", "hausnr": "37", "jahr": 2017, "lage": "\\N", "grund": "Schulwegsicherung", "besond": "\\N", "kosten": 14300.0, "fahrbahn": "6,5 m", "breite": "3 m", "fg": "120", "kfz": "150"}, "geometry": {"type": "Point", "coordinates": [13.47484389, 52.4929331]}}]}