{"type": "FeatureCollection", "features": [{"type": "Feature", "properties": {"id": 12, "kuehle_raeume": "Bürgerzentrum Neukölln", "adresse": "Werbellinstraße 42, 12053 Berlin", "bezirk": "Neukölln", "link": "https://www.berlin.de/hitzeschutz/bezirksaktivitaeten/neukoelln/", "oeffnungszeiten": "Di, Mi: 9:00 - 15.00 Uhr; \nDo: 9:00 - 17:00 Uhr; \nFr: 9:00 - 14:00 Uhr", "barrierefreiheit": "barrierefrei", "hinweis": "Es erfolgt keine medizinische Betreuung."}, "geometry": {"type": "Point", "coordinates": [13.432212, 52.47849604]}}, {"type": "Feature", "properties": {"id": 13, "kuehle_raeume": "Nachbarschaftshaus am Körnerpark", "adresse": "Schierker Str. 53a, 12051 Berlin", "bezirk": "Neukölln", "link": "https://www.berlin.de/hitzeschutz/bezirksaktivitaeten/neukoelln/", "oeffnungszeiten": "Mo - Fr: 9:00 - 18:00 Uhr", "barrierefreiheit": "barrierearm", "hinweis": "Es erfolgt keine medizinische Betreuung."}, "geometry": {"type": "Point", "coordinates": [13.441167, 52.47119204]}}, {"type": "Feature", "properties": {"id": 14, "kuehle_raeume": "Nachbarschaftstreff Schillerkiez", "adresse": "Mahlower Str. 27, 12049 Berlin", "bezirk": "Neukölln", "link": "https://www.berlin.de/hitzeschutz/bezirksaktivitaeten/neukoelln/", "oeffnungszeiten": "Mo – Fr: 11:00 – 14:30 Uhr", "barrierefreiheit": "barrierefrei", "hinweis": "Es erfolgt keine medizinische Betreuung."}, "geometry": {"type": "Point", "coordinates": [13.423747, 52.47978804]}}, {"type": "Feature", "properties": {"id": 18, "kuehle_raeume": "Stadtteilzentrum Köllnische Heide \"Mittendrin\"", "adresse": "Sonnenallee 319, 12057 Berlin", "bezirk": "Neukölln", "link": "https://www.berlin.de/hitzeschutz/bezirksaktivitaeten/neukoelln/", "oeffnungszeiten": "Mo: 13:00 - 16:00 Uhr;\nDi: 09:30 - 16:30 Uhr; \nMi: 9:30 – 18.00 Uhr; \nDo: 09:00 - 16:30 Uhr", "barrierefreiheit": "nicht barrierefrei", "hinweis": "Es erfolgt keine medizinische Betreuung."}, "geometry": {"type": "Point", "coordinates": [13.472858, 52.46544104]}}, {"type": "Feature", "properties": {"id": 19, "kuehle_raeume": "Tee- und Wärmestube Neukölln", "adresse": "Weisestraße 34, 12049 Berlin", "bezirk": "Neukölln", "link": "https://www.berlin.de/hitzeschutz/bezirksaktivitaeten/neukoelln/", "oeffnungszeiten": "Mo, Mi, So:  15:00 - 19:00 Uhr; \nDi (Öffnungstag für Frauen): 10:00 - 15:00 Uhr; \nDo: 9:00 – 14:00 Uhr", "barrierefreiheit": "nicht barrierefrei", "hinweis": "Es erfolgt keine medizinische Betreuung."}, "geometry": {"type": "Point", "coordinates": [13.425172, 52.47393504]}}, {"type": "Feature", "properties": {"id": 64, "kuehle_raeume": "KIEZKLUB Treptow Kolleg", "adresse": "Kiefholzstraße 274, 12437 Berlin-Baumschulenweg", "bezirk": "Treptow-Köpenick", "link": "https://www.berlin.de/hitzeschutz-tk \nLink zur Einrichtung:\nhttps://www.berlin.de/ba-treptow-koepenick/politik-und-verwaltung/aemter/amt-fuer-soziales/kiezklubs/kiezklub-treptow-kolleg/", "oeffnungszeiten": "01.06. - 31.08.: Mo - Do: 9:00 - 17:00 Uhr; Fr: 9:00 - 16:00 Uhr", "barrierefreiheit": "barrierefrei (über den Schulhof)", "hinweis": "Es erfolgt keine medizinische Betreuung."}, "geometry": {"type": "Point", "coordinates": [13.483587, 52.46859204]}}, {"type": "Feature", "properties": {"id": 66, "kuehle_raeume": "Regionales Begegnungszentrum Süd der Volkssolidarität e.V.", "adresse": "Baumschulenstraße 31, 12437 Berlin-Baumschulenweg", "bezirk": "Treptow-Köpenick", "link": "Link zur Einrichtung: https://volkssolidaritaet-berlin.de/einrichtungen/regionales-begegnungszentrum-sued/", "oeffnungszeiten": "an Hitzetagen ab 30°C, Mo - Fr: 9:00 - 16:00 Uhr", "barrierefreiheit": "barrierefrei", "hinweis": "Es erfolgt keine medizinische Betreuung."}, "geometry": {"type": "Point", "coordinates": [13.485597, 52.46415904]}}]}