{"type": "FeatureCollection", "features": [{"type": "Feature", "properties": {"id": "stadtgruen.57", "gisid": 57, "verlauf_stadtgruen": "Radvorrangnetz"}, "geometry": {"type": "MultiLineString", "coordinates": [[[13.46427068, 52.49561082], [13.46428493, 52.49562096]]]}}, {"type": "Feature", "properties": {"id": "stadtgruen.69", "gisid": 69, "verlauf_stadtgruen": "Radvorrangnetz"}, "geometry": {"type": "MultiLineString", "coordinates": [[[13.41734236, 52.47561988], [13.41774187, 52.47563838], [13.41805588, 52.47577558], [13.41837647, 52.47594611], [13.41834872, 52.47606923], [13.41822454, 52.47649506], [13.4183969, 52.47667786]]]}}, {"type": "Feature", "properties": {"id": "stadtgruen.139", "gisid": 139, "verlauf_stadtgruen": "Radvorrangnetz"}, "geometry": {"type": "MultiLineString", "coordinates": [[[13.44381463, 52.49440191], [13.4438229, 52.49439896]], [[13.44407524, 52.49430873], [13.44425974, 52.49424276]], [[13.444588, 52.49412539], [13.44463874, 52.49410725]]]}}, {"type": "Feature", "properties": {"id": "stadtgruen.140", "gisid": 140, "verlauf_stadtgruen": "Radvorrangnetz"}, "geometry": {"type": "MultiLineString", "coordinates": [[[13.46428493, 52.49562096], [13.46433386, 52.49561909]], [[13.46442542, 52.49561559], [13.46444397, 52.49561489], [13.46463372, 52.49566727], [13.4647828, 52.49577888]]]}}, {"type": "Feature", "properties": {"id": "stadtgruen.142", "gisid": 142, "verlauf_stadtgruen": "Radvorrangnetz"}, "geometry": {"type": "MultiLineString", "coordinates": [[[13.41344718, 52.49259879], [13.41387395, 52.49317876]]]}}, {"type": "Feature", "properties": {"id": "stadtgruen.147", "gisid": 147, "verlauf_stadtgruen": "Radvorrangnetz"}, "geometry": {"type": "MultiLineString", "coordinates": [[[13.43970175, 52.49585128], [13.43909454, 52.49518259]]]}}, {"type": "Feature", "properties": {"id": "stadtgruen.151", "gisid": 151, "verlauf_stadtgruen": "Radvorrangnetz"}, "geometry": {"type": "MultiLineString", "coordinates": [[[13.41407191, 52.4880534], [13.41408563, 52.48755796]]]}}, {"type": "Feature", "properties": {"id": "stadtgruen.152", "gisid": 152, "verlauf_stadtgruen": "Radvorrangnetz"}, "geometry": {"type": "MultiLineString", "coordinates": [[[13.41300708, 52.49202896], [13.41344718, 52.49259879]]]}}, {"type": "Feature", "properties": {"id": "stadtgruen.153", "gisid": 153, "verlauf_stadtgruen": "Radvorrangnetz"}, "geometry": {"type": "MultiLineString", "coordinates": [[[13.41567113, 52.48292458], [13.41593579, 52.48205873], [13.4160026, 52.48162929], [13.4160302, 52.48139748], [13.41594042, 52.48108818], [13.41576294, 52.48075193]]]}}, {"type": "Feature", "properties": {"id": "stadtgruen.154", "gisid": 154, "verlauf_stadtgruen": "Radvorrangnetz"}, "geometry": {"type": "MultiLineString", "coordinates": [[[13.41399752, 52.49334456], [13.41407991, 52.4934541]], [[13.41459399, 52.49413752], [13.41481757, 52.49443476]]]}}, {"type": "Feature", "properties": {"id": "stadtgruen.155", "gisid": 155, "verlauf_stadtgruen": "Radvorrangnetz"}, "geometry": {"type": "MultiLineString", "coordinates": [[[13.41408563, 52.48755796], [13.41426985, 52.48720871], [13.41454402, 52.48682727], [13.41475519, 52.48638191], [13.41498257, 52.48531739], [13.41516782, 52.48444242], [13.41547266, 52.48348858], [13.41567113, 52.48292458]]]}}, {"type": "Feature", "properties": {"id": "stadtgruen.157", "gisid": 157, "verlauf_stadtgruen": "Radvorrangnetz"}, "geometry": {"type": "MultiLineString", "coordinates": [[[13.46155733, 52.49294234], [13.46157827, 52.49296707], [13.461785, 52.49319921], [13.46206664, 52.49347909], [13.46218315, 52.49358863]]]}}, {"type": "Feature", "properties": {"id": "stadtgruen.158", "gisid": 158, "verlauf_stadtgruen": "Radvorrangnetz"}, "geometry": {"type": "MultiLineString", "coordinates": [[[13.44151157, 52.49523536], [13.44382799, 52.49443555]]]}}, {"type": "Feature", "properties": {"id": "stadtgruen.162", "gisid": 162, "verlauf_stadtgruen": "Radvorrangnetz"}, "geometry": {"type": "MultiLineString", "coordinates": [[[13.42055838, 52.47101396], [13.42051976, 52.47098701]], [[13.42046318, 52.47094751], [13.42034093, 52.47086218], [13.42031738, 52.47074705]]]}}, {"type": "Feature", "properties": {"id": "stadtgruen.163", "gisid": 163, "verlauf_stadtgruen": "Radvorrangnetz"}, "geometry": {"type": "MultiLineString", "coordinates": [[[13.42031738, 52.47074705], [13.42032043, 52.47065791], [13.42033244, 52.47060079]]]}}, {"type": "Feature", "properties": {"id": "stadtgruen.164", "gisid": 164, "verlauf_stadtgruen": "Radvorrangnetz"}, "geometry": {"type": "MultiLineString", "coordinates": [[[13.4202037, 52.4719235], [13.42023561, 52.47190668]], [[13.42055651, 52.47102011], [13.42055838, 52.47101396]]]}}, {"type": "Feature", "properties": {"id": "stadtgruen.212", "gisid": 212, "verlauf_stadtgruen": "Radvorrangnetz"}, "geometry": {"type": "MultiLineString", "coordinates": [[[13.45121124, 52.49157781], [13.45099748, 52.49168373]], [[13.45078192, 52.49179053], [13.45018191, 52.49208782], [13.4487899, 52.49271452], [13.44755629, 52.49318761], [13.44608769, 52.49371098], [13.44463874, 52.49410725]]]}}, {"type": "Feature", "properties": {"id": "stadtgruen.222", "gisid": 222, "verlauf_stadtgruen": "Radvorrangnetz"}, "geometry": {"type": "MultiLineString", "coordinates": [[[13.4183969, 52.47667786], [13.4182413, 52.47686815], [13.41805921, 52.477594]]]}}, {"type": "Feature", "properties": {"id": "stadtgruen.224", "gisid": 224, "verlauf_stadtgruen": "Radvorrangnetz"}, "geometry": {"type": "MultiLineString", "coordinates": [[[13.45121124, 52.49157781], [13.45110416, 52.49175297]]]}}, {"type": "Feature", "properties": {"id": "stadtgruen.226", "gisid": 226, "verlauf_stadtgruen": "Radvorrangnetz"}, "geometry": {"type": "MultiLineString", "coordinates": [[[13.44029281, 52.49649551], [13.44029079, 52.49649331]], [[13.44029013, 52.49649258], [13.43970175, 52.49585128]]]}}, {"type": "Feature", "properties": {"id": "stadtgruen.232", "gisid": 232, "verlauf_stadtgruen": "Radvorrangnetz"}, "geometry": {"type": "MultiLineString", "coordinates": [[[13.44379464, 52.49437701], [13.44381463, 52.49440191]]]}}, {"type": "Feature", "properties": {"id": "stadtgruen.250", "gisid": 250, "verlauf_stadtgruen": "Radvorrangnetz"}, "geometry": {"type": "MultiLineString", "coordinates": [[[13.43970175, 52.49585128], [13.44151157, 52.49523536]]]}}, {"type": "Feature", "properties": {"id": "stadtgruen.298", "gisid": 298, "verlauf_stadtgruen": "Radvorrangnetz"}, "geometry": {"type": "MultiLineString", "coordinates": [[[13.45657695, 52.48892456], [13.45511992, 52.48964314]]]}}, {"type": "Feature", "properties": {"id": "stadtgruen.299", "gisid": 299, "verlauf_stadtgruen": "Radvorrangnetz"}, "geometry": {"type": "MultiLineString", "coordinates": [[[13.4183969, 52.47667786], [13.41846567, 52.47668227]]]}}, {"type": "Feature", "properties": {"id": "stadtgruen.313", "gisid": 313, "verlauf_stadtgruen": "Radvorrangnetz"}, "geometry": {"type": "MultiLineString", "coordinates": [[[13.45486875, 52.48976696], [13.45432737, 52.49003374], [13.45121124, 52.49157781]]]}}, {"type": "Feature", "properties": {"id": "stadtgruen.340", "gisid": 340, "verlauf_stadtgruen": "Radvorrangnetz"}, "geometry": {"type": "MultiLineString", "coordinates": [[[13.38981944, 52.47437585], [13.39187333, 52.47447728], [13.40087542, 52.47484157], [13.41370368, 52.4754513], [13.41734236, 52.47561988]]]}}, {"type": "Feature", "properties": {"id": "stadtgruen.380", "gisid": 380, "verlauf_stadtgruen": "Ergänzungsnetz"}, "geometry": {"type": "MultiLineString", "coordinates": [[[13.48887547, 52.45115992], [13.48897588, 52.45119853], [13.48909979, 52.45129181], [13.4893069, 52.4514035], [13.49120491, 52.45240419], [13.49273397, 52.45324319], [13.49434757, 52.45414272], [13.49543204, 52.45469845], [13.49653547, 52.45533371], [13.49825849, 52.45628084], [13.49942916, 52.45693065]]]}}, {"type": "Feature", "properties": {"id": "stadtgruen.383", "gisid": 383, "verlauf_stadtgruen": "Ergänzungsnetz"}, "geometry": {"type": "MultiLineString", "coordinates": [[[13.44834612, 52.45918371], [13.44835684, 52.45919611], [13.44960633, 52.4593243], [13.45073172, 52.45932716], [13.4515331, 52.45935193], [13.45291228, 52.45922486], [13.45442196, 52.4588731]], [[13.45495243, 52.45868965], [13.4553079, 52.45856534]]]}}, {"type": "Feature", "properties": {"id": "stadtgruen.412", "gisid": 412, "verlauf_stadtgruen": "Ergänzungsnetz"}, "geometry": {"type": "MultiLineString", "coordinates": [[[13.42196423, 52.46237394], [13.42206547, 52.46209887]]]}}, {"type": "Feature", "properties": {"id": "stadtgruen.438", "gisid": 438, "verlauf_stadtgruen": "Ergänzungsnetz"}, "geometry": {"type": "MultiLineString", "coordinates": [[[13.49116489, 52.48407986], [13.4917798, 52.483636]], [[13.49400894, 52.48315505], [13.49415706, 52.48317077]], [[13.49724403, 52.48346996], [13.4984267, 52.48336641], [13.49933172, 52.48316787]]]}}, {"type": "Feature", "properties": {"id": "stadtgruen.439", "gisid": 439, "verlauf_stadtgruen": "Ergänzungsnetz"}, "geometry": {"type": "MultiLineString", "coordinates": [[[13.49208034, 52.49721477], [13.49201098, 52.49716516]]]}}, {"type": "Feature", "properties": {"id": "stadtgruen.441", "gisid": 441, "verlauf_stadtgruen": "Ergänzungsnetz"}, "geometry": {"type": "MultiLineString", "coordinates": [[[13.4015037, 52.48000441], [13.3975526, 52.48022691], [13.39555869, 52.48019988], [13.39389158, 52.47975857], [13.39308539, 52.47921474], [13.39132294, 52.47711638], [13.39009364, 52.4753583], [13.38981944, 52.47437585]]]}}, {"type": "Feature", "properties": {"id": "stadtgruen.443", "gisid": 443, "verlauf_stadtgruen": "Ergänzungsnetz"}, "geometry": {"type": "MultiLineString", "coordinates": [[[13.45048669, 52.48717171], [13.45040917, 52.48717939], [13.45027217, 52.48722716], [13.44891146, 52.48797761], [13.44888316, 52.48798749]]]}}, {"type": "Feature", "properties": {"id": "stadtgruen.449", "gisid": 449, "verlauf_stadtgruen": "Ergänzungsnetz"}, "geometry": {"type": "MultiLineString", "coordinates": [[[13.44172001, 52.45829464], [13.44243113, 52.45840692], [13.44621249, 52.45896099], [13.44671698, 52.45893002], [13.44721455, 52.45900984], [13.44734829, 52.45900089]]]}}, {"type": "Feature", "properties": {"id": "stadtgruen.529", "gisid": 529, "verlauf_stadtgruen": "Ergänzungsnetz"}, "geometry": {"type": "MultiLineString", "coordinates": [[[13.45603991, 52.45820166], [13.45624619, 52.45810777]]]}}, {"type": "Feature", "properties": {"id": "stadtgruen.690", "gisid": 690, "verlauf_stadtgruen": "Ergänzungsnetz"}, "geometry": {"type": "MultiLineString", "coordinates": [[[13.4609618, 52.49088581], [13.46116392, 52.49038104], [13.46170845, 52.4896422], [13.46213805, 52.48932017]]]}}, {"type": "Feature", "properties": {"id": "stadtgruen.698", "gisid": 698, "verlauf_stadtgruen": "Ergänzungsnetz"}, "geometry": {"type": "MultiLineString", "coordinates": [[[13.40270465, 52.48322332], [13.4015037, 52.48000441]]]}}, {"type": "Feature", "properties": {"id": "stadtgruen.700", "gisid": 700, "verlauf_stadtgruen": "Ergänzungsnetz"}, "geometry": {"type": "MultiLineString", "coordinates": [[[13.4015037, 52.48000441], [13.40450553, 52.47976869], [13.40624355, 52.47954472], [13.40777172, 52.47908952], [13.40910353, 52.47846038], [13.41034836, 52.47764926], [13.41189508, 52.47710861], [13.41396486, 52.47675576], [13.41560755, 52.47657795], [13.41690345, 52.47650966], [13.41716292, 52.47622767], [13.41734236, 52.47561988]]]}}, {"type": "Feature", "properties": {"id": "stadtgruen.704", "gisid": 704, "verlauf_stadtgruen": "Ergänzungsnetz"}, "geometry": {"type": "MultiLineString", "coordinates": [[[13.46034246, 52.49050033], [13.46041361, 52.49047413], [13.4609618, 52.49088581]]]}}, {"type": "Feature", "properties": {"id": "stadtgruen.714", "gisid": 714, "verlauf_stadtgruen": "Ergänzungsnetz"}, "geometry": {"type": "MultiLineString", "coordinates": [[[13.40676969, 52.4898205], [13.40807006, 52.49161903]]]}}, {"type": "Feature", "properties": {"id": "stadtgruen.717", "gisid": 717, "verlauf_stadtgruen": "Ergänzungsnetz"}, "geometry": {"type": "MultiLineString", "coordinates": [[[13.46098588, 52.49220227], [13.46095769, 52.49198397], [13.46093178, 52.49143485], [13.4609618, 52.49088581]]]}}, {"type": "Feature", "properties": {"id": "stadtgruen.718", "gisid": 718, "verlauf_stadtgruen": "Ergänzungsnetz"}, "geometry": {"type": "MultiLineString", "coordinates": [[[13.48358183, 52.48014927], [13.49116489, 52.48407986]]]}}, {"type": "Feature", "properties": {"id": "stadtgruen.754", "gisid": 754, "verlauf_stadtgruen": "Ergänzungsnetz"}, "geometry": {"type": "MultiLineString", "coordinates": [[[13.42206547, 52.46209887], [13.42207752, 52.46207238]]]}}, {"type": "Feature", "properties": {"id": "stadtgruen.764", "gisid": 764, "verlauf_stadtgruen": "Ergänzungsnetz"}, "geometry": {"type": "MultiLineString", "coordinates": [[[13.45852517, 52.45920143], [13.45864085, 52.45921773], [13.45875292, 52.45922689], [13.45882551, 52.45922902], [13.45917065, 52.45922227], [13.45941598, 52.459216], [13.45954118, 52.45920993], [13.45962098, 52.45919973], [13.45968924, 52.45918701], [13.4597724, 52.45916382], [13.45986067, 52.45913302], [13.45998434, 52.45908728], [13.46005594, 52.45906217], [13.46011357, 52.45904872], [13.46016525, 52.45903933], [13.46021678, 52.45903408], [13.4605013, 52.4590153], [13.46092346, 52.45899476], [13.46178797, 52.45895806], [13.46220491, 52.4589481], [13.46253468, 52.45893759], [13.46295565, 52.45892353], [13.46329704, 52.45891318], [13.463682, 52.45890338], [13.46438559, 52.45889713], [13.46491089, 52.45889152], [13.46542645, 52.45888756], [13.46578205, 52.45888626], [13.466066, 52.45888402], [13.46628115, 52.45888208], [13.46671043, 52.45887936], [13.46711641, 52.45887811], [13.46762426, 52.45887286], [13.46813623, 52.45886055], [13.46864919, 52.45884767], [13.46965587, 52.45881974], [13.47019746, 52.45880561], [13.47078937, 52.45878789], [13.47119937, 52.45877557], [13.47139959, 52.45877136], [13.47159952, 52.45876716], [13.47161444, 52.45876684], [13.47171647, 52.45876443], [13.47178857, 52.45876273]]]}}, {"type": "Feature", "properties": {"id": "stadtgruen.781", "gisid": 781, "verlauf_stadtgruen": "Ergänzungsnetz"}, "geometry": {"type": "MultiLineString", "coordinates": [[[13.4599615, 52.45401733], [13.46001245, 52.45402888]]]}}, {"type": "Feature", "properties": {"id": "stadtgruen.798", "gisid": 798, "verlauf_stadtgruen": "Ergänzungsnetz"}, "geometry": {"type": "MultiLineString", "coordinates": [[[13.42790299, 52.45621529], [13.42852734, 52.45629316], [13.42887703, 52.4563899], [13.42932093, 52.45647152], [13.42999381, 52.45667034], [13.43030678, 52.45675264], [13.43073118, 52.45685291]], [[13.43130157, 52.45694405], [13.4313151, 52.45694572], [13.43156791, 52.45699736], [13.43207325, 52.45715995], [13.43217034, 52.45718466]], [[13.43218887, 52.45718938], [13.43242152, 52.45724859], [13.43292559, 52.45736624], [13.43339813, 52.45746863]], [[13.434027, 52.4575719], [13.434128, 52.45758837], [13.43421257, 52.45759647]], [[13.43438177, 52.45761267], [13.43492061, 52.45766425], [13.43531179, 52.45769633]]]}}, {"type": "Feature", "properties": {"id": "stadtgruen.813", "gisid": 813, "verlauf_stadtgruen": "Ergänzungsnetz"}, "geometry": {"type": "MultiLineString", "coordinates": [[[13.45994677, 52.45401385], [13.4599615, 52.45401733]]]}}, {"type": "Feature", "properties": {"id": "stadtgruen.832", "gisid": 832, "verlauf_stadtgruen": "Ergänzungsnetz"}, "geometry": {"type": "MultiLineString", "coordinates": [[[13.42868972, 52.47189934], [13.42837545, 52.47188386], [13.42570655, 52.47159952], [13.42095367, 52.47105708], [13.42072847, 52.47101346], [13.42059269, 52.47100421], [13.42055838, 52.47101396]]]}}, {"type": "Feature", "properties": {"id": "stadtgruen.834", "gisid": 834, "verlauf_stadtgruen": "Ergänzungsnetz"}, "geometry": {"type": "MultiLineString", "coordinates": [[[13.43665072, 52.45783527], [13.43673142, 52.45783396], [13.4369354, 52.45783238], [13.43694278, 52.45783232], [13.4370321, 52.45783547], [13.43756128, 52.45788808], [13.43818893, 52.45796275], [13.43855815, 52.45799462], [13.43932095, 52.45804446], [13.43990006, 52.45807786], [13.44029425, 52.45809052], [13.4407614, 52.45811744], [13.44147849, 52.4581501], [13.44148007, 52.45815134]]]}}, {"type": "Feature", "properties": {"id": "stadtgruen.844", "gisid": 844, "verlauf_stadtgruen": "Ergänzungsnetz"}, "geometry": {"type": "MultiLineString", "coordinates": [[[13.48737964, 52.45046789], [13.48741463, 52.45049895], [13.48826503, 52.45124846], [13.48836347, 52.45135856]]]}}, {"type": "Feature", "properties": {"id": "stadtgruen.853", "gisid": 853, "verlauf_stadtgruen": "Ergänzungsnetz"}, "geometry": {"type": "MultiLineString", "coordinates": [[[13.49417068, 52.47277085], [13.49428188, 52.47171131]]]}}, {"type": "Feature", "properties": {"id": "stadtgruen.855", "gisid": 855, "verlauf_stadtgruen": "Ergänzungsnetz"}, "geometry": {"type": "MultiLineString", "coordinates": [[[13.48836347, 52.45135856], [13.48858794, 52.45128471], [13.48887547, 52.45115992]]]}}, {"type": "Feature", "properties": {"id": "stadtgruen.872", "gisid": 872, "verlauf_stadtgruen": "Ergänzungsnetz"}, "geometry": {"type": "MultiLineString", "coordinates": [[[13.47220268, 52.45874355], [13.47238327, 52.45873028], [13.47251446, 52.45873197], [13.47268598, 52.45873496], [13.47279581, 52.45873407], [13.47293471, 52.45873162], [13.47308501, 52.45872816], [13.47322255, 52.4587284], [13.47338781, 52.45873015], [13.47355687, 52.45873156], [13.47369198, 52.45872945], [13.47380006, 52.45872429], [13.4739574, 52.45871784], [13.47409007, 52.458713], [13.47417088, 52.45871173], [13.47424983, 52.45870966], [13.47432252, 52.45870598], [13.47439706, 52.45870347], [13.47446016, 52.45870351], [13.47454329, 52.45870805], [13.47462899, 52.45871147], [13.47471167, 52.458711], [13.47481958, 52.45871046], [13.47497556, 52.45870708], [13.47518965, 52.45870174], [13.47536013, 52.45869854], [13.47542274, 52.45869434], [13.47551202, 52.45868547], [13.47556447, 52.45868306], [13.47562506, 52.45868269], [13.47568495, 52.45868423], [13.47575913, 52.45869212], [13.47579757, 52.45869377], [13.47584986, 52.45869599], [13.47594304, 52.4587022], [13.47603048, 52.45870988], [13.47607017, 52.45871155], [13.47611055, 52.45871168], [13.47615421, 52.45870839], [13.47621054, 52.45870334], [13.47626054, 52.45869897], [13.47634023, 52.45869344], [13.47642424, 52.45869106], [13.47651005, 52.45869101], [13.47659697, 52.45869559], [13.47667325, 52.45869773], [13.47676479, 52.45869622], [13.47682738, 52.45869278], [13.4768863, 52.45868583], [13.47692865, 52.45868368], [13.47697535, 52.45868351], [13.47702825, 52.4586865], [13.47710878, 52.45869332], [13.47721151, 52.45869696], [13.47733817, 52.45870115]]]}}, {"type": "Feature", "properties": {"id": "stadtgruen.886", "gisid": 886, "verlauf_stadtgruen": "Ergänzungsnetz"}, "geometry": {"type": "MultiLineString", "coordinates": [[[13.43531179, 52.45769633], [13.43554709, 52.45771558], [13.4357148, 52.45771585], [13.43595615, 52.45769467], [13.43610654, 52.45770086]]]}}, {"type": "Feature", "properties": {"id": "stadtgruen.897", "gisid": 897, "verlauf_stadtgruen": "Ergänzungsnetz"}, "geometry": {"type": "MultiLineString", "coordinates": [[[13.48969155, 52.47498818], [13.48990525, 52.47489047], [13.49046082, 52.47465026], [13.49109127, 52.47446226], [13.49173181, 52.47434527]]]}}, {"type": "Feature", "properties": {"id": "stadtgruen.900", "gisid": 900, "verlauf_stadtgruen": "Ergänzungsnetz"}, "geometry": {"type": "MultiLineString", "coordinates": [[[13.40807006, 52.49161903], [13.40834212, 52.49200889]], [[13.40854065, 52.49228852], [13.40861853, 52.49239083]]]}}, {"type": "Feature", "properties": {"id": "stadtgruen.908", "gisid": 908, "verlauf_stadtgruen": "Ergänzungsnetz"}, "geometry": {"type": "MultiLineString", "coordinates": [[[13.48668587, 52.44988249], [13.48670228, 52.44989749], [13.48708806, 52.45022893], [13.48725266, 52.45036841], [13.48737964, 52.45046789]]]}}, {"type": "Feature", "properties": {"id": "stadtgruen.936", "gisid": 936, "verlauf_stadtgruen": "Ergänzungsnetz"}, "geometry": {"type": "MultiLineString", "coordinates": [[[13.41734236, 52.47561988], [13.41841174, 52.47225734], [13.41867423, 52.47188974], [13.4190566, 52.4714381], [13.4197458, 52.47133788], [13.41993882, 52.47116918], [13.4204404, 52.47104352]], [[13.42055158, 52.47101566], [13.42055838, 52.47101396]]]}}, {"type": "Feature", "properties": {"id": "stadtgruen.941", "gisid": 941, "verlauf_stadtgruen": "Ergänzungsnetz"}, "geometry": {"type": "MultiLineString", "coordinates": [[[13.49403753, 52.47399019], [13.49417068, 52.47277085]]]}}, {"type": "Feature", "properties": {"id": "stadtgruen.942", "gisid": 942, "verlauf_stadtgruen": "Ergänzungsnetz"}, "geometry": {"type": "MultiLineString", "coordinates": [[[13.49173181, 52.47434527], [13.49223375, 52.47431348], [13.49273414, 52.47430776], [13.49314052, 52.47424261], [13.49344098, 52.47416567], [13.49375504, 52.47396472]]]}}, {"type": "Feature", "properties": {"id": "stadtgruen.967", "gisid": 967, "verlauf_stadtgruen": "Ergänzungsnetz"}, "geometry": {"type": "MultiLineString", "coordinates": [[[13.48751844, 52.47575977], [13.48773757, 52.47578752], [13.48969155, 52.47498818]]]}}, {"type": "Feature", "properties": {"id": "stadtgruen.968", "gisid": 968, "verlauf_stadtgruen": "Ergänzungsnetz"}, "geometry": {"type": "MultiLineString", "coordinates": [[[13.49417068, 52.47277085], [13.49482853, 52.47281905]]]}}, {"type": "Feature", "properties": {"id": "stadtgruen.969", "gisid": 969, "verlauf_stadtgruen": "Ergänzungsnetz"}, "geometry": {"type": "MultiLineString", "coordinates": [[[13.49375504, 52.47396472], [13.49403753, 52.47399019]]]}}, {"type": "Feature", "properties": {"id": "stadtgruen.1022", "gisid": 1022, "verlauf_stadtgruen": "Ergänzungsnetz"}, "geometry": {"type": "MultiLineString", "coordinates": [[[13.46200965, 52.48899819], [13.46213805, 52.48932017]]]}}]}