{"type": "FeatureCollection", "features": [{"type": "Feature", "properties": {"id": "untersuchungsbereiche.5", "gisid": 5, "beschreibu": "Prüfung separate Gleisunterführung im Zuge der Karlshorster Straße sowie Radverkehrsführung von Ostkreuz zu Treptower Park"}, "geometry": {"type": "MultiPolygon", "coordinates": [[[[13.46761096, 52.50624494], [13.47617544, 52.50259499], [13.47610591, 52.50171814], [13.47527212, 52.50110565], [13.47081211, 52.50101143], [13.46642178, 52.49633344], [13.46343998, 52.49736461], [13.46575416, 52.5029222], [13.46761096, 52.50624494]]]]}}, {"type": "Feature", "properties": {"id": "untersuchungsbereiche.9", "gisid": 9, "beschreibu": "Tempelhofer Feld nachts geschlossen"}, "geometry": {"type": "MultiPolygon", "coordinates": [[[[13.38536158, 52.47546653], [13.38771153, 52.47507719], [13.38855302, 52.47480773], [13.41593398, 52.4760744], [13.4188378, 52.47701006], [13.4194027, 52.47507274], [13.41556832, 52.4749242], [13.38762058, 52.47369293], [13.38538541, 52.47433234], [13.38536158, 52.47546653]]]]}}]}