{"type": "FeatureCollection", "features": [{"type": "Feature", "properties": {"id": "versorggruen_wald_2020.1129", "importid": 1129, "typ": "Wald"}, "geometry": {"type": "MultiPolygon", "coordinates": [[[[13.49678323, 52.44872362], [13.49725885, 52.44858744], [13.49957827, 52.44792328], [13.50010916, 52.44865843], [13.50051655, 52.44899153], [13.49985635, 52.44918914], [13.49986303, 52.44919368], [13.49905866, 52.44943101], [13.49976712, 52.45000523], [13.49872211, 52.45057382], [13.49746125, 52.44931321], [13.49696845, 52.44887494], [13.49678323, 52.44872362]]]]}}, {"type": "Feature", "properties": {"id": "versorggruen_wald_2020.1197", "importid": 1197, "typ": "Wald"}, "geometry": {"type": "MultiPolygon", "coordinates": [[[[13.48896038, 52.45118657], [13.49057892, 52.45050318], [13.49678323, 52.44872362], [13.49696845, 52.44887494], [13.49746125, 52.44931321], [13.49872211, 52.45057382], [13.49927135, 52.45118761], [13.49960455, 52.45165688], [13.49987886, 52.452078], [13.50001555, 52.45245087], [13.50005391, 52.45279959], [13.49999411, 52.45306404], [13.49986853, 52.45324767], [13.4986403, 52.45230821], [13.49762464, 52.45281456], [13.49819874, 52.45338502], [13.49548178, 52.45470837], [13.49354096, 52.45370796], [13.49246531, 52.45311179], [13.48896038, 52.45118657]]]]}}, {"type": "Feature", "properties": {"id": "versorggruen_wald_2020.1198", "importid": 1198, "typ": "Wald"}, "geometry": {"type": "MultiPolygon", "coordinates": [[[[13.48166098, 52.45249742], [13.48211203, 52.45230812], [13.48253458, 52.45219219], [13.48290792, 52.45213383], [13.48422092, 52.45208222], [13.48528327, 52.45206266], [13.48541619, 52.45229022], [13.48974528, 52.45484089], [13.48696066, 52.4582214], [13.48166098, 52.45249742]]]]}}, {"type": "Feature", "properties": {"id": "versorggruen_wald_2020.1199", "importid": 1199, "typ": "Wald"}, "geometry": {"type": "MultiPolygon", "coordinates": [[[[13.48528327, 52.45206266], [13.48563046, 52.45205627], [13.48595455, 52.45202034], [13.48645498, 52.45191589], [13.48730634, 52.45167672], [13.48756979, 52.45162709], [13.48846095, 52.45139743], [13.48896038, 52.45118657], [13.49246531, 52.45311179], [13.48977017, 52.45481067], [13.48974528, 52.45484089], [13.48541619, 52.45229022], [13.48528327, 52.45206266]]]]}}, {"type": "Feature", "properties": {"id": "versorggruen_wald_2020.1200", "importid": 1200, "typ": "Wald"}, "geometry": {"type": "MultiPolygon", "coordinates": [[[[13.47932325, 52.45430583], [13.4793045, 52.4542092], [13.47931241, 52.45410756], [13.48103566, 52.45288175], [13.4813633, 52.45265805], [13.48166098, 52.45249742], [13.48696066, 52.4582214], [13.48770095, 52.4590878], [13.48619334, 52.45844021], [13.4847786, 52.45802524], [13.48326285, 52.45780471], [13.48118578, 52.45773543], [13.48103215, 52.45736835], [13.4802339, 52.45677309], [13.47933699, 52.45437663], [13.47932325, 52.45430583]]]]}}, {"type": "Feature", "properties": {"id": "versorggruen_wald_2020.1201", "importid": 1201, "typ": "Wald"}, "geometry": {"type": "MultiPolygon", "coordinates": [[[[13.48696066, 52.4582214], [13.48974528, 52.45484089], [13.49181233, 52.45605418], [13.4915211, 52.45607627], [13.49059631, 52.45632953], [13.48945747, 52.45684306], [13.48905051, 52.45709691], [13.48870434, 52.45739425], [13.4885717, 52.45759879], [13.48853052, 52.45777863], [13.4886316, 52.45792762], [13.48874304, 52.45800839], [13.48889524, 52.45804578], [13.48921004, 52.45803995], [13.48949448, 52.45800306], [13.48984009, 52.4578856], [13.48997231, 52.45781752], [13.49009443, 52.45773082], [13.49025778, 52.45744568], [13.49043107, 52.45722877], [13.49066507, 52.45708017], [13.49100031, 52.45703093], [13.49146746, 52.45701286], [13.49190395, 52.45705678], [13.49222845, 52.45719981], [13.49237023, 52.45732403], [13.49246107, 52.45750402], [13.49248064, 52.45774596], [13.49243374, 52.45794959], [13.49207952, 52.45795394], [13.49110181, 52.45819297], [13.48770095, 52.4590878], [13.48696066, 52.4582214]]]]}}, {"type": "Feature", "properties": {"id": "versorggruen_wald_2020.1202", "importid": 1202, "typ": "Wald"}, "geometry": {"type": "MultiPolygon", "coordinates": [[[[13.48974528, 52.45484089], [13.48977017, 52.45481067], [13.49246531, 52.45311179], [13.49354096, 52.45370796], [13.49548178, 52.45470837], [13.49547524, 52.45471155], [13.49658034, 52.45531616], [13.49381097, 52.45718286], [13.49373215, 52.45690377], [13.49355024, 52.45661823], [13.49332751, 52.45640088], [13.49303359, 52.45622066], [13.49263797, 52.45609615], [13.49233352, 52.45603998], [13.49208984, 52.4560335], [13.49181233, 52.45605418], [13.48974528, 52.45484089]]]]}}, {"type": "Feature", "properties": {"id": "versorggruen_wald_2020.1203", "importid": 1203, "typ": "Wald"}, "geometry": {"type": "MultiPolygon", "coordinates": [[[[13.49181233, 52.45605418], [13.49208984, 52.4560335], [13.49233352, 52.45603998], [13.49263797, 52.45609615], [13.49303359, 52.45622066], [13.49332751, 52.45640088], [13.49355024, 52.45661823], [13.49373215, 52.45690377], [13.49381097, 52.45718286], [13.49381594, 52.45727759], [13.49377841, 52.45744555], [13.49367731, 52.45764897], [13.49341849, 52.45795308], [13.49291252, 52.457943], [13.49243374, 52.45794959], [13.49248064, 52.45774596], [13.49246107, 52.45750402], [13.49237023, 52.45732403], [13.49222845, 52.45719981], [13.49190395, 52.45705678], [13.49146746, 52.45701286], [13.49100031, 52.45703093], [13.49066507, 52.45708017], [13.49043107, 52.45722877], [13.49025778, 52.45744568], [13.49009443, 52.45773082], [13.48997231, 52.45781752], [13.48984009, 52.4578856], [13.48949448, 52.45800306], [13.48921004, 52.45803995], [13.48889524, 52.45804578], [13.48874304, 52.45800839], [13.4886316, 52.45792762], [13.48853052, 52.45777863], [13.4885717, 52.45759879], [13.48870434, 52.45739425], [13.48905051, 52.45709691], [13.48945747, 52.45684306], [13.49059631, 52.45632953], [13.4915211, 52.45607627], [13.49181233, 52.45605418]]]]}}, {"type": "Feature", "properties": {"id": "versorggruen_wald_2020.2121", "importid": 2121, "typ": "Wald"}, "geometry": {"type": "MultiPolygon", "coordinates": [[[[13.49341849, 52.45795308], [13.49367731, 52.45764897], [13.49377841, 52.45744555], [13.49381594, 52.45727759], [13.49381097, 52.45718286], [13.49658034, 52.45531616], [13.49939247, 52.45687304], [13.49945852, 52.45691354], [13.49731863, 52.45795027], [13.496976, 52.45798556], [13.49341849, 52.45795308]]]]}}, {"type": "Feature", "properties": {"id": "versorggruen_wald_2020.2122", "importid": 2122, "typ": "Wald"}, "geometry": {"type": "MultiPolygon", "coordinates": [[[[13.49872211, 52.45057382], [13.49976712, 52.45000523], [13.50089062, 52.45079818], [13.5010507, 52.45108554], [13.50088798, 52.4512694], [13.50041343, 52.45139629], [13.50079377, 52.45220006], [13.50095995, 52.45266084], [13.50093404, 52.45329221], [13.50150051, 52.45329223], [13.50165651, 52.45344568], [13.5017402, 52.45389146], [13.50269427, 52.45382261], [13.50272298, 52.4543902], [13.503201, 52.45521233], [13.50260405, 52.45531906], [13.49986853, 52.45324767], [13.49999411, 52.45306404], [13.50005391, 52.45279959], [13.50001555, 52.45245087], [13.49987886, 52.452078], [13.49960455, 52.45165688], [13.49927135, 52.45118761], [13.49872211, 52.45057382]]]]}}, {"type": "Feature", "properties": {"id": "versorggruen_wald_2020.2360", "importid": 2360, "typ": "Wald"}, "geometry": {"type": "MultiPolygon", "coordinates": [[[[13.49709124, 52.47937825], [13.49728382, 52.47938907], [13.49771704, 52.47959574], [13.49756744, 52.48033362], [13.4969054, 52.4802683], [13.49709124, 52.47937825]]]]}}, {"type": "Feature", "properties": {"id": "versorggruen_wald_2020.2392", "importid": 2392, "typ": "Wald"}, "geometry": {"type": "MultiPolygon", "coordinates": [[[[13.48346457, 52.49064553], [13.48364327, 52.49046954], [13.48399272, 52.49058946], [13.48402554, 52.49056495], [13.48430395, 52.49070918], [13.48408948, 52.49087733], [13.48396106, 52.4909458], [13.48367698, 52.49082525], [13.48371139, 52.49079955], [13.48346457, 52.49064553]]]]}}, {"type": "Feature", "properties": {"id": "versorggruen_wald_2020.2393", "importid": 2393, "typ": "Wald"}, "geometry": {"type": "MultiPolygon", "coordinates": [[[[13.48497775, 52.48964968], [13.48501547, 52.48948621], [13.48514109, 52.48940109], [13.48539948, 52.48939357], [13.4855394, 52.48941052], [13.48554268, 52.48943431], [13.48560452, 52.4894449], [13.48561512, 52.48943866], [13.4859832, 52.48954281], [13.48609315, 52.48960258], [13.48614867, 52.48967929], [13.48616735, 52.48968301], [13.48618661, 52.48970888], [13.48615436, 52.48971859], [13.48611098, 52.48971592], [13.48590353, 52.48975978], [13.48582879, 52.48972584], [13.48568686, 52.48969311], [13.48561656, 52.4896418], [13.48551527, 52.48962534], [13.48543019, 52.48964535], [13.48535321, 52.48963968], [13.48509177, 52.48967163], [13.48497775, 52.48964968]]]]}}, {"type": "Feature", "properties": {"id": "versorggruen_wald_2020.2396", "importid": 2396, "typ": "Wald"}, "geometry": {"type": "MultiPolygon", "coordinates": [[[[13.47976662, 52.48446343], [13.48179949, 52.48214344], [13.48241912, 52.48232443], [13.48411685, 52.48311948], [13.48583622, 52.48187193], [13.48624767, 52.48161926], [13.48678512, 52.4818751], [13.49101863, 52.48410993], [13.49087855, 52.48418914], [13.49031857, 52.48429464], [13.48742632, 52.48449555], [13.48635443, 52.48461154], [13.48089728, 52.48499006], [13.48037324, 52.48472309], [13.48028766, 52.48477946], [13.48014862, 52.48471551], [13.47976662, 52.48446343]]]]}}, {"type": "Feature", "properties": {"id": "versorggruen_wald_2020.2413", "importid": 2413, "typ": "Wald"}, "geometry": {"type": "MultiPolygon", "coordinates": [[[[13.47586242, 52.4759494], [13.48053005, 52.47266521], [13.48060305, 52.47266502], [13.48095381, 52.47282683], [13.48052762, 52.47311842], [13.48035782, 52.47319649], [13.47612119, 52.47609101], [13.47586242, 52.4759494]]]]}}, {"type": "Feature", "properties": {"id": "versorggruen_wald_2020.2420", "importid": 2420, "typ": "Wald"}, "geometry": {"type": "MultiPolygon", "coordinates": [[[[13.48364954, 52.48012427], [13.4836512, 52.48009458], [13.4841268, 52.4795464], [13.48755484, 52.4757233], [13.4925014, 52.47020535], [13.49417228, 52.47156544], [13.49396545, 52.47341459], [13.49378182, 52.4734594], [13.49222187, 52.47326177], [13.49076061, 52.47306424], [13.49054929, 52.47358379], [13.49390058, 52.47399452], [13.49369501, 52.47582405], [13.49359305, 52.47637135], [13.49322953, 52.47752203], [13.49203678, 52.48188909], [13.49182545, 52.48286691], [13.49177597, 52.48302586], [13.49179208, 52.4831812], [13.49170197, 52.48342824], [13.49159643, 52.48361477], [13.49147958, 52.48379561], [13.49134567, 52.48395136], [13.49127839, 52.48398354], [13.49115654, 52.48399072], [13.49103261, 52.48396821], [13.49096116, 52.48394213], [13.48701018, 52.48187907], [13.48413464, 52.48041068], [13.48370041, 52.4801698], [13.48364954, 52.48012427]], [[13.48973381, 52.47647798], [13.49113542, 52.47679046], [13.49141468, 52.47687307], [13.4918085, 52.4770381], [13.49194491, 52.47650185], [13.4921019, 52.47576142], [13.49006176, 52.47534459], [13.48973381, 52.47647798]], [[13.4873949, 52.48034339], [13.48754629, 52.48090054], [13.48779901, 52.48099841], [13.48857163, 52.48093426], [13.4884713, 52.48107644], [13.48805115, 52.48128329], [13.48828993, 52.48158034], [13.48868819, 52.48198736], [13.49000133, 52.48155388], [13.48964412, 52.48079322], [13.48881178, 52.48079225], [13.48784809, 52.48021383], [13.48792181, 52.48006349], [13.48792947, 52.4797464], [13.48753649, 52.47978659], [13.48746187, 52.48022151], [13.4873949, 52.48034339]]]]}}, {"type": "Feature", "properties": {"id": "versorggruen_wald_2020.2421", "importid": 2421, "typ": "Wald"}, "geometry": {"type": "MultiPolygon", "coordinates": [[[[13.4873949, 52.48034339], [13.48746187, 52.48022151], [13.48753649, 52.47978659], [13.48792947, 52.4797464], [13.48792181, 52.48006349], [13.48784809, 52.48021383], [13.48881178, 52.48079225], [13.48964412, 52.48079322], [13.49000133, 52.48155388], [13.48868819, 52.48198736], [13.48828993, 52.48158034], [13.48805115, 52.48128329], [13.4884713, 52.48107644], [13.48857163, 52.48093426], [13.48779901, 52.48099841], [13.48754629, 52.48090054], [13.4873949, 52.48034339]]]]}}, {"type": "Feature", "properties": {"id": "versorggruen_wald_2020.2422", "importid": 2422, "typ": "Wald"}, "geometry": {"type": "MultiPolygon", "coordinates": [[[[13.49390058, 52.47399452], [13.49054929, 52.47358379], [13.49076061, 52.47306424], [13.49222187, 52.47326177], [13.49378182, 52.4734594], [13.49396545, 52.47341459], [13.49390058, 52.47399452]]]]}}, {"type": "Feature", "properties": {"id": "versorggruen_wald_2020.2423", "importid": 2423, "typ": "Wald"}, "geometry": {"type": "MultiPolygon", "coordinates": [[[[13.49210879, 52.48289013], [13.49235953, 52.48188643], [13.49335431, 52.47811828], [13.49384653, 52.4764359], [13.49405269, 52.47658535], [13.49432923, 52.47686633], [13.49458183, 52.47720051], [13.49484515, 52.47765025], [13.49502077, 52.47791616], [13.49519623, 52.47823951], [13.49530112, 52.47856279], [13.49528809, 52.47898648], [13.49520441, 52.47943881], [13.49461061, 52.48134839], [13.49451571, 52.48161399], [13.49433863, 52.48182924], [13.49407146, 52.48199005], [13.49210879, 52.48289013]]]]}}, {"type": "Feature", "properties": {"id": "versorggruen_wald_2020.2424", "importid": 2424, "typ": "Wald"}, "geometry": {"type": "MultiPolygon", "coordinates": [[[[13.49384653, 52.4764359], [13.49393823, 52.47612247], [13.49418496, 52.47406691], [13.49419371, 52.47399397], [13.49424044, 52.4739489], [13.49430787, 52.47394985], [13.49443733, 52.47409002], [13.49444291, 52.4742833], [13.49440252, 52.47517444], [13.49489173, 52.47666184], [13.49527035, 52.47752575], [13.49549622, 52.4781257], [13.49553195, 52.47831484], [13.49554682, 52.4787026], [13.4950086, 52.48063276], [13.49474631, 52.48149447], [13.49441555, 52.48218343], [13.49407881, 52.48198668], [13.49407146, 52.48199005], [13.49433863, 52.48182924], [13.49451571, 52.48161399], [13.49461061, 52.48134839], [13.49520441, 52.47943881], [13.49528809, 52.47898648], [13.49530112, 52.47856279], [13.49519623, 52.47823951], [13.49502077, 52.47791616], [13.49484515, 52.47765025], [13.49458183, 52.47720051], [13.49432923, 52.47686633], [13.49405269, 52.47658535], [13.49384653, 52.4764359]]]]}}, {"type": "Feature", "properties": {"id": "versorggruen_wald_2020.2425", "importid": 2425, "typ": "Wald"}, "geometry": {"type": "MultiPolygon", "coordinates": [[[[13.4824936, 52.48494557], [13.48569103, 52.486347], [13.48583717, 52.48646216], [13.48612402, 52.4865794], [13.48653612, 52.4866788], [13.48698519, 52.48673778], [13.48724296, 52.48673358], [13.48748613, 52.48669341], [13.48778096, 52.48661732], [13.48805254, 52.48690538], [13.48827322, 52.4868203], [13.48946194, 52.48640503], [13.48998348, 52.48706202], [13.49118149, 52.48666386], [13.49043534, 52.4860694], [13.49196088, 52.48556316], [13.49170933, 52.48527178], [13.49272013, 52.48492475], [13.49276795, 52.48457093], [13.49308722, 52.48432313], [13.49358168, 52.48408669], [13.49337629, 52.48445354], [13.49306808, 52.48488632], [13.4926765, 52.48551549], [13.49224871, 52.48598687], [13.49087237, 52.48698615], [13.49053446, 52.48720186], [13.49006307, 52.48737338], [13.48960575, 52.48752873], [13.48810719, 52.48763506], [13.48724626, 52.48754508], [13.48685561, 52.48747027], [13.48587154, 52.48714174], [13.48441571, 52.48658092], [13.4843477, 52.48657627], [13.48333966, 52.48611448], [13.48243199, 52.48579062], [13.48089772, 52.48505286], [13.4824936, 52.48494557]]]]}}, {"type": "Feature", "properties": {"id": "versorggruen_wald_2020.2693", "importid": 2693, "typ": "Wald"}, "geometry": {"type": "MultiPolygon", "coordinates": [[[[13.40930681, 52.46092994], [13.40929532, 52.4608011], [13.41014202, 52.46012387], [13.41000496, 52.4600153], [13.41131268, 52.45997193], [13.41137188, 52.4602012], [13.41149946, 52.4609285], [13.41017406, 52.46115339], [13.40841615, 52.46146436], [13.40875848, 52.46133119], [13.4090099, 52.46120668], [13.40926473, 52.46105799], [13.41009521, 52.46048114], [13.40998611, 52.46042688], [13.40978577, 52.46059416], [13.40937373, 52.46089086], [13.40930681, 52.46092994]]]]}}]}