{"type": "FeatureCollection", "name": "ac_krankenhaeuser2022_neukoelln", "features": [{"type": "Feature", "properties": {"id": "ac_krankenhaeuser2022.71", "importid": 71, "typ": "Krankenhaus"}, "geometry": {"type": "Polygon", "coordinates": [[[13.4081415, 52.41468864], [13.40815972, 52.41468804], [13.40818767, 52.41471406], [13.40822516, 52.41471261], [13.40824763, 52.41468479], [13.408266, 52.4146842], [13.40825987, 52.4146167], [13.40813521, 52.41462104], [13.4081415, 52.41468864]]]}}, {"type": "Feature", "properties": {"id": "ac_krankenhaeuser2022.612", "importid": 612, "typ": "Krankenhaus"}, "geometry": {"type": "Polygon", "coordinates": [[[13.46979535, 52.42917748], [13.46977442, 52.42919021], [13.46988405, 52.42925741], [13.46988348, 52.42941045], [13.46987838, 52.42941053], [13.46987838, 52.42940823], [13.46978405, 52.42940825], [13.46978427, 52.42981022], [13.47001521, 52.42981018], [13.47001518, 52.42974727], [13.47011401, 52.42974657], [13.4701142, 52.42961722], [13.47022005, 52.42961728], [13.47022071, 52.42935727], [13.47012504, 52.42935706], [13.47012504, 52.42935926], [13.47011459, 52.42935924], [13.47011494, 52.4293081], [13.4701883, 52.42927255], [13.47019329, 52.42922367], [13.47009884, 52.4291533], [13.47005918, 52.42917347], [13.47007513, 52.42918541], [13.47003673, 52.42920474], [13.46989454, 52.42911738], [13.46986685, 52.42913401], [13.46983725, 52.42911552], [13.46976459, 52.42916053], [13.46979535, 52.42917748]]]}}, {"type": "Feature", "properties": {"id": "ac_krankenhaeuser2022.647", "importid": 647, "typ": "Krankenhaus"}, "geometry": {"type": "Polygon", "coordinates": [[[13.47022029, 52.42950801], [13.47031209, 52.42950799], [13.47031205, 52.42951671], [13.47033632, 52.42951673], [13.47035224, 52.42954503], [13.47035272, 52.42956313], [13.47034531, 52.4295868], [13.47033393, 52.42960351], [13.470312, 52.42962609], [13.47030662, 52.42963496], [13.47030257, 52.42964893], [13.4703035, 52.42966309], [13.47030933, 52.42967681], [13.47031582, 52.4296854], [13.47034041, 52.42970774], [13.4703702, 52.42968958], [13.47038307, 52.42969753], [13.47063209, 52.4295457], [13.47043339, 52.42939971], [13.47041924, 52.42940696], [13.47037241, 52.42937254], [13.4703483, 52.42938815], [13.47032764, 52.42940791], [13.47031467, 52.42942998], [13.47031041, 52.42944738], [13.47022036, 52.42944734], [13.47022029, 52.42950801]]]}}, {"type": "Feature", "properties": {"id": "ac_krankenhaeuser2022.707", "importid": 707, "typ": "Krankenhaus"}, "geometry": {"type": "Polygon", "coordinates": [[[13.43682214, 52.45059872], [13.43692322, 52.45059493], [13.43692293, 52.45059178], [13.43700767, 52.45058842], [13.43711472, 52.45073328], [13.43711987, 52.45073193], [13.43713304, 52.45075002], [13.43734718, 52.45075341], [13.43722389, 52.45058625], [13.43721462, 52.45058875], [13.43718011, 52.45054142], [13.43718881, 52.45053892], [13.43701828, 52.45030769], [13.43700976, 52.45031002], [13.43698958, 52.45028086], [13.4369984, 52.45028061], [13.43699432, 52.4502763], [13.43678967, 52.45028431], [13.43682214, 52.45059872]]]}}, {"type": "Feature", "properties": {"id": "ac_krankenhaeuser2022.708", "importid": 708, "typ": "Krankenhaus"}, "geometry": {"type": "Polygon", "coordinates": [[[13.4351385, 52.44627811], [13.43507563, 52.44629328], [13.43511361, 52.44635248], [13.43517678, 52.44633757], [13.43526108, 52.44646685], [13.4355442, 52.44639928], [13.43547057, 52.44628215], [13.43550355, 52.44627394], [13.43537296, 52.44606946], [13.43535132, 52.44607454], [13.43505554, 52.44614605], [13.4351385, 52.44627811]]]}}, {"type": "Feature", "properties": {"id": "ac_krankenhaeuser2022.709", "importid": 709, "typ": "Krankenhaus"}, "geometry": {"type": "Polygon", "coordinates": [[[13.44460954, 52.45477951], [13.44459717, 52.45481759], [13.44477273, 52.45483889], [13.44485943, 52.45457536], [13.44465506, 52.45455078], [13.44458801, 52.45475566], [13.44458131, 52.45477614], [13.44460954, 52.45477951]]]}}, {"type": "Feature", "properties": {"id": "ac_krankenhaeuser2022.710", "importid": 710, "typ": "Krankenhaus"}, "geometry": {"type": "Polygon", "coordinates": [[[13.45594793, 52.43590031], [13.45597921, 52.43594942], [13.45596802, 52.43594914], [13.45596646, 52.43597618], [13.45599659, 52.43597694], [13.45619712, 52.4362897], [13.45661157, 52.43619028], [13.45653465, 52.43607972], [13.45630667, 52.43613439], [13.45624413, 52.43603535], [13.45640262, 52.43603963], [13.45640123, 52.43605814], [13.45645181, 52.43605929], [13.4564529, 52.43604096], [13.45651053, 52.43604248], [13.45661292, 52.43618992], [13.45704941, 52.43608522], [13.45694945, 52.43592781], [13.45664231, 52.43591919], [13.4566465, 52.43590262], [13.45664699, 52.43588586], [13.45663878, 52.43585649], [13.4566259, 52.43583653], [13.45660759, 52.43581822], [13.45659657, 52.43580985], [13.45677774, 52.43569158], [13.45680809, 52.4357126], [13.45683495, 52.43573533], [13.45685806, 52.43575955], [13.45687925, 52.43578823], [13.45690114, 52.43583348], [13.45688333, 52.43583561], [13.45689227, 52.43588423], [13.45714456, 52.4358908], [13.45714458, 52.43588612], [13.4571168, 52.43588572], [13.45711628, 52.43586694], [13.45712569, 52.43586633], [13.45711806, 52.43582408], [13.4571085, 52.43582478], [13.45709876, 52.43579485], [13.45710789, 52.43579306], [13.4570876, 52.43575268], [13.45707848, 52.43575437], [13.45705978, 52.43572541], [13.45706831, 52.43572282], [13.45703772, 52.43568512], [13.45702918, 52.43568772], [13.45700268, 52.43566152], [13.45701033, 52.43565804], [13.45696885, 52.43562418], [13.45696118, 52.43562768], [13.45692776, 52.43560462], [13.45693424, 52.43560041], [13.45688406, 52.43557148], [13.45687742, 52.43557571], [13.45683722, 52.43555678], [13.45684253, 52.43555184], [13.45678528, 52.43552893], [13.45678011, 52.43553378], [13.45673473, 52.43551933], [13.45673843, 52.43551395], [13.45667482, 52.43549723], [13.45667113, 52.43550261], [13.45662308, 52.43549329], [13.45662517, 52.43548754], [13.45655682, 52.43547827], [13.45655474, 52.43548394], [13.45640817, 52.43547842], [13.45638273, 52.43547919], [13.45638157, 52.43547344], [13.45631288, 52.43547873], [13.45631419, 52.43548457], [13.45626534, 52.43549161], [13.45626243, 52.43548603], [13.45619621, 52.43549888], [13.45619913, 52.43550445], [13.45615276, 52.43551625], [13.45614837, 52.43551103], [13.45608742, 52.43553089], [13.45609196, 52.43553602], [13.45604911, 52.43555285], [13.45604325, 52.43554826], [13.45598859, 52.43557415], [13.45599446, 52.43557874], [13.45595762, 52.43559963], [13.45595057, 52.43559576], [13.45590413, 52.43562732], [13.45591117, 52.43563129], [13.45588094, 52.43565613], [13.45587287, 52.43565307], [13.45583641, 52.43568896], [13.45584463, 52.43569203], [13.45582203, 52.4357195], [13.45581322, 52.43571733], [13.45578718, 52.43575665], [13.45579599, 52.43575883], [13.45578176, 52.43578818], [13.4557725, 52.435787], [13.45575824, 52.43582814], [13.45576764, 52.43582932], [13.45576447, 52.43584801], [13.45569979, 52.4358463], [13.45569903, 52.43585116], [13.45595647, 52.43585827], [13.45597224, 52.4358103], [13.4559549, 52.43580731], [13.45597702, 52.43577146], [13.45599865, 52.43574593], [13.45602438, 52.43572186], [13.45605394, 52.4356995], [13.45609879, 52.43567272], [13.45626179, 52.43580048], [13.4563129, 52.43577808], [13.45629622, 52.43575801], [13.45631418, 52.43575309], [13.45622513, 52.43562482], [13.4562702, 52.43561498], [13.45630108, 52.43561002], [13.45634824, 52.43560504], [13.45638005, 52.43560339], [13.45638158, 52.43562424], [13.45650346, 52.43562783], [13.45650795, 52.43560698], [13.4565272, 52.43560898], [13.45656521, 52.43561438], [13.45660297, 52.43562178], [13.45665825, 52.43563658], [13.45655191, 52.43575973], [13.45656894, 52.43576569], [13.45654858, 52.43578462], [13.45651744, 52.4357746], [13.45649549, 52.43576951], [13.45647283, 52.43576576], [13.456438, 52.43576269], [13.45641455, 52.43576239], [13.45637953, 52.43576456], [13.45634541, 52.43576983], [13.45632352, 52.43577501], [13.45625459, 52.43580491], [13.45622964, 52.43582466], [13.45621543, 52.43584124], [13.45620541, 52.43585893], [13.45619871, 52.43588297], [13.45619889, 52.43590112], [13.45619993, 52.43590715], [13.45594793, 52.43590031]]]}}, {"type": "Feature", "properties": {"id": "ac_krankenhaeuser2022.711", "importid": 711, "typ": "Krankenhaus"}, "geometry": {"type": "Polygon", "coordinates": [[[13.4588365, 52.43887957], [13.45844755, 52.43827208], [13.45812079, 52.43843142], [13.4582422, 52.43862064], [13.45813747, 52.43864574], [13.45801625, 52.43845679], [13.45811987, 52.43843072], [13.45844663, 52.43827138], [13.45814437, 52.43779872], [13.45825902, 52.43777131], [13.45827128, 52.4377904], [13.45832839, 52.43777649], [13.45831627, 52.43775761], [13.45852375, 52.43770744], [13.45851207, 52.43768918], [13.45853462, 52.43768376], [13.45851448, 52.43765237], [13.45849197, 52.43765782], [13.45848004, 52.43763912], [13.45841684, 52.43765435], [13.45841195, 52.43764682], [13.45843127, 52.4376362], [13.45844671, 52.43762344], [13.45846004, 52.43760435], [13.45846417, 52.43759072], [13.45821519, 52.43756774], [13.45821249, 52.43758526], [13.45821631, 52.4376027], [13.45822062, 52.43761111], [13.45823374, 52.43762677], [13.45824241, 52.43763383], [13.45826337, 52.43764593], [13.45828826, 52.43765482], [13.45831578, 52.43766006], [13.45832602, 52.43767606], [13.45810106, 52.43772995], [13.45755232, 52.43687527], [13.45705165, 52.4369952], [13.4569978, 52.43691109], [13.45715225, 52.43687416], [13.45720556, 52.43695743], [13.45755179, 52.43687443], [13.4571856, 52.4363029], [13.45633788, 52.43650588], [13.45670537, 52.43707945], [13.45665733, 52.43708997], [13.45658965, 52.43698336], [13.45654888, 52.43698633], [13.45648971, 52.43699665], [13.45645262, 52.43700722], [13.45640183, 52.43702824], [13.45646919, 52.43713456], [13.45660288, 52.43734265], [13.45661697, 52.43734022], [13.45663161, 52.43733983], [13.45664629, 52.43734155], [13.45667977, 52.43734983], [13.45669518, 52.43735075], [13.45671182, 52.43734936], [13.45680248, 52.43749032], [13.4568468, 52.43748037], [13.45674339, 52.43731884], [13.45679598, 52.43730628], [13.45669244, 52.4371446], [13.45673982, 52.43713326], [13.45694676, 52.43745647], [13.45684731, 52.43748122], [13.4567115, 52.43751224], [13.45689159, 52.43779331], [13.45706403, 52.43772341], [13.45699512, 52.43761646], [13.45704199, 52.4376052], [13.45700812, 52.43755228], [13.45696087, 52.43756358], [13.45693407, 52.43752174], [13.45698132, 52.43751044], [13.45725231, 52.43793119], [13.45720285, 52.4379437], [13.45718633, 52.43791798], [13.45716926, 52.437922], [13.45714618, 52.43788395], [13.45713248, 52.43788725], [13.45710822, 52.43784903], [13.45695973, 52.43788467], [13.45698472, 52.43792218], [13.45697472, 52.43792459], [13.45706826, 52.43807238], [13.45707826, 52.43806996], [13.45710149, 52.43810774], [13.45725001, 52.4380721], [13.45722633, 52.43803468], [13.45724001, 52.43803128], [13.45721648, 52.43799567], [13.45723355, 52.43799156], [13.4572166, 52.43796493], [13.45726619, 52.43795287], [13.45784372, 52.43885661], [13.45798911, 52.43908264], [13.4588365, 52.43887957]]]}}, {"type": "Feature", "properties": {"id": "ac_krankenhaeuser2022.712", "importid": 712, "typ": "Krankenhaus"}, "geometry": {"type": "Polygon", "coordinates": [[[13.43521544, 52.46542965], [13.43524621, 52.46532076], [13.43536985, 52.46533391], [13.43540582, 52.46520586], [13.43543836, 52.46520924], [13.43543628, 52.46521659], [13.436126, 52.46528938], [13.43612973, 52.46527609], [13.4361729, 52.46528065], [13.43617594, 52.46526994], [13.43618899, 52.46527132], [13.4362174, 52.46517107], [13.43571542, 52.46511766], [13.43571668, 52.46511334], [13.43531469, 52.46507066], [13.43530962, 52.4650877], [13.43530637, 52.46508734], [13.43530345, 52.46509695], [13.43524751, 52.4650911], [13.43525245, 52.46507427], [13.43515237, 52.46506385], [13.43515271, 52.46506284], [13.43514999, 52.46506273], [13.4351512, 52.46505818], [13.43479979, 52.46502105], [13.43476749, 52.46513267], [13.43480961, 52.46513711], [13.43480597, 52.46514995], [13.43520382, 52.46519191], [13.43516991, 52.46531223], [13.43509043, 52.46530387], [13.43505939, 52.46541332], [13.43521544, 52.46542965]]]}}, {"type": "Feature", "properties": {"id": "ac_krankenhaeuser2022.713", "importid": 713, "typ": "Krankenhaus"}, "geometry": {"type": "Polygon", "coordinates": [[[13.43500122, 52.46553137], [13.43501136, 52.46553255], [13.43500629, 52.46554818], [13.43499615, 52.4655469], [13.43498377, 52.46558463], [13.43500627, 52.46558736], [13.43496317, 52.46571912], [13.4350092, 52.46572468], [13.43505215, 52.46559291], [13.43511774, 52.46560093], [13.43512071, 52.46559186], [13.43514264, 52.46559459], [13.43513966, 52.46560358], [13.43528995, 52.46562125], [13.4353253, 52.46550897], [13.4351953, 52.46549322], [13.43521544, 52.46542965], [13.43504058, 52.46541038], [13.43501658, 52.46548394], [13.43502701, 52.46548522], [13.43502194, 52.46550084], [13.4350115, 52.46549957], [13.43500793, 52.46551071], [13.43500122, 52.46553137]]]}}, {"type": "Feature", "properties": {"id": "ac_krankenhaeuser2022.714", "importid": 714, "typ": "Krankenhaus"}, "geometry": {"type": "Polygon", "coordinates": [[[13.43489133, 52.46582964], [13.43488716, 52.46584265], [13.43500245, 52.46585678], [13.43500677, 52.46584375], [13.43520926, 52.46586825], [13.43524479, 52.46575319], [13.43519082, 52.46574664], [13.43519515, 52.46573289], [13.43502426, 52.46571186], [13.43501964, 52.46572587], [13.43472627, 52.46568963], [13.43472394, 52.46570082], [13.43468973, 52.46580496], [13.43489133, 52.46582964]]]}}, {"type": "Feature", "properties": {"id": "ac_krankenhaeuser2022.715", "importid": 715, "typ": "Krankenhaus"}, "geometry": {"type": "Polygon", "coordinates": [[[13.42961972, 52.47908563], [13.42964149, 52.47902223], [13.42967326, 52.4789272], [13.42891144, 52.47883121], [13.42897557, 52.47864215], [13.42875448, 52.47861446], [13.42863723, 52.47896214], [13.42961972, 52.47908563]]]}}, {"type": "Feature", "properties": {"id": "ac_krankenhaeuser2022.719", "importid": 719, "typ": "Krankenhaus"}, "geometry": {"type": "Polygon", "coordinates": [[[13.49411739, 52.42014937], [13.49421948, 52.42007248], [13.49423713, 52.42007151], [13.49424905, 52.42006253], [13.49424689, 52.42005183], [13.49429683, 52.42001415], [13.49425662, 52.41999415], [13.49425473, 52.41998346], [13.49424036, 52.41997634], [13.4942227, 52.4199774], [13.49418293, 52.41995767], [13.49416894, 52.41996818], [13.49415101, 52.41996923], [13.49413937, 52.41997802], [13.49414153, 52.41998881], [13.49408556, 52.4200309], [13.49406777, 52.42003205], [13.49405598, 52.42004102], [13.49405801, 52.42005171], [13.49400364, 52.42009263], [13.49411739, 52.42014937]]]}}, {"type": "Feature", "properties": {"id": "ac_krankenhaeuser2022.735", "importid": 735, "typ": "Krankenhaus"}, "geometry": {"type": "Polygon", "coordinates": [[[13.45824291, 52.43381879], [13.45824599, 52.43381753], [13.45828262, 52.4338547], [13.45827937, 52.43385587], [13.45828406, 52.43386064], [13.45828731, 52.43385948], [13.45832524, 52.43389798], [13.458322, 52.43389916], [13.45832669, 52.43390383], [13.45832993, 52.43390276], [13.45836801, 52.43394128], [13.45836491, 52.43394244], [13.45836638, 52.43394406], [13.4583624, 52.43394558], [13.45837407, 52.43397175], [13.45840634, 52.43399031], [13.45841062, 52.43398878], [13.45841208, 52.43399031], [13.45850498, 52.43395639], [13.45858906, 52.43404143], [13.4587466, 52.43398351], [13.4587217, 52.43395849], [13.4587326, 52.43395437], [13.45873615, 52.43394593], [13.45870862, 52.43391794], [13.45869481, 52.43391586], [13.45868392, 52.43391989], [13.45865784, 52.43389352], [13.45865461, 52.43389468], [13.45861682, 52.43385625], [13.45861991, 52.43385491], [13.45861522, 52.43385015], [13.45861199, 52.4338514], [13.4585739, 52.43381279], [13.458577, 52.43381162], [13.45857231, 52.43380694], [13.45856936, 52.43380802], [13.45853127, 52.43376959], [13.45853452, 52.43376834], [13.45852968, 52.43376366], [13.4585266, 52.43376483], [13.45848983, 52.43372738], [13.45849306, 52.4337264], [13.45848867, 52.4337219], [13.45840828, 52.43375144], [13.45841003, 52.43375342], [13.45839119, 52.4337605], [13.45838665, 52.43375582], [13.45836842, 52.43375328], [13.45833958, 52.43376374], [13.45833482, 52.4337748], [13.45833952, 52.43377939], [13.45832022, 52.43378646], [13.45831847, 52.43378447], [13.45823822, 52.43381401], [13.45824291, 52.43381879]]]}}, {"type": "Feature", "properties": {"id": "ac_krankenhaeuser2022.737", "importid": 737, "typ": "Krankenhaus"}, "geometry": {"type": "Polygon", "coordinates": [[[13.51194006, 52.42360956], [13.51192226, 52.42361529], [13.51190851, 52.42364503], [13.51191863, 52.42365609], [13.51191508, 52.42366363], [13.51196034, 52.42367131], [13.51195561, 52.42368165], [13.51196791, 52.42369388], [13.51198967, 52.42369732], [13.51201173, 52.42369105], [13.51201632, 52.4236808], [13.51206009, 52.4236883], [13.51206365, 52.42368058], [13.51208204, 52.42367413], [13.51209563, 52.42364485], [13.51208567, 52.42363324], [13.51212587, 52.42354782], [13.51197997, 52.42352278], [13.51195676, 52.42357308], [13.51194006, 52.42360956]]]}}, {"type": "Feature", "properties": {"id": "ac_krankenhaeuser2022.738", "importid": 738, "typ": "Krankenhaus"}, "geometry": {"type": "Polygon", "coordinates": [[[13.45931653, 52.43534402], [13.45944177, 52.43530405], [13.45945425, 52.43531683], [13.45954201, 52.43528573], [13.45960727, 52.43536265], [13.45980864, 52.43529591], [13.45961541, 52.43508079], [13.45945793, 52.43513322], [13.4592065, 52.43521694], [13.45931653, 52.43534402]]]}}, {"type": "Feature", "properties": {"id": "ac_krankenhaeuser2022.739", "importid": 739, "typ": "Krankenhaus"}, "geometry": {"type": "Polygon", "coordinates": [[[13.45740003, 52.43426467], [13.45740105, 52.43426575], [13.45770003, 52.4341756], [13.45771278, 52.43418595], [13.45779378, 52.4341511], [13.45778836, 52.43414642], [13.45785405, 52.43411713], [13.45784936, 52.43411362], [13.45790179, 52.43409051], [13.45793839, 52.43409388], [13.45802397, 52.43416554], [13.45823341, 52.43407193], [13.45807527, 52.43393951], [13.45813374, 52.43391362], [13.45814421, 52.43390564], [13.45814674, 52.43389549], [13.45814076, 52.43388577], [13.45812755, 52.43387928], [13.45811065, 52.43387764], [13.4580949, 52.4338813], [13.45807737, 52.43388946], [13.45802432, 52.43384499], [13.45763519, 52.43401868], [13.4576242, 52.43400941], [13.45756749, 52.43403575], [13.45757291, 52.43404259], [13.45712925, 52.43417594], [13.45717167, 52.43422956], [13.45715239, 52.43423511], [13.45713943, 52.43424192], [13.45713381, 52.4342518], [13.45713729, 52.43426196], [13.45714873, 52.43426971], [13.45716503, 52.43427296], [13.45718167, 52.43427056], [13.45720139, 52.43426475], [13.45723958, 52.43431279], [13.45740003, 52.43426467]]]}}, {"type": "Feature", "properties": {"id": "ac_krankenhaeuser2022.740", "importid": 740, "typ": "Krankenhaus"}, "geometry": {"type": "Polygon", "coordinates": [[[13.50841561, 52.42290476], [13.50844997, 52.42286507], [13.50834599, 52.42283118], [13.50831149, 52.42287105], [13.50841561, 52.42290476]]]}}, {"type": "Feature", "properties": {"id": "ac_krankenhaeuser2022.741", "importid": 741, "typ": "Krankenhaus"}, "geometry": {"type": "Polygon", "coordinates": [[[13.46005734, 52.43618744], [13.46008196, 52.43621516], [13.45975115, 52.43632144], [13.45981064, 52.43639405], [13.45987677, 52.43637328], [13.45988938, 52.43639222], [13.4600965, 52.43632523], [13.46010559, 52.43633649], [13.4601371, 52.43632685], [13.4601284, 52.43631665], [13.46072308, 52.4361274], [13.46064698, 52.436035], [13.46055788, 52.43606387], [13.46050742, 52.4360072], [13.46047052, 52.43601912], [13.46052033, 52.43607473], [13.46047105, 52.43608972], [13.46044246, 52.43605712], [13.46026722, 52.43611394], [13.46027121, 52.43611859], [13.46007803, 52.43618079], [13.46005734, 52.43618744]]]}}, {"type": "Feature", "properties": {"id": "ac_krankenhaeuser2022.742", "importid": 742, "typ": "Krankenhaus"}, "geometry": {"type": "Polygon", "coordinates": [[[13.45698942, 52.43438289], [13.45699507, 52.43438869], [13.45701145, 52.43438329], [13.45704329, 52.43442695], [13.45702869, 52.43443236], [13.45707089, 52.4344839], [13.45708786, 52.43447897], [13.45712124, 52.43452044], [13.45710582, 52.43452603], [13.45710984, 52.43453226], [13.45712745, 52.43452734], [13.45716153, 52.43456917], [13.4571432, 52.43457502], [13.45722065, 52.43467051], [13.45762773, 52.43454755], [13.45755038, 52.4344507], [13.45753428, 52.43445539], [13.45750356, 52.43441518], [13.4575162, 52.43441119], [13.45751107, 52.43440352], [13.45749645, 52.43440641], [13.45746383, 52.4343659], [13.45747783, 52.43436121], [13.45740003, 52.43426467], [13.45723958, 52.43431279], [13.45698942, 52.43438289]]]}}, {"type": "Feature", "properties": {"id": "ac_krankenhaeuser2022.743", "importid": 743, "typ": "Krankenhaus"}, "geometry": {"type": "Polygon", "coordinates": [[[13.46023806, 52.43662203], [13.46044386, 52.43655528], [13.46043061, 52.43653666], [13.46068471, 52.43645467], [13.46069842, 52.43647271], [13.46083995, 52.43642681], [13.46097347, 52.43657865], [13.46046534, 52.43674554], [13.46057463, 52.43687105], [13.46073736, 52.43681761], [13.46072463, 52.43680124], [13.46095397, 52.43672598], [13.46096794, 52.43674188], [13.46107943, 52.43670526], [13.46121061, 52.43685443], [13.46091682, 52.43695197], [13.46104032, 52.43709091], [13.46133117, 52.43699434], [13.46146598, 52.437146], [13.46096066, 52.43731044], [13.46107074, 52.43743652], [13.46124337, 52.43738023], [13.46122318, 52.4373571], [13.46143497, 52.43728805], [13.46145529, 52.43731135], [13.46157343, 52.43727284], [13.46170967, 52.4374289], [13.46111091, 52.4376229], [13.46122227, 52.4377501], [13.4614332, 52.43768112], [13.4614126, 52.4376576], [13.46166371, 52.4375755], [13.46168445, 52.43759919], [13.46197396, 52.43750462], [13.46186292, 52.43737771], [13.46182242, 52.43739096], [13.46168564, 52.43723473], [13.46172823, 52.43722078], [13.46161617, 52.4370928], [13.46161049, 52.43709465], [13.46146764, 52.43693122], [13.46145862, 52.43693418], [13.46136062, 52.43682206], [13.46133706, 52.43682975], [13.46119508, 52.43666728], [13.46123252, 52.43665498], [13.4611224, 52.43652975], [13.46108238, 52.43654289], [13.46094917, 52.43639138], [13.46099027, 52.43637805], [13.46088319, 52.43625459], [13.46012694, 52.43649463], [13.46023806, 52.43662203]]]}}, {"type": "Feature", "properties": {"id": "ac_krankenhaeuser2022.744", "importid": 744, "typ": "Krankenhaus"}, "geometry": {"type": "Polygon", "coordinates": [[[13.45805911, 52.43463814], [13.45819961, 52.43459634], [13.45820628, 52.4346026], [13.45825959, 52.43458528], [13.45825586, 52.43457912], [13.45844151, 52.43452272], [13.45843777, 52.43451812], [13.45864026, 52.43445643], [13.45864621, 52.43446168], [13.45872636, 52.43443541], [13.45866594, 52.43435655], [13.45863893, 52.43436459], [13.45845303, 52.43413159], [13.45822634, 52.43420025], [13.45822661, 52.43420143], [13.45818958, 52.4342138], [13.45830574, 52.43435851], [13.45792715, 52.43447267], [13.45805911, 52.43463814]]]}}, {"type": "Feature", "properties": {"id": "ac_krankenhaeuser2022.745", "importid": 745, "typ": "Krankenhaus"}, "geometry": {"type": "Polygon", "coordinates": [[[13.45818482, 52.4359789], [13.45814339, 52.43593498], [13.45817424, 52.43592381], [13.45811106, 52.43585155], [13.45795057, 52.43590609], [13.45805312, 52.43601945], [13.45818482, 52.4359789]]]}}, {"type": "Feature", "properties": {"id": "ac_krankenhaeuser2022.746", "importid": 746, "typ": "Krankenhaus"}, "geometry": {"type": "Polygon", "coordinates": [[[13.46079518, 52.43828602], [13.46098918, 52.43822133], [13.46098673, 52.43821853], [13.46130338, 52.43811497], [13.46130617, 52.43811814], [13.46150549, 52.4380526], [13.46132995, 52.43785321], [13.46129258, 52.4378655], [13.46127664, 52.43784739], [13.46119983, 52.43787265], [13.4612161, 52.43789111], [13.46113325, 52.43791835], [13.46122233, 52.43801953], [13.46090224, 52.43812479], [13.46081109, 52.43802126], [13.46061802, 52.43808807], [13.46073497, 52.43821875], [13.46079518, 52.43828602]]]}}, {"type": "Feature", "properties": {"id": "ac_krankenhaeuser2022.747", "importid": 747, "typ": "Krankenhaus"}, "geometry": {"type": "Polygon", "coordinates": [[[13.45758772, 52.43550671], [13.45760573, 52.43550108], [13.45763841, 52.43553627], [13.45768324, 52.43552267], [13.45767951, 52.43551901], [13.45794998, 52.43543194], [13.45796178, 52.43544261], [13.45795309, 52.43544535], [13.45800355, 52.43548963], [13.45801023, 52.43548645], [13.45807081, 52.4355451], [13.45817279, 52.43551177], [13.4580701, 52.43539448], [13.45809143, 52.43538824], [13.45799516, 52.43527856], [13.45789283, 52.43531115], [13.45789541, 52.43531415], [13.45758925, 52.43541403], [13.4575862, 52.43541073], [13.45752342, 52.43543239], [13.45758772, 52.43550671]]]}}, {"type": "Feature", "properties": {"id": "ac_krankenhaeuser2022.748", "importid": 748, "typ": "Krankenhaus"}, "geometry": {"type": "Polygon", "coordinates": [[[13.44675722, 52.43654083], [13.44636041, 52.43653453], [13.4463556, 52.4366315], [13.44642441, 52.43663271], [13.44642458, 52.43662911], [13.44675311, 52.43663641], [13.44675722, 52.43654083]]]}}, {"type": "Feature", "properties": {"id": "ac_krankenhaeuser2022.749", "importid": 749, "typ": "Krankenhaus"}, "geometry": {"type": "Polygon", "coordinates": [[[13.46072371, 52.43849216], [13.4606007, 52.43834564], [13.46079316, 52.43828376], [13.46073497, 52.43821875], [13.46042806, 52.43831294], [13.46048395, 52.43837718], [13.46034432, 52.43842214], [13.46023565, 52.43840165], [13.46008414, 52.43822734], [13.46001003, 52.43825154], [13.45995158, 52.43818362], [13.45993433, 52.43818932], [13.45992024, 52.43817278], [13.46006898, 52.43812464], [13.46004826, 52.43810282], [13.46030767, 52.43801895], [13.46032574, 52.43804196], [13.46053237, 52.43797517], [13.46042395, 52.43785062], [13.45982622, 52.4380438], [13.45968839, 52.43788612], [13.45980732, 52.43784762], [13.45978614, 52.43782547], [13.46000284, 52.43775534], [13.46002126, 52.43777845], [13.46019414, 52.43772267], [13.46008575, 52.43759844], [13.45957932, 52.43776195], [13.45944123, 52.43760311], [13.4599267, 52.43744688], [13.45981774, 52.43732228], [13.4593331, 52.43747859], [13.4591959, 52.43731966], [13.45931417, 52.43728141], [13.45930023, 52.43726528], [13.45951326, 52.43719634], [13.45952729, 52.43721256], [13.45970035, 52.43715662], [13.45959292, 52.43703209], [13.4590877, 52.43719511], [13.45895068, 52.43703677], [13.4590852, 52.43699345], [13.45907044, 52.43697855], [13.45932924, 52.43689628], [13.45934149, 52.43691048], [13.45954796, 52.43684381], [13.45944029, 52.43671941], [13.45882689, 52.43691764], [13.45881257, 52.43690066], [13.45882977, 52.43689495], [13.45871998, 52.4367681], [13.45864508, 52.43679233], [13.45861293, 52.436755], [13.45855893, 52.43677505], [13.4585155, 52.4367991], [13.45853814, 52.43682694], [13.45850431, 52.43683819], [13.45861556, 52.43696564], [13.45863538, 52.43695942], [13.45864759, 52.4369732], [13.45858446, 52.43699383], [13.45861206, 52.43705078], [13.45863714, 52.43708731], [13.45866061, 52.43711521], [13.45867353, 52.43712877], [13.45875849, 52.43710116], [13.45877034, 52.43711427], [13.45874976, 52.43712083], [13.45886081, 52.43724879], [13.45888118, 52.43724214], [13.45889312, 52.43725598], [13.45880907, 52.43728331], [13.4588206, 52.43731159], [13.45883541, 52.43733931], [13.45885495, 52.43736877], [13.4588787, 52.43739753], [13.45889876, 52.43741772], [13.45900124, 52.43738444], [13.45901588, 52.43739734], [13.45899563, 52.43740394], [13.45910653, 52.43753192], [13.45912684, 52.43752529], [13.45913863, 52.43753909], [13.45903459, 52.43757279], [13.459046, 52.43760128], [13.45906078, 52.4376292], [13.45908046, 52.43765851], [13.45909802, 52.43768025], [13.45912393, 52.43770741], [13.45922581, 52.43767453], [13.45923826, 52.43768868], [13.45921769, 52.43769523], [13.45932864, 52.4378229], [13.45934887, 52.43781634], [13.45936105, 52.43783022], [13.45925827, 52.4378632], [13.45926538, 52.43788105], [13.45929427, 52.43793323], [13.45932376, 52.4379707], [13.45934946, 52.43799818], [13.45942454, 52.43797388], [13.45943629, 52.43798629], [13.45941631, 52.43799299], [13.45952722, 52.4381205], [13.45954743, 52.43811382], [13.4595596, 52.43812775], [13.45948365, 52.43815206], [13.45949518, 52.43818068], [13.45951009, 52.43820871], [13.45952435, 52.43823027], [13.45954773, 52.43825963], [13.45957306, 52.43828681], [13.45964914, 52.43826249], [13.45966126, 52.43827619], [13.45964099, 52.4382824], [13.45982208, 52.43849137], [13.45994848, 52.43845054], [13.45989436, 52.43838881], [13.45995364, 52.43836948], [13.46005641, 52.43848721], [13.46008548, 52.43849268], [13.4600789, 52.43850573], [13.46004794, 52.4384996], [13.46001564, 52.43856365], [13.46037761, 52.43863121], [13.46040985, 52.43856764], [13.46037981, 52.43856186], [13.46038619, 52.4385493], [13.46041428, 52.43855458], [13.46064824, 52.43847891], [13.46065266, 52.43848387], [13.46067482, 52.43850887], [13.46072371, 52.43849216]]]}}, {"type": "Feature", "properties": {"id": "ac_krankenhaeuser2022.750", "importid": 750, "typ": "Krankenhaus"}, "geometry": {"type": "Polygon", "coordinates": [[[13.4961954, 52.41693796], [13.49617592, 52.41695729], [13.49631956, 52.41701091], [13.4963597, 52.41696891], [13.49636821, 52.41697223], [13.49643968, 52.41690361], [13.4964318, 52.41690031], [13.49647021, 52.4168596], [13.49632868, 52.41680575], [13.49625399, 52.41687982], [13.49612935, 52.41680953], [13.49605794, 52.41685898], [13.49615932, 52.41691762], [13.4961954, 52.41693796]]]}}, {"type": "Feature", "properties": {"id": "ac_krankenhaeuser2022.751", "importid": 751, "typ": "Krankenhaus"}, "geometry": {"type": "Polygon", "coordinates": [[[13.45839912, 52.43587942], [13.45858831, 52.43582016], [13.45872562, 52.43597702], [13.45853158, 52.43603831], [13.45864628, 52.43617139], [13.45888164, 52.43609368], [13.45887433, 52.43608393], [13.45892361, 52.43607083], [13.45897833, 52.43613676], [13.45913567, 52.43608481], [13.45898568, 52.43591146], [13.45889941, 52.43593988], [13.45875393, 52.43576911], [13.45887399, 52.43572684], [13.45878135, 52.43561955], [13.45863807, 52.43566612], [13.45865011, 52.43567815], [13.45846001, 52.43573887], [13.45844948, 52.43572711], [13.45830574, 52.43577331], [13.45839912, 52.43587942]]]}}, {"type": "Feature", "properties": {"id": "ac_krankenhaeuser2022.752", "importid": 752, "typ": "Krankenhaus"}, "geometry": {"type": "Polygon", "coordinates": [[[13.45806814, 52.43603702], [13.45799696, 52.43605718], [13.45830286, 52.43640745], [13.45836336, 52.43639053], [13.45838001, 52.43640858], [13.45845006, 52.43638511], [13.45843304, 52.43636635], [13.45850365, 52.4363443], [13.45834527, 52.43616267], [13.4583756, 52.4361531], [13.45831201, 52.43608204], [13.45828419, 52.43609071], [13.45818482, 52.4359789], [13.45805312, 52.43601945], [13.45806814, 52.43603702]]]}}, {"type": "Feature", "properties": {"id": "ac_krankenhaeuser2022.753", "importid": 753, "typ": "Krankenhaus"}, "geometry": {"type": "Polygon", "coordinates": [[[13.45837687, 52.43547146], [13.45842138, 52.43545532], [13.45848313, 52.43552682], [13.45862386, 52.43548147], [13.45856242, 52.43540909], [13.45862568, 52.43538875], [13.45868634, 52.43545893], [13.45876493, 52.43543507], [13.45876169, 52.43543088], [13.45878094, 52.43542418], [13.45878348, 52.43542902], [13.45886126, 52.43540362], [13.45881335, 52.43535014], [13.45879305, 52.43535709], [13.45877945, 52.43533929], [13.45885222, 52.43531588], [13.45891445, 52.43538685], [13.4590536, 52.43534068], [13.4589164, 52.43517923], [13.45879715, 52.43521745], [13.4587306, 52.43514101], [13.45858984, 52.4351865], [13.45865748, 52.43526222], [13.45834143, 52.43536352], [13.45834722, 52.43537268], [13.45830499, 52.43538631], [13.45837687, 52.43547146]]]}}, {"type": "Feature", "properties": {"id": "ac_krankenhaeuser2022.754", "importid": 754, "typ": "Krankenhaus"}, "geometry": {"type": "Polygon", "coordinates": [[[13.49454815, 52.41697694], [13.49455387, 52.4169799], [13.49455835, 52.41700597], [13.49450728, 52.41697878], [13.49441742, 52.41704509], [13.49444018, 52.41705661], [13.49439216, 52.41709188], [13.49453538, 52.41716474], [13.49456131, 52.41714572], [13.49458375, 52.4171568], [13.49458737, 52.4171816], [13.49457955, 52.41718735], [13.49461552, 52.41720563], [13.49480081, 52.41706933], [13.49471251, 52.41702465], [13.49457686, 52.41695603], [13.49454815, 52.41697694]]]}}, {"type": "Feature", "properties": {"id": "ac_krankenhaeuser2022.755", "importid": 755, "typ": "Krankenhaus"}, "geometry": {"type": "Polygon", "coordinates": [[[13.45849253, 52.43662564], [13.45849704, 52.43662444], [13.45851835, 52.43664863], [13.45858729, 52.43662824], [13.45858183, 52.43662205], [13.45861111, 52.43661438], [13.45862315, 52.43662817], [13.45927732, 52.43641815], [13.45928683, 52.43642689], [13.45933674, 52.43640964], [13.45929366, 52.43635689], [13.459308, 52.43635221], [13.45924045, 52.43627268], [13.45859498, 52.43647873], [13.45858297, 52.43646648], [13.45840252, 52.43652237], [13.45849253, 52.43662564]]]}}]}