{
"type": "FeatureCollection",
"name": "ae_kita2022_neukoelln",
"crs": { "type": "name", "properties": { "name": "urn:ogc:def:crs:OGC:1.3:CRS84" } },
"features": [
{ "type": "Feature", "properties": { "id": "HAUS030890", "typ": "Kindertagesstätte" }, "geometry": { "type": "Polygon", "coordinates": [ [ [ 13.40356444, 52.41706933 ], [ 13.40358588, 52.41699611 ], [ 13.4035325, 52.4169916 ], [ 13.40353005, 52.41700246 ], [ 13.40346186, 52.41699682 ], [ 13.40346435, 52.41698585 ], [ 13.40337174, 52.41697802 ], [ 13.4033692, 52.41698916 ], [ 13.40329723, 52.41698322 ], [ 13.40329977, 52.41697194 ], [ 13.40325208, 52.41696791 ], [ 13.40323257, 52.4170449 ], [ 13.40356444, 52.41706933 ] ] ] } },
{ "type": "Feature", "properties": { "id": "HAUS031728", "typ": "Kindertagesstätte" }, "geometry": { "type": "Polygon", "coordinates": [ [ [ 13.41067749, 52.41581692 ], [ 13.41080946, 52.41580115 ], [ 13.41074219, 52.41559201 ], [ 13.41100942, 52.41556038 ], [ 13.41103669, 52.41564677 ], [ 13.41101008, 52.41564765 ], [ 13.41098471, 52.41565268 ], [ 13.4109623, 52.41566152 ], [ 13.41095269, 52.4156672 ], [ 13.41093821, 52.41567956 ], [ 13.41092938, 52.41569261 ], [ 13.41092551, 52.41570653 ], [ 13.41092727, 52.41572149 ], [ 13.41094051, 52.4157424 ], [ 13.41095522, 52.41575391 ], [ 13.41097329, 52.41576288 ], [ 13.41099418, 52.41576913 ], [ 13.41101684, 52.41577236 ], [ 13.41101881, 52.41576591 ], [ 13.41106329, 52.41577093 ], [ 13.41113279, 52.41576258 ], [ 13.41112901, 52.41575481 ], [ 13.41116577, 52.41574814 ], [ 13.41117062, 52.41575799 ], [ 13.41130869, 52.41574144 ], [ 13.41122206, 52.41547008 ], [ 13.41066139, 52.41553756 ], [ 13.41059053, 52.41554602 ], [ 13.41067749, 52.41581692 ] ] ] } },
{ "type": "Feature", "properties": { "id": "HAUS032760", "typ": "Kindertagesstätte" }, "geometry": { "type": "Polygon", "coordinates": [ [ [ 13.41086693, 52.41841099 ], [ 13.41087612, 52.41839582 ], [ 13.41103645, 52.41843367 ], [ 13.41102711, 52.4184483 ], [ 13.41120856, 52.41849078 ], [ 13.4112382, 52.41844321 ], [ 13.41125802, 52.41844783 ], [ 13.41126099, 52.41844298 ], [ 13.41122178, 52.41843393 ], [ 13.41124519, 52.41839649 ], [ 13.4112471, 52.41839694 ], [ 13.41125568, 52.41838321 ], [ 13.41117229, 52.41836373 ], [ 13.41116904, 52.41836885 ], [ 13.41103925, 52.41833851 ], [ 13.41104236, 52.4183333 ], [ 13.41098791, 52.41832071 ], [ 13.41098479, 52.41832592 ], [ 13.4109246, 52.41831215 ], [ 13.41094429, 52.41828092 ], [ 13.41093534, 52.41827883 ], [ 13.4108838, 52.41836069 ], [ 13.41088893, 52.41836196 ], [ 13.41085901, 52.41840918 ], [ 13.41086693, 52.41841099 ] ] ] } },
{ "type": "Feature", "properties": { "id": "HAUS033290", "typ": "Kindertagesstätte" }, "geometry": { "type": "Polygon", "coordinates": [ [ [ 13.40432373, 52.42213031 ], [ 13.40514687, 52.42201835 ], [ 13.40510883, 52.42195259 ], [ 13.40499833, 52.4219762 ], [ 13.40496159, 52.42191359 ], [ 13.40481356, 52.42194638 ], [ 13.40481166, 52.42194323 ], [ 13.4043259, 52.42204898 ], [ 13.40434938, 52.42208804 ], [ 13.40431656, 52.42209516 ], [ 13.40431147, 52.42208239 ], [ 13.40430589, 52.42208355 ], [ 13.40432373, 52.42213031 ] ] ] } },
{ "type": "Feature", "properties": { "id": "HAUS056751", "typ": "Kindertagesstätte" }, "geometry": { "type": "Polygon", "coordinates": [ [ [ 13.41061947, 52.41879193 ], [ 13.41062198, 52.41878789 ], [ 13.41082943, 52.41883698 ], [ 13.41080869, 52.41886956 ], [ 13.41095081, 52.41890298 ], [ 13.41095406, 52.41889795 ], [ 13.41093513, 52.41889325 ], [ 13.41097216, 52.41883437 ], [ 13.41099111, 52.41883898 ], [ 13.41104487, 52.41875307 ], [ 13.41094064, 52.41872844 ], [ 13.41092893, 52.41874738 ], [ 13.41068581, 52.41869006 ], [ 13.41064833, 52.41874993 ], [ 13.4106382, 52.41874757 ], [ 13.41061183, 52.41879003 ], [ 13.41061947, 52.41879193 ] ] ] } },
{ "type": "Feature", "properties": { "id": "HAUS537554", "typ": "Kindertagesstätte" }, "geometry": { "type": "Polygon", "coordinates": [ [ [ 13.47199191, 52.46642418 ], [ 13.47200668, 52.46641407 ], [ 13.47210671, 52.46646946 ], [ 13.47216999, 52.46642658 ], [ 13.47214844, 52.4664144 ], [ 13.47220241, 52.46637814 ], [ 13.47203537, 52.46628553 ], [ 13.47202954, 52.46628961 ], [ 13.47200591, 52.46631616 ], [ 13.47201459, 52.46632105 ], [ 13.47199892, 52.46633176 ], [ 13.47198141, 52.46632225 ], [ 13.47197558, 52.46632606 ], [ 13.47198198, 52.46632954 ], [ 13.47190953, 52.46637844 ], [ 13.47199191, 52.46642418 ] ] ] } },
{ "type": "Feature", "properties": { "id": "HAUS538231", "typ": "Kindertagesstätte" }, "geometry": { "type": "Polygon", "coordinates": [ [ [ 13.45668806, 52.48076948 ], [ 13.45683629, 52.48076029 ], [ 13.45683172, 52.48073462 ], [ 13.45691638, 52.48072951 ], [ 13.4569206, 52.48075517 ], [ 13.45697673, 52.48075173 ], [ 13.45697221, 52.48072412 ], [ 13.45705673, 52.48071895 ], [ 13.45706121, 52.48074661 ], [ 13.45730306, 52.48073136 ], [ 13.45727358, 52.48055599 ], [ 13.45708026, 52.48056813 ], [ 13.45709472, 52.48065325 ], [ 13.45667342, 52.48067979 ], [ 13.45668806, 52.48076948 ] ] ] } },
{ "type": "Feature", "properties": { "id": "HAUS538938", "typ": "Kindertagesstätte" }, "geometry": { "type": "Polygon", "coordinates": [ [ [ 13.47760453, 52.46514013 ], [ 13.47761034, 52.46514025 ], [ 13.47761017, 52.46513255 ], [ 13.47776448, 52.46513264 ], [ 13.47778541, 52.4651282 ], [ 13.47780173, 52.46511905 ], [ 13.47780927, 52.46510997 ], [ 13.47781917, 52.4650697 ], [ 13.4778233, 52.46506236 ], [ 13.47783537, 52.46505516 ], [ 13.47788847, 52.46503723 ], [ 13.47789717, 52.46503075 ], [ 13.47790154, 52.46502282 ], [ 13.47790103, 52.46501446 ], [ 13.4778879, 52.46498642 ], [ 13.47788744, 52.46497802 ], [ 13.47789138, 52.46496995 ], [ 13.4779027, 52.46496115 ], [ 13.47791448, 52.46494571 ], [ 13.47792148, 52.46492922 ], [ 13.47792348, 52.46491224 ], [ 13.47792197, 52.46490091 ], [ 13.47791562, 52.46488434 ], [ 13.4779043, 52.46486874 ], [ 13.47789203, 52.46486125 ], [ 13.47787533, 52.46485836 ], [ 13.47767043, 52.46485806 ], [ 13.47767035, 52.46485016 ], [ 13.4776646, 52.46485025 ], [ 13.47766573, 52.46494433 ], [ 13.47760526, 52.46494418 ], [ 13.47760453, 52.46514013 ] ] ] } },
{ "type": "Feature", "properties": { "id": "HAUS539063", "typ": "Kindertagesstätte" }, "geometry": { "type": "Polygon", "coordinates": [ [ [ 13.47188175, 52.430083 ], [ 13.47186754, 52.43008808 ], [ 13.47192471, 52.43014797 ], [ 13.47201682, 52.43011495 ], [ 13.47201404, 52.43011203 ], [ 13.47208815, 52.43008548 ], [ 13.47202572, 52.43002056 ], [ 13.4720401, 52.4300154 ], [ 13.47199453, 52.42996779 ], [ 13.47190634, 52.42999964 ], [ 13.47189202, 52.42998466 ], [ 13.47181411, 52.43001257 ], [ 13.47188175, 52.430083 ] ] ] } },
{ "type": "Feature", "properties": { "id": "HAUS539615", "typ": "Kindertagesstätte" }, "geometry": { "type": "Polygon", "coordinates": [ [ [ 13.43972686, 52.47087677 ], [ 13.4397124, 52.47091869 ], [ 13.43998056, 52.47095098 ], [ 13.44000281, 52.47088298 ], [ 13.43990619, 52.47087139 ], [ 13.43992727, 52.47081001 ], [ 13.43994418, 52.47081213 ], [ 13.43996387, 52.4707552 ], [ 13.43977758, 52.47068971 ], [ 13.43974657, 52.47078658 ], [ 13.43972069, 52.47078349 ], [ 13.43969108, 52.47087217 ], [ 13.43972686, 52.47087677 ] ] ] } },
{ "type": "Feature", "properties": { "id": "HAUS553077", "typ": "Kindertagesstätte" }, "geometry": { "type": "Polygon", "coordinates": [ [ [ 13.4780993, 52.42306569 ], [ 13.47809906, 52.42312363 ], [ 13.47812845, 52.42312367 ], [ 13.4781283, 52.42316563 ], [ 13.47817285, 52.42316569 ], [ 13.47817277, 52.42318636 ], [ 13.47833006, 52.4231866 ], [ 13.47835186, 52.42317324 ], [ 13.478354, 52.42307626 ], [ 13.47832032, 52.42307499 ], [ 13.47832027, 52.42305095 ], [ 13.47836286, 52.42305096 ], [ 13.47836321, 52.42299376 ], [ 13.47832995, 52.42299378 ], [ 13.47833004, 52.42291321 ], [ 13.47823868, 52.42291304 ], [ 13.4782387, 52.42296416 ], [ 13.47819837, 52.42296432 ], [ 13.47819792, 52.42295743 ], [ 13.47809958, 52.42295754 ], [ 13.47809957, 52.42303701 ], [ 13.47803903, 52.42303713 ], [ 13.47803801, 52.42306554 ], [ 13.4780993, 52.42306569 ] ] ] } },
{ "type": "Feature", "properties": { "id": "HAUS554322", "typ": "Kindertagesstätte" }, "geometry": { "type": "Polygon", "coordinates": [ [ [ 13.43529145, 52.49001582 ], [ 13.43550239, 52.48993042 ], [ 13.43551446, 52.48994187 ], [ 13.43548367, 52.48995316 ], [ 13.43549071, 52.48996051 ], [ 13.43546503, 52.48996902 ], [ 13.43551114, 52.49002068 ], [ 13.43585424, 52.48990724 ], [ 13.43580798, 52.48985548 ], [ 13.43580175, 52.48985762 ], [ 13.4357866, 52.48984221 ], [ 13.43577661, 52.48984587 ], [ 13.43575398, 52.48982272 ], [ 13.43572321, 52.48983395 ], [ 13.43562645, 52.48974574 ], [ 13.43524789, 52.48989907 ], [ 13.43527772, 52.48992634 ], [ 13.43520092, 52.48996692 ], [ 13.43529145, 52.49001582 ] ] ] } },
{ "type": "Feature", "properties": { "id": "HAUS555010", "typ": "Kindertagesstätte" }, "geometry": { "type": "Polygon", "coordinates": [ [ [ 13.50311123, 52.42041516 ], [ 13.50311241, 52.42040394 ], [ 13.50338124, 52.42041465 ], [ 13.50338003, 52.42042584 ], [ 13.50346864, 52.42042936 ], [ 13.50348227, 52.42030117 ], [ 13.50336558, 52.42029651 ], [ 13.50336614, 52.42029112 ], [ 13.50327411, 52.42028756 ], [ 13.50327347, 52.42029279 ], [ 13.50301043, 52.42028251 ], [ 13.50299705, 52.42041067 ], [ 13.50311123, 52.42041516 ] ] ] } },
{ "type": "Feature", "properties": { "id": "HAUS555527", "typ": "Kindertagesstätte" }, "geometry": { "type": "Polygon", "coordinates": [ [ [ 13.42700468, 52.4921326 ], [ 13.42702145, 52.49206255 ], [ 13.42688395, 52.49205008 ], [ 13.42688331, 52.49205272 ], [ 13.42683247, 52.49204814 ], [ 13.42683759, 52.49202918 ], [ 13.42669961, 52.49201664 ], [ 13.42669892, 52.49201932 ], [ 13.42664824, 52.49201464 ], [ 13.42665301, 52.49199582 ], [ 13.4265152, 52.49198317 ], [ 13.42651449, 52.49198583 ], [ 13.42639971, 52.49197555 ], [ 13.42640572, 52.49195119 ], [ 13.42620116, 52.49193257 ], [ 13.42618039, 52.49201879 ], [ 13.42619545, 52.49202024 ], [ 13.42618647, 52.49205586 ], [ 13.42618574, 52.49205877 ], [ 13.42700468, 52.4921326 ] ] ] } },
{ "type": "Feature", "properties": { "id": "HAUS577382", "typ": "Kindertagesstätte" }, "geometry": { "type": "Polygon", "coordinates": [ [ [ 13.44206206, 52.44612332 ], [ 13.44206692, 52.44612135 ], [ 13.44209265, 52.44612498 ], [ 13.44210857, 52.44611881 ], [ 13.44215001, 52.44615895 ], [ 13.4421338, 52.44616513 ], [ 13.44212829, 52.44618048 ], [ 13.44212239, 52.44618237 ], [ 13.44218627, 52.44624402 ], [ 13.44219186, 52.44624234 ], [ 13.44221775, 52.44624596 ], [ 13.44223364, 52.44623988 ], [ 13.44225195, 52.44625797 ], [ 13.44218759, 52.44628295 ], [ 13.44210973, 52.44625801 ], [ 13.44208342, 52.44628803 ], [ 13.44207512, 52.44630093 ], [ 13.44206946, 52.44631716 ], [ 13.44206868, 52.44633479 ], [ 13.44206646, 52.44633622 ], [ 13.44216559, 52.44636846 ], [ 13.44218451, 52.44634809 ], [ 13.44217353, 52.4463408 ], [ 13.44216795, 52.44633149 ], [ 13.44216861, 52.44632158 ], [ 13.4421754, 52.44631259 ], [ 13.44218733, 52.44630586 ], [ 13.44226881, 52.44627427 ], [ 13.44228741, 52.44629254 ], [ 13.44227149, 52.44629845 ], [ 13.44226612, 52.44631379 ], [ 13.44226083, 52.44631586 ], [ 13.44232439, 52.4463776 ], [ 13.44232957, 52.44637564 ], [ 13.44235513, 52.44637918 ], [ 13.44237059, 52.4463731 ], [ 13.44241162, 52.44641315 ], [ 13.442396, 52.4464187 ], [ 13.44239021, 52.44643442 ], [ 13.44238446, 52.44643593 ], [ 13.44249607, 52.4465443 ], [ 13.44251431, 52.4465446 ], [ 13.44253552, 52.44653655 ], [ 13.44253991, 52.44654096 ], [ 13.44265599, 52.44649674 ], [ 13.44261469, 52.44645642 ], [ 13.44258508, 52.44646805 ], [ 13.4423819, 52.44627075 ], [ 13.44249343, 52.44622635 ], [ 13.44241682, 52.44615227 ], [ 13.44230573, 52.44619658 ], [ 13.44209964, 52.44599721 ], [ 13.44201612, 52.44602979 ], [ 13.44202521, 52.44603825 ], [ 13.44200902, 52.44604434 ], [ 13.44200334, 52.4460596 ], [ 13.44199804, 52.44606167 ], [ 13.44206206, 52.44612332 ] ] ] } },
{ "type": "Feature", "properties": { "id": "HAUS577400", "typ": "Kindertagesstätte" }, "geometry": { "type": "Polygon", "coordinates": [ [ [ 13.43333074, 52.46301743 ], [ 13.4334766, 52.4630369 ], [ 13.43352016, 52.46303526 ], [ 13.43352474, 52.46306538 ], [ 13.43363473, 52.46308003 ], [ 13.43369077, 52.46301703 ], [ 13.43364581, 52.46300213 ], [ 13.43364995, 52.46299755 ], [ 13.43359545, 52.46297913 ], [ 13.43359115, 52.46298397 ], [ 13.43357617, 52.46297901 ], [ 13.43358046, 52.46297417 ], [ 13.4335258, 52.46295601 ], [ 13.43352152, 52.46296086 ], [ 13.43350507, 52.46295535 ], [ 13.43350935, 52.4629505 ], [ 13.43345485, 52.46293226 ], [ 13.43345041, 52.46293729 ], [ 13.43343544, 52.46293231 ], [ 13.43343987, 52.46292729 ], [ 13.43338522, 52.46290932 ], [ 13.43338092, 52.46291426 ], [ 13.43337152, 52.46291109 ], [ 13.43330691, 52.46298288 ], [ 13.43330911, 52.46298361 ], [ 13.43329346, 52.46299787 ], [ 13.43329151, 52.4630046 ], [ 13.43333074, 52.46301743 ] ] ] } },
{ "type": "Feature", "properties": { "id": "HAUS577572", "typ": "Kindertagesstätte" }, "geometry": { "type": "Polygon", "coordinates": [ [ [ 13.42336671, 52.46754677 ], [ 13.42338285, 52.46749415 ], [ 13.42356535, 52.4675145 ], [ 13.42358333, 52.4675244 ], [ 13.42360509, 52.46753092 ], [ 13.42361686, 52.46753273 ], [ 13.42364106, 52.46753329 ], [ 13.42365301, 52.46753203 ], [ 13.42367551, 52.46752655 ], [ 13.42385817, 52.46754699 ], [ 13.42385054, 52.46757349 ], [ 13.42369833, 52.4675566 ], [ 13.42369026, 52.46758319 ], [ 13.42392013, 52.46760893 ], [ 13.42394705, 52.4675147 ], [ 13.42389778, 52.46750932 ], [ 13.42393498, 52.46738564 ], [ 13.42375601, 52.46736556 ], [ 13.42374243, 52.46741068 ], [ 13.42371683, 52.46740781 ], [ 13.42372309, 52.46738787 ], [ 13.42370075, 52.46738058 ], [ 13.42366445, 52.46737385 ], [ 13.42363905, 52.46737232 ], [ 13.42360102, 52.46737463 ], [ 13.4235957, 52.46739431 ], [ 13.42357005, 52.46739139 ], [ 13.42358379, 52.4673463 ], [ 13.4234048, 52.46732658 ], [ 13.42336789, 52.46745017 ], [ 13.42331877, 52.46744479 ], [ 13.42330682, 52.46748583 ], [ 13.42328918, 52.46753828 ], [ 13.42336671, 52.46754677 ] ] ] } },
{ "type": "Feature", "properties": { "id": "HAUS577687", "typ": "Kindertagesstätte" }, "geometry": { "type": "Polygon", "coordinates": [ [ [ 13.42843661, 52.48518554 ], [ 13.42843827, 52.48521404 ], [ 13.4284169, 52.48521445 ], [ 13.42842032, 52.48527376 ], [ 13.42844168, 52.48527335 ], [ 13.42844334, 52.48530325 ], [ 13.42845817, 52.48530295 ], [ 13.42846104, 52.48535435 ], [ 13.42845147, 52.48535455 ], [ 13.42843768, 52.48537733 ], [ 13.42845404, 52.48539955 ], [ 13.42846364, 52.48539938 ], [ 13.42846647, 52.48545078 ], [ 13.42845162, 52.48545103 ], [ 13.42845324, 52.48548123 ], [ 13.42843191, 52.48548173 ], [ 13.42843532, 52.48554051 ], [ 13.42845653, 52.48553974 ], [ 13.42845828, 52.48557024 ], [ 13.42867897, 52.48556518 ], [ 13.42867243, 52.48545024 ], [ 13.42870363, 52.48544956 ], [ 13.42869505, 52.48529364 ], [ 13.42866372, 52.48529421 ], [ 13.42865719, 52.48517962 ], [ 13.42857831, 52.48518147 ], [ 13.4284945, 52.48518342 ], [ 13.42843661, 52.48518554 ] ] ] } },
{ "type": "Feature", "properties": { "id": "HAUS577708", "typ": "Kindertagesstätte" }, "geometry": { "type": "Polygon", "coordinates": [ [ [ 13.43480972, 52.48769819 ], [ 13.43482744, 52.48769179 ], [ 13.43484708, 52.48771205 ], [ 13.43481021, 52.48772537 ], [ 13.43483213, 52.48774767 ], [ 13.43485125, 52.48774066 ], [ 13.43488269, 52.48777355 ], [ 13.43505235, 52.48771229 ], [ 13.43504862, 52.48770843 ], [ 13.43507992, 52.48769714 ], [ 13.43508366, 52.487701 ], [ 13.43538654, 52.48759168 ], [ 13.43534973, 52.48755392 ], [ 13.4353373, 52.4875584 ], [ 13.43532513, 52.48754591 ], [ 13.43536947, 52.4875299 ], [ 13.43531767, 52.48747638 ], [ 13.43498336, 52.4875972 ], [ 13.43498756, 52.48760152 ], [ 13.43495641, 52.48761278 ], [ 13.43478381, 52.48743485 ], [ 13.43469653, 52.48746634 ], [ 13.43472096, 52.48749157 ], [ 13.43470068, 52.48749876 ], [ 13.43469321, 52.48749103 ], [ 13.43463064, 52.48751331 ], [ 13.43480972, 52.48769819 ] ] ] } },
{ "type": "Feature", "properties": { "id": "HAUS577776", "typ": "Kindertagesstätte" }, "geometry": { "type": "Polygon", "coordinates": [ [ [ 13.43772366, 52.45067423 ], [ 13.43775429, 52.45066533 ], [ 13.43776357, 52.45067387 ], [ 13.43778406, 52.45066854 ], [ 13.43777933, 52.45066049 ], [ 13.43787549, 52.45062918 ], [ 13.43780736, 52.45053477 ], [ 13.43781894, 52.45053234 ], [ 13.43781277, 52.45051814 ], [ 13.4377996, 52.4505211 ], [ 13.43776464, 52.45047358 ], [ 13.43760917, 52.45051917 ], [ 13.43772366, 52.45067423 ] ] ] } },
{ "type": "Feature", "properties": { "id": "HAUS577856", "typ": "Kindertagesstätte" }, "geometry": { "type": "Polygon", "coordinates": [ [ [ 13.44051228, 52.45739547 ], [ 13.44055578, 52.45726446 ], [ 13.44049596, 52.4572571 ], [ 13.44050415, 52.45723235 ], [ 13.44056411, 52.4572398 ], [ 13.44058334, 52.45718089 ], [ 13.44029368, 52.45714486 ], [ 13.44028359, 52.45717491 ], [ 13.44011285, 52.45715406 ], [ 13.44012323, 52.45712364 ], [ 13.43983143, 52.4570879 ], [ 13.43981191, 52.45714662 ], [ 13.43987128, 52.45715398 ], [ 13.43986299, 52.4571789 ], [ 13.43980369, 52.45717158 ], [ 13.43976012, 52.45730235 ], [ 13.44051228, 52.45739547 ] ] ] } },
{ "type": "Feature", "properties": { "id": "HAUS577866", "typ": "Kindertagesstätte" }, "geometry": { "type": "Polygon", "coordinates": [ [ [ 13.45530241, 52.42233694 ], [ 13.45536971, 52.42232135 ], [ 13.45543887, 52.42244069 ], [ 13.45541006, 52.42244745 ], [ 13.45552571, 52.42263207 ], [ 13.45566048, 52.42260062 ], [ 13.4556466, 52.42257948 ], [ 13.45584303, 52.42253384 ], [ 13.45588055, 52.42259518 ], [ 13.45601533, 52.42256384 ], [ 13.45582421, 52.42226074 ], [ 13.45585985, 52.42225212 ], [ 13.45578314, 52.42213161 ], [ 13.45569005, 52.42215296 ], [ 13.4556773, 52.42213127 ], [ 13.45563464, 52.42214126 ], [ 13.45566035, 52.42218228 ], [ 13.45549969, 52.42221954 ], [ 13.45548713, 52.42219936 ], [ 13.45525139, 52.42225436 ], [ 13.45530241, 52.42233694 ] ] ] } },
{ "type": "Feature", "properties": { "id": "HAUS578284", "typ": "Kindertagesstätte" }, "geometry": { "type": "Polygon", "coordinates": [ [ [ 13.43672034, 52.44826004 ], [ 13.43676806, 52.44829627 ], [ 13.43677566, 52.44829268 ], [ 13.4367938, 52.44830651 ], [ 13.43665404, 52.44837359 ], [ 13.43658013, 52.44831599 ], [ 13.43639487, 52.44840476 ], [ 13.43656747, 52.44853925 ], [ 13.43675272, 52.44845049 ], [ 13.43674138, 52.44844165 ], [ 13.43697285, 52.44833075 ], [ 13.43688551, 52.44826269 ], [ 13.43694788, 52.4482314 ], [ 13.43689861, 52.44817443 ], [ 13.43672034, 52.44826004 ] ] ] } },
{ "type": "Feature", "properties": { "id": "HAUS578354", "typ": "Kindertagesstätte" }, "geometry": { "type": "Polygon", "coordinates": [ [ [ 13.41604464, 52.41857921 ], [ 13.41601688, 52.41862271 ], [ 13.41598713, 52.4186156 ], [ 13.41596924, 52.41864255 ], [ 13.41629892, 52.41872122 ], [ 13.41634894, 52.4186388 ], [ 13.41636496, 52.41864271 ], [ 13.41644082, 52.4185234 ], [ 13.41632777, 52.41849792 ], [ 13.4163366, 52.41848325 ], [ 13.4162883, 52.41847177 ], [ 13.41622835, 52.4185712 ], [ 13.41603795, 52.41852432 ], [ 13.41604605, 52.41851087 ], [ 13.41600077, 52.41850067 ], [ 13.4159637, 52.41855914 ], [ 13.41604464, 52.41857921 ] ] ] } },
{ "type": "Feature", "properties": { "id": "HAUS578678", "typ": "Kindertagesstätte" }, "geometry": { "type": "Polygon", "coordinates": [ [ [ 13.4416857, 52.47247697 ], [ 13.44168238, 52.47249387 ], [ 13.44185009, 52.47250643 ], [ 13.44185911, 52.47246197 ], [ 13.44188321, 52.47246776 ], [ 13.44190426, 52.47243472 ], [ 13.44188764, 52.47243074 ], [ 13.44189772, 52.47238061 ], [ 13.44180488, 52.47237363 ], [ 13.44181155, 52.47236322 ], [ 13.44176406, 52.47235191 ], [ 13.44175251, 52.47236978 ], [ 13.44170808, 52.47236647 ], [ 13.44170462, 52.47238462 ], [ 13.44168756, 52.47238046 ], [ 13.44167142, 52.47240515 ], [ 13.44169906, 52.47241202 ], [ 13.4416956, 52.47242999 ], [ 13.44168619, 52.47242763 ], [ 13.44165849, 52.47247028 ], [ 13.4416857, 52.47247697 ] ] ] } },
{ "type": "Feature", "properties": { "id": "HAUS578840", "typ": "Kindertagesstätte" }, "geometry": { "type": "Polygon", "coordinates": [ [ [ 13.47212871, 52.42997974 ], [ 13.4721156, 52.4299846 ], [ 13.47213985, 52.43000905 ], [ 13.47211486, 52.4300183 ], [ 13.47218723, 52.43009132 ], [ 13.47226173, 52.43006374 ], [ 13.47232711, 52.43012971 ], [ 13.47228924, 52.43014373 ], [ 13.47236036, 52.43021549 ], [ 13.47243713, 52.43018706 ], [ 13.47248176, 52.4302321 ], [ 13.47260572, 52.43018851 ], [ 13.47253801, 52.430121 ], [ 13.47261446, 52.43009219 ], [ 13.47254129, 52.43001752 ], [ 13.47242605, 52.43006019 ], [ 13.47236066, 52.42999422 ], [ 13.47243768, 52.4299657 ], [ 13.47236516, 52.42989253 ], [ 13.47225071, 52.4299349 ], [ 13.47220505, 52.42988883 ], [ 13.4720833, 52.42993391 ], [ 13.47212871, 52.42997974 ] ] ] } },
{ "type": "Feature", "properties": { "id": "HAUS578946", "typ": "Kindertagesstätte" }, "geometry": { "type": "Polygon", "coordinates": [ [ [ 13.47348389, 52.46659457 ], [ 13.47378646, 52.46639375 ], [ 13.47395077, 52.4664865 ], [ 13.47392678, 52.46650198 ], [ 13.47395297, 52.46651671 ], [ 13.47391605, 52.46654104 ], [ 13.47397297, 52.46657309 ], [ 13.47416917, 52.46644305 ], [ 13.47380514, 52.46623876 ], [ 13.47381753, 52.46623058 ], [ 13.47370924, 52.46616936 ], [ 13.47345378, 52.46633861 ], [ 13.47348016, 52.46635346 ], [ 13.4733358, 52.46644862 ], [ 13.47336379, 52.46646453 ], [ 13.47334484, 52.4664771 ], [ 13.47332995, 52.46646834 ], [ 13.47330019, 52.46648727 ], [ 13.47348389, 52.46659457 ] ] ] } },
{ "type": "Feature", "properties": { "id": "HAUS578949", "typ": "Kindertagesstätte" }, "geometry": { "type": "Polygon", "coordinates": [ [ [ 13.43616751, 52.4764886 ], [ 13.43615449, 52.47652356 ], [ 13.43656189, 52.47651369 ], [ 13.43656195, 52.47651486 ], [ 13.43656811, 52.47651472 ], [ 13.43656146, 52.47641537 ], [ 13.43650449, 52.47641677 ], [ 13.43650396, 52.47640877 ], [ 13.43649795, 52.47640891 ], [ 13.43649814, 52.47641242 ], [ 13.43636119, 52.47641577 ], [ 13.43636095, 52.47641226 ], [ 13.43635477, 52.47641239 ], [ 13.43635353, 52.47642045 ], [ 13.43613322, 52.47642583 ], [ 13.43611234, 52.4764821 ], [ 13.43616751, 52.4764886 ] ] ] } },
{ "type": "Feature", "properties": { "id": "HAUS578985", "typ": "Kindertagesstätte" }, "geometry": { "type": "Polygon", "coordinates": [ [ [ 13.43606711, 52.47745925 ], [ 13.43610902, 52.47734541 ], [ 13.4358878, 52.4773155 ], [ 13.43584726, 52.47742986 ], [ 13.43606711, 52.47745925 ] ] ] } },
{ "type": "Feature", "properties": { "id": "HAUS579224", "typ": "Kindertagesstätte" }, "geometry": { "type": "Polygon", "coordinates": [ [ [ 13.44407018, 52.45476258 ], [ 13.444107, 52.45474773 ], [ 13.44411403, 52.45472662 ], [ 13.44425799, 52.45429283 ], [ 13.44403798, 52.45426565 ], [ 13.44393119, 52.45458736 ], [ 13.44394014, 52.4545885 ], [ 13.44394057, 52.45458742 ], [ 13.44398921, 52.45459341 ], [ 13.4439828, 52.45461282 ], [ 13.44395637, 52.45460847 ], [ 13.44394872, 52.45461152 ], [ 13.44395048, 52.45461322 ], [ 13.44392848, 52.45462191 ], [ 13.44392673, 52.45462028 ], [ 13.44391907, 52.45462333 ], [ 13.44391551, 52.45464002 ], [ 13.44388356, 52.45463613 ], [ 13.4438934, 52.4546062 ], [ 13.44389519, 52.45460648 ], [ 13.44389695, 52.45460109 ], [ 13.44337081, 52.45453598 ], [ 13.44332618, 52.45467031 ], [ 13.44407018, 52.45476258 ] ] ] } },
{ "type": "Feature", "properties": { "id": "HAUS579260", "typ": "Kindertagesstätte" }, "geometry": { "type": "Polygon", "coordinates": [ [ [ 13.44277917, 52.46151879 ], [ 13.44282808, 52.46135954 ], [ 13.44273691, 52.46134906 ], [ 13.44269561, 52.4614836 ], [ 13.44268793, 52.46150813 ], [ 13.44277917, 52.46151879 ] ] ] } },
{ "type": "Feature", "properties": { "id": "HAUS579354", "typ": "Kindertagesstätte" }, "geometry": { "type": "Polygon", "coordinates": [ [ [ 13.4302704, 52.46551806 ], [ 13.43032333, 52.46551536 ], [ 13.43032443, 52.46552315 ], [ 13.43060052, 52.46550802 ], [ 13.43060003, 52.46550026 ], [ 13.43065158, 52.46549717 ], [ 13.43065378, 52.46551474 ], [ 13.43075709, 52.46550936 ], [ 13.43075673, 52.46550712 ], [ 13.43096475, 52.46549619 ], [ 13.43096766, 52.46551565 ], [ 13.43100295, 52.4655146 ], [ 13.43101647, 52.46545412 ], [ 13.43130626, 52.46547959 ], [ 13.43130642, 52.46548292 ], [ 13.43135919, 52.46548738 ], [ 13.43138315, 52.4653818 ], [ 13.43090498, 52.46534082 ], [ 13.43090186, 52.46535407 ], [ 13.43080544, 52.46535946 ], [ 13.43080735, 52.46537045 ], [ 13.4307455, 52.46537373 ], [ 13.43074389, 52.46536275 ], [ 13.43025229, 52.46538904 ], [ 13.4302704, 52.46551806 ] ] ] } },
{ "type": "Feature", "properties": { "id": "HAUS579734", "typ": "Kindertagesstätte" }, "geometry": { "type": "Polygon", "coordinates": [ [ [ 13.43167953, 52.49109919 ], [ 13.43175735, 52.49107159 ], [ 13.43183233, 52.49114906 ], [ 13.43184617, 52.49114561 ], [ 13.43192017, 52.49122218 ], [ 13.43205748, 52.49117307 ], [ 13.43198382, 52.49109625 ], [ 13.43200342, 52.49108903 ], [ 13.43186284, 52.49094684 ], [ 13.43162896, 52.49103433 ], [ 13.43161695, 52.49102158 ], [ 13.43160537, 52.491026 ], [ 13.43167953, 52.49109919 ] ] ] } },
{ "type": "Feature", "properties": { "id": "HAUS579776", "typ": "Kindertagesstätte" }, "geometry": { "type": "Polygon", "coordinates": [ [ [ 13.42235261, 52.48377545 ], [ 13.42235412, 52.48373411 ], [ 13.42192713, 52.48372888 ], [ 13.42192576, 52.48377003 ], [ 13.42190486, 52.48376973 ], [ 13.42190804, 52.48371564 ], [ 13.42176307, 52.48371412 ], [ 13.42175768, 52.48392432 ], [ 13.42190265, 52.483926 ], [ 13.42190284, 52.48391738 ], [ 13.42190093, 52.48391736 ], [ 13.42190247, 52.48387182 ], [ 13.42192248, 52.48387194 ], [ 13.42192112, 52.48391336 ], [ 13.42234768, 52.48391868 ], [ 13.42234919, 52.48387717 ], [ 13.42245192, 52.48387897 ], [ 13.4224549, 52.48377635 ], [ 13.42235261, 52.48377545 ] ] ] } },
{ "type": "Feature", "properties": { "id": "HAUS580083", "typ": "Kindertagesstätte" }, "geometry": { "type": "Polygon", "coordinates": [ [ [ 13.41900531, 52.47762425 ], [ 13.41899086, 52.47767211 ], [ 13.41917742, 52.47769344 ], [ 13.41918239, 52.4776788 ], [ 13.41935155, 52.47769768 ], [ 13.41934613, 52.4777117 ], [ 13.41935409, 52.47771319 ], [ 13.4193685, 52.47766469 ], [ 13.4193741, 52.47766512 ], [ 13.41939444, 52.47760989 ], [ 13.4193843, 52.47760814 ], [ 13.41938242, 52.477612 ], [ 13.41931684, 52.4776036 ], [ 13.4193178, 52.4775984 ], [ 13.41926794, 52.47759244 ], [ 13.41926463, 52.47759819 ], [ 13.41912398, 52.47758204 ], [ 13.41912511, 52.47757684 ], [ 13.41904256, 52.47756689 ], [ 13.41902511, 52.47762094 ], [ 13.41898655, 52.47761609 ], [ 13.41898588, 52.47762157 ], [ 13.41900531, 52.47762425 ] ] ] } },
{ "type": "Feature", "properties": { "id": "HAUS580087", "typ": "Kindertagesstätte" }, "geometry": { "type": "Polygon", "coordinates": [ [ [ 13.4520297, 52.44148213 ], [ 13.45204716, 52.44147531 ], [ 13.45210694, 52.4415282 ], [ 13.45209016, 52.44153557 ], [ 13.45209388, 52.44153854 ], [ 13.45221689, 52.44148648 ], [ 13.45218451, 52.44145834 ], [ 13.4523676, 52.44137947 ], [ 13.45237177, 52.44138307 ], [ 13.45237819, 52.4413808 ], [ 13.45233729, 52.44134461 ], [ 13.45232751, 52.44134878 ], [ 13.4522632, 52.44129109 ], [ 13.4520487, 52.44138191 ], [ 13.45203516, 52.44136998 ], [ 13.45194559, 52.44140789 ], [ 13.4520297, 52.44148213 ] ] ] } },
{ "type": "Feature", "properties": { "id": "HAUS580183", "typ": "Kindertagesstätte" }, "geometry": { "type": "Polygon", "coordinates": [ [ [ 13.44790314, 52.43992732 ], [ 13.44792829, 52.43986076 ], [ 13.44792472, 52.43986024 ], [ 13.4479364, 52.43982938 ], [ 13.44793999, 52.43982987 ], [ 13.44799567, 52.43968259 ], [ 13.44819922, 52.43971144 ], [ 13.44818044, 52.43976091 ], [ 13.44829002, 52.43977645 ], [ 13.44834585, 52.43977787 ], [ 13.44834846, 52.43965881 ], [ 13.44831843, 52.43965455 ], [ 13.44831865, 52.43960953 ], [ 13.44830985, 52.43960952 ], [ 13.44830915, 52.4396147 ], [ 13.44797968, 52.4395983 ], [ 13.44798177, 52.43959294 ], [ 13.44797327, 52.43959169 ], [ 13.44796812, 52.43960487 ], [ 13.44789118, 52.43959352 ], [ 13.44780969, 52.43981109 ], [ 13.44782745, 52.43981361 ], [ 13.44778486, 52.43992641 ], [ 13.44780799, 52.4399266 ], [ 13.44790314, 52.43992732 ] ] ] } },
{ "type": "Feature", "properties": { "id": "HAUS580394", "typ": "Kindertagesstätte" }, "geometry": { "type": "Polygon", "coordinates": [ [ [ 13.44683993, 52.4723529 ], [ 13.44683467, 52.47237021 ], [ 13.446883, 52.4723766 ], [ 13.44688922, 52.47235909 ], [ 13.44722388, 52.47240212 ], [ 13.44725155, 52.47232175 ], [ 13.44723589, 52.47231946 ], [ 13.4472142, 52.47229936 ], [ 13.44721616, 52.47229313 ], [ 13.44710598, 52.47227869 ], [ 13.44710243, 52.47229 ], [ 13.44706469, 52.472285 ], [ 13.44706938, 52.4722718 ], [ 13.44705838, 52.47226135 ], [ 13.44711197, 52.47210592 ], [ 13.44715747, 52.47208817 ], [ 13.44716493, 52.47206709 ], [ 13.44718967, 52.4720703 ], [ 13.44720011, 52.47204054 ], [ 13.44717518, 52.47203736 ], [ 13.44718843, 52.47199771 ], [ 13.44713645, 52.47199099 ], [ 13.44714275, 52.4719728 ], [ 13.44717887, 52.47197719 ], [ 13.44720074, 52.47191558 ], [ 13.44708929, 52.47190118 ], [ 13.44709643, 52.47188034 ], [ 13.44708473, 52.47186967 ], [ 13.44705068, 52.47186549 ], [ 13.44704219, 52.47188949 ], [ 13.4470012, 52.47188399 ], [ 13.44696338, 52.4719002 ], [ 13.44694658, 52.47194714 ], [ 13.44697207, 52.47195049 ], [ 13.44696589, 52.47196908 ], [ 13.44688981, 52.47195935 ], [ 13.44686606, 52.47202866 ], [ 13.44690551, 52.47203389 ], [ 13.44689682, 52.47205996 ], [ 13.4469, 52.47206078 ], [ 13.44689293, 52.47208349 ], [ 13.44683308, 52.47207602 ], [ 13.44682308, 52.47210572 ], [ 13.44687835, 52.47211283 ], [ 13.44686972, 52.47213805 ], [ 13.44683701, 52.47213395 ], [ 13.4467966, 52.47225067 ], [ 13.44672154, 52.47224082 ], [ 13.44671492, 52.47225886 ], [ 13.44669055, 52.47226887 ], [ 13.44668827, 52.47226719 ], [ 13.44665757, 52.4722793 ], [ 13.44665922, 52.47228125 ], [ 13.44663816, 52.4722894 ], [ 13.446626, 52.47232531 ], [ 13.44683993, 52.4723529 ] ] ] } },
{ "type": "Feature", "properties": { "id": "HAUS580424", "typ": "Kindertagesstätte" }, "geometry": { "type": "Polygon", "coordinates": [ [ [ 13.45223354, 52.44120388 ], [ 13.45223776, 52.44120226 ], [ 13.45228567, 52.44124326 ], [ 13.45229025, 52.44124131 ], [ 13.45227565, 52.44122888 ], [ 13.45241883, 52.44116814 ], [ 13.45243327, 52.44118101 ], [ 13.45259066, 52.44111412 ], [ 13.45254432, 52.44107327 ], [ 13.45256068, 52.44106628 ], [ 13.45255657, 52.4410626 ], [ 13.45252255, 52.44107693 ], [ 13.45244999, 52.44101212 ], [ 13.45238019, 52.44104158 ], [ 13.45240727, 52.44106651 ], [ 13.45229047, 52.44111578 ], [ 13.45228521, 52.44111109 ], [ 13.45223983, 52.44113024 ], [ 13.45224509, 52.44113484 ], [ 13.45219045, 52.44115795 ], [ 13.45218416, 52.44115237 ], [ 13.45217814, 52.4411549 ], [ 13.45223354, 52.44120388 ] ] ] } },
{ "type": "Feature", "properties": { "id": "HAUS580468", "typ": "Kindertagesstätte" }, "geometry": { "type": "Polygon", "coordinates": [ [ [ 13.43972417, 52.46410106 ], [ 13.4397481, 52.46401985 ], [ 13.43962611, 52.46400631 ], [ 13.43963052, 52.46399137 ], [ 13.43932527, 52.4639577 ], [ 13.43929644, 52.46405485 ], [ 13.43972417, 52.46410106 ] ] ] } },
{ "type": "Feature", "properties": { "id": "HAUS580552", "typ": "Kindertagesstätte" }, "geometry": { "type": "Polygon", "coordinates": [ [ [ 13.44740597, 52.47179787 ], [ 13.44759372, 52.47169509 ], [ 13.44747012, 52.47161135 ], [ 13.44735606, 52.47167414 ], [ 13.44728283, 52.47171431 ], [ 13.44740597, 52.47179787 ] ] ] } },
{ "type": "Feature", "properties": { "id": "HAUS580932", "typ": "Kindertagesstätte" }, "geometry": { "type": "Polygon", "coordinates": [ [ [ 13.455555, 52.48341165 ], [ 13.45552268, 52.48342756 ], [ 13.45556261, 52.48345777 ], [ 13.45553028, 52.48347368 ], [ 13.45557021, 52.4835039 ], [ 13.45553789, 52.48351982 ], [ 13.45564188, 52.48359854 ], [ 13.4557291, 52.48355561 ], [ 13.45597943, 52.48354014 ], [ 13.45597228, 52.48349703 ], [ 13.4559662, 52.48349741 ], [ 13.45596399, 52.48348405 ], [ 13.45599203, 52.48348232 ], [ 13.45597894, 52.48340346 ], [ 13.4559509, 52.48340519 ], [ 13.45594867, 52.48339182 ], [ 13.45595475, 52.48339144 ], [ 13.45594465, 52.48333047 ], [ 13.45560416, 52.48335152 ], [ 13.45559298, 52.48334309 ], [ 13.45551508, 52.48338142 ], [ 13.455555, 52.48341165 ] ] ] } },
{ "type": "Feature", "properties": { "id": "HAUS581038", "typ": "Kindertagesstätte" }, "geometry": { "type": "Polygon", "coordinates": [ [ [ 13.45818657, 52.43498892 ], [ 13.45814628, 52.435002 ], [ 13.45822984, 52.43509829 ], [ 13.45837214, 52.43505458 ], [ 13.4583799, 52.43506615 ], [ 13.45842743, 52.4350521 ], [ 13.45840846, 52.43502788 ], [ 13.45870774, 52.43492933 ], [ 13.45863832, 52.43484864 ], [ 13.45862547, 52.43485152 ], [ 13.45862049, 52.43484457 ], [ 13.45863728, 52.43481192 ], [ 13.45887869, 52.43473724 ], [ 13.45882633, 52.43467613 ], [ 13.45876389, 52.43469506 ], [ 13.45875811, 52.43468995 ], [ 13.45874079, 52.43469513 ], [ 13.45870345, 52.43464725 ], [ 13.45861987, 52.43467542 ], [ 13.45863119, 52.43468879 ], [ 13.45855668, 52.43471334 ], [ 13.45856611, 52.43472605 ], [ 13.45850064, 52.4347468 ], [ 13.45849195, 52.43473524 ], [ 13.4584089, 52.43476024 ], [ 13.45847967, 52.4348435 ], [ 13.45840155, 52.43486572 ], [ 13.45840986, 52.43487666 ], [ 13.45831584, 52.43490579 ], [ 13.45832458, 52.43491537 ], [ 13.45824672, 52.43493849 ], [ 13.45822858, 52.43491584 ], [ 13.45814822, 52.43494029 ], [ 13.45818657, 52.43498892 ] ] ] } },
{ "type": "Feature", "properties": { "id": "HAUS581317", "typ": "Kindertagesstätte" }, "geometry": { "type": "Polygon", "coordinates": [ [ [ 13.44230619, 52.44078876 ], [ 13.44231473, 52.44078712 ], [ 13.44230867, 52.4407754 ], [ 13.4424808, 52.44074268 ], [ 13.44248845, 52.44075769 ], [ 13.44267117, 52.4407229 ], [ 13.44264495, 52.44067144 ], [ 13.44262559, 52.44067513 ], [ 13.44259847, 52.44062291 ], [ 13.44251611, 52.44063845 ], [ 13.44251875, 52.44064369 ], [ 13.44238319, 52.44066945 ], [ 13.44238046, 52.44066404 ], [ 13.44232787, 52.44067396 ], [ 13.44233066, 52.44067946 ], [ 13.44226762, 52.44069143 ], [ 13.44226477, 52.44068584 ], [ 13.44225774, 52.44068719 ], [ 13.44230777, 52.44078488 ], [ 13.44230468, 52.44078549 ], [ 13.44230619, 52.44078876 ] ] ] } },
{ "type": "Feature", "properties": { "id": "HAUS581478", "typ": "Kindertagesstätte" }, "geometry": { "type": "Polygon", "coordinates": [ [ [ 13.4411009, 52.47506978 ], [ 13.44107827, 52.47512839 ], [ 13.4411249, 52.47513512 ], [ 13.44113712, 52.475104 ], [ 13.44117915, 52.47511025 ], [ 13.44117317, 52.47512527 ], [ 13.44133473, 52.47514933 ], [ 13.4413562, 52.47509561 ], [ 13.44144665, 52.47510947 ], [ 13.44148641, 52.47500771 ], [ 13.44156191, 52.47501858 ], [ 13.44159252, 52.47493936 ], [ 13.44142542, 52.47491477 ], [ 13.44143186, 52.47489833 ], [ 13.44140155, 52.47489389 ], [ 13.44141701, 52.47485439 ], [ 13.44128516, 52.47483514 ], [ 13.44128037, 52.4748474 ], [ 13.44106991, 52.47481665 ], [ 13.44102245, 52.47493935 ], [ 13.44120505, 52.47496568 ], [ 13.44118439, 52.47502122 ], [ 13.44100102, 52.47499482 ], [ 13.44097882, 52.47505218 ], [ 13.4411009, 52.47506978 ] ] ] } },
{ "type": "Feature", "properties": { "id": "HAUS581620", "typ": "Kindertagesstätte" }, "geometry": { "type": "Polygon", "coordinates": [ [ [ 13.430789, 52.48855932 ], [ 13.43073885, 52.48857838 ], [ 13.43076003, 52.4886 ], [ 13.43076709, 52.48859613 ], [ 13.43078619, 52.48861596 ], [ 13.43078032, 52.48861911 ], [ 13.43080504, 52.48864261 ], [ 13.43082784, 52.48863502 ], [ 13.43086517, 52.48867514 ], [ 13.43084649, 52.48868182 ], [ 13.43088483, 52.48872193 ], [ 13.43091927, 52.48871072 ], [ 13.43097741, 52.48877246 ], [ 13.4311094, 52.48872314 ], [ 13.43106355, 52.48867638 ], [ 13.43103398, 52.48868741 ], [ 13.4309531, 52.48860307 ], [ 13.43098195, 52.48859394 ], [ 13.43090768, 52.48851572 ], [ 13.43087856, 52.48852655 ], [ 13.43082401, 52.4884693 ], [ 13.4307321, 52.48850074 ], [ 13.430789, 52.48855932 ] ] ] } },
{ "type": "Feature", "properties": { "id": "HAUS581741", "typ": "Kindertagesstätte" }, "geometry": { "type": "Polygon", "coordinates": [ [ [ 13.41942149, 52.47793449 ], [ 13.41943461, 52.47790196 ], [ 13.41965133, 52.47792682 ], [ 13.41965063, 52.47793033 ], [ 13.41965742, 52.47793164 ], [ 13.41967232, 52.47788968 ], [ 13.41962656, 52.47788263 ], [ 13.41963765, 52.47784051 ], [ 13.41967663, 52.47784464 ], [ 13.41968409, 52.4778169 ], [ 13.41943017, 52.47778836 ], [ 13.41943267, 52.47777551 ], [ 13.41932618, 52.47776272 ], [ 13.41929826, 52.47784975 ], [ 13.41931664, 52.47785173 ], [ 13.4192983, 52.47791522 ], [ 13.41927989, 52.47791225 ], [ 13.41927774, 52.47791727 ], [ 13.41942149, 52.47793449 ] ] ] } },
{ "type": "Feature", "properties": { "id": "HAUS581803", "typ": "Kindertagesstätte" }, "geometry": { "type": "Polygon", "coordinates": [ [ [ 13.43687527, 52.46492447 ], [ 13.43687557, 52.46492258 ], [ 13.4368791, 52.46492303 ], [ 13.43689075, 52.46488351 ], [ 13.43688604, 52.46488297 ], [ 13.43693652, 52.46471024 ], [ 13.43694784, 52.46471142 ], [ 13.43696143, 52.46466615 ], [ 13.43678862, 52.46464656 ], [ 13.43671355, 52.46489348 ], [ 13.43679326, 52.46490232 ], [ 13.43678938, 52.46491508 ], [ 13.43687527, 52.46492447 ] ] ] } },
{ "type": "Feature", "properties": { "id": "HAUS581843", "typ": "Kindertagesstätte" }, "geometry": { "type": "Polygon", "coordinates": [ [ [ 13.44440022, 52.47681293 ], [ 13.44442038, 52.47680422 ], [ 13.44446125, 52.47682835 ], [ 13.44444219, 52.47683825 ], [ 13.4445479, 52.4769021 ], [ 13.44467798, 52.47682522 ], [ 13.44465917, 52.47681361 ], [ 13.44469829, 52.47679152 ], [ 13.44471849, 52.47680125 ], [ 13.44486307, 52.4767158 ], [ 13.44471752, 52.47662495 ], [ 13.44456721, 52.4767126 ], [ 13.44460852, 52.47674013 ], [ 13.44451563, 52.47679332 ], [ 13.44447578, 52.4767708 ], [ 13.44452806, 52.47673765 ], [ 13.44439959, 52.47666027 ], [ 13.44427462, 52.47673709 ], [ 13.44440022, 52.47681293 ] ] ] } },
{ "type": "Feature", "properties": { "id": "HAUS581913", "typ": "Kindertagesstätte" }, "geometry": { "type": "Polygon", "coordinates": [ [ [ 13.45268947, 52.47721049 ], [ 13.45270231, 52.47720417 ], [ 13.45271354, 52.47721266 ], [ 13.45267213, 52.47723316 ], [ 13.45272489, 52.47727286 ], [ 13.45276651, 52.47725226 ], [ 13.45277625, 52.47725965 ], [ 13.45276338, 52.47726605 ], [ 13.45283238, 52.47731784 ], [ 13.45297616, 52.47724664 ], [ 13.45298547, 52.47725362 ], [ 13.45307688, 52.47720849 ], [ 13.45306749, 52.47720143 ], [ 13.45321149, 52.47713012 ], [ 13.45314309, 52.47707802 ], [ 13.45313006, 52.47708443 ], [ 13.45312013, 52.4770769 ], [ 13.45316184, 52.47705622 ], [ 13.45310891, 52.47701651 ], [ 13.45306759, 52.47703702 ], [ 13.4530565, 52.47702874 ], [ 13.45306965, 52.47702213 ], [ 13.45300022, 52.47697053 ], [ 13.45262078, 52.4771584 ], [ 13.45268947, 52.47721049 ] ] ] } },
{ "type": "Feature", "properties": { "id": "HAUS582375", "typ": "Kindertagesstätte" }, "geometry": { "type": "Polygon", "coordinates": [ [ [ 13.44213931, 52.44081773 ], [ 13.44211895, 52.44077784 ], [ 13.44208384, 52.44078453 ], [ 13.4420768, 52.44077071 ], [ 13.44192389, 52.44079984 ], [ 13.44193029, 52.44081237 ], [ 13.44174796, 52.440847 ], [ 13.44174165, 52.44083456 ], [ 13.44173435, 52.44083596 ], [ 13.44178613, 52.4409363 ], [ 13.44183722, 52.44092645 ], [ 13.44184916, 52.44094917 ], [ 13.44204747, 52.44091164 ], [ 13.4420373, 52.44089053 ], [ 13.44232922, 52.44083343 ], [ 13.44230619, 52.44078876 ], [ 13.44230468, 52.44078549 ], [ 13.44213931, 52.44081773 ] ] ] } },
{ "type": "Feature", "properties": { "id": "HAUS582406", "typ": "Kindertagesstätte" }, "geometry": { "type": "Polygon", "coordinates": [ [ [ 13.44057348, 52.48007285 ], [ 13.44057288, 52.48007402 ], [ 13.44057862, 52.48007484 ], [ 13.44057193, 52.48009118 ], [ 13.44074697, 52.48011769 ], [ 13.44075857, 52.48008941 ], [ 13.44077298, 52.48009159 ], [ 13.44077342, 52.48009051 ], [ 13.44099039, 52.48012356 ], [ 13.44099128, 52.48012132 ], [ 13.44104512, 52.48012949 ], [ 13.44103247, 52.48016038 ], [ 13.44112602, 52.48017455 ], [ 13.44119399, 52.48000714 ], [ 13.44110044, 52.47999298 ], [ 13.44108423, 52.48003304 ], [ 13.44103069, 52.48002486 ], [ 13.44103144, 52.48002288 ], [ 13.44094804, 52.48001018 ], [ 13.44094893, 52.48000802 ], [ 13.44066651, 52.47996525 ], [ 13.44066562, 52.47996732 ], [ 13.44063355, 52.47996241 ], [ 13.44064753, 52.47992792 ], [ 13.44055221, 52.47991339 ], [ 13.44049258, 52.48006059 ], [ 13.44057348, 52.48007285 ] ] ] } },
{ "type": "Feature", "properties": { "id": "HAUS582867", "typ": "Kindertagesstätte" }, "geometry": { "type": "Polygon", "coordinates": [ [ [ 13.47219515, 52.46627616 ], [ 13.4721751, 52.46628966 ], [ 13.47226298, 52.46633834 ], [ 13.4723654, 52.46626953 ], [ 13.47236944, 52.46627177 ], [ 13.47237939, 52.46626502 ], [ 13.47236433, 52.46625671 ], [ 13.47245096, 52.4661977 ], [ 13.47248252, 52.46621497 ], [ 13.47253957, 52.46617612 ], [ 13.4725261, 52.46616875 ], [ 13.47259885, 52.46611681 ], [ 13.47257242, 52.46610295 ], [ 13.47263675, 52.46606296 ], [ 13.47268064, 52.46608624 ], [ 13.47275093, 52.46603858 ], [ 13.47269798, 52.46600939 ], [ 13.47267223, 52.46602679 ], [ 13.47264331, 52.466011 ], [ 13.47264706, 52.46600847 ], [ 13.47259354, 52.46597929 ], [ 13.4725678, 52.4659967 ], [ 13.4725391, 52.46598097 ], [ 13.4725428, 52.46597843 ], [ 13.4724895, 52.46594922 ], [ 13.47246351, 52.46596644 ], [ 13.47242932, 52.46594759 ], [ 13.4723601, 52.46599432 ], [ 13.4725092, 52.46607641 ], [ 13.47248951, 52.46608976 ], [ 13.47246732, 52.46607755 ], [ 13.47244471, 52.46609355 ], [ 13.47246637, 52.46610546 ], [ 13.47242607, 52.46613278 ], [ 13.47237744, 52.46610683 ], [ 13.47227937, 52.46617336 ], [ 13.47228354, 52.46617564 ], [ 13.4722601, 52.46619153 ], [ 13.47225597, 52.46618925 ], [ 13.47215809, 52.46625562 ], [ 13.47219515, 52.46627616 ] ] ] } },
{ "type": "Feature", "properties": { "id": "HAUS582891", "typ": "Kindertagesstätte" }, "geometry": { "type": "Polygon", "coordinates": [ [ [ 13.44750906, 52.48689417 ], [ 13.44753514, 52.4868795 ], [ 13.44758315, 52.4869115 ], [ 13.44763534, 52.4868823 ], [ 13.44772982, 52.48694567 ], [ 13.4477559, 52.48693094 ], [ 13.4478279, 52.48697922 ], [ 13.44793516, 52.48691973 ], [ 13.44795666, 52.48693445 ], [ 13.44803489, 52.48689098 ], [ 13.44799048, 52.48686053 ], [ 13.44799233, 52.4868595 ], [ 13.44794397, 52.48682711 ], [ 13.44799707, 52.48679778 ], [ 13.44799509, 52.48679658 ], [ 13.44804888, 52.48676629 ], [ 13.44797656, 52.48671794 ], [ 13.44792291, 52.48674771 ], [ 13.44790199, 52.48673383 ], [ 13.44792796, 52.48671921 ], [ 13.44785291, 52.48666889 ], [ 13.44783147, 52.48665693 ], [ 13.44788478, 52.4866275 ], [ 13.44783354, 52.48659323 ], [ 13.44772997, 52.48665063 ], [ 13.44770522, 52.48663434 ], [ 13.44754289, 52.48672464 ], [ 13.44756768, 52.48674101 ], [ 13.4474942, 52.48678121 ], [ 13.44740328, 52.48672025 ], [ 13.44748115, 52.48667708 ], [ 13.44742809, 52.48664163 ], [ 13.44726669, 52.48673155 ], [ 13.44750906, 52.48689417 ] ] ] } },
{ "type": "Feature", "properties": { "id": "HAUS583143", "typ": "Kindertagesstätte" }, "geometry": { "type": "Polygon", "coordinates": [ [ [ 13.42162638, 52.48354565 ], [ 13.42162616, 52.48356278 ], [ 13.42175637, 52.48356225 ], [ 13.42175067, 52.48357047 ], [ 13.42175115, 52.48358782 ], [ 13.42189427, 52.48358831 ], [ 13.42189199, 52.48344131 ], [ 13.42175417, 52.48344086 ], [ 13.42175403, 52.48348592 ], [ 13.42165243, 52.48348644 ], [ 13.42165175, 52.4834181 ], [ 13.4216377, 52.48341814 ], [ 13.42160417, 52.48341472 ], [ 13.42160314, 52.48341808 ], [ 13.4216189, 52.48341968 ], [ 13.42158647, 52.48354151 ], [ 13.42162638, 52.48354565 ] ] ] } },
{ "type": "Feature", "properties": { "id": "HAUS583379", "typ": "Kindertagesstätte" }, "geometry": { "type": "Polygon", "coordinates": [ [ [ 13.43611375, 52.48464831 ], [ 13.43614001, 52.4846355 ], [ 13.43629336, 52.48475183 ], [ 13.4363547, 52.48472039 ], [ 13.43634545, 52.48471283 ], [ 13.43643792, 52.48466598 ], [ 13.4362586, 52.4845282 ], [ 13.43618438, 52.48456367 ], [ 13.43614995, 52.48453574 ], [ 13.43608781, 52.48456326 ], [ 13.43603809, 52.48459037 ], [ 13.43611375, 52.48464831 ] ] ] } },
{ "type": "Feature", "properties": { "id": "HAUS583691", "typ": "Kindertagesstätte" }, "geometry": { "type": "Polygon", "coordinates": [ [ [ 13.46985016, 52.46868561 ], [ 13.46999379, 52.4687665 ], [ 13.46993493, 52.46880614 ], [ 13.46985622, 52.46876164 ], [ 13.46963129, 52.46891017 ], [ 13.46948694, 52.46882847 ], [ 13.46941362, 52.46887681 ], [ 13.46955886, 52.46895851 ], [ 13.46953365, 52.46897456 ], [ 13.46964657, 52.46903842 ], [ 13.46996635, 52.46882506 ], [ 13.46996342, 52.46882335 ], [ 13.4700236, 52.46878307 ], [ 13.47007235, 52.46881073 ], [ 13.47019271, 52.46873091 ], [ 13.46997007, 52.46860561 ], [ 13.46991491, 52.4686422 ], [ 13.46985016, 52.46868561 ] ] ] } },
{ "type": "Feature", "properties": { "id": "HAUS583781", "typ": "Kindertagesstätte" }, "geometry": { "type": "Polygon", "coordinates": [ [ [ 13.43763395, 52.46470596 ], [ 13.43771116, 52.46471435 ], [ 13.43768742, 52.46479565 ], [ 13.4376911, 52.4647961 ], [ 13.43768333, 52.4648234 ], [ 13.43773804, 52.46482951 ], [ 13.4377464, 52.46480077 ], [ 13.43802818, 52.46483133 ], [ 13.43802145, 52.4648572 ], [ 13.43811543, 52.46486723 ], [ 13.4381223, 52.46484154 ], [ 13.43819863, 52.46484975 ], [ 13.43822163, 52.46476971 ], [ 13.43823662, 52.46477122 ], [ 13.43824266, 52.46476871 ], [ 13.43825104, 52.46474038 ], [ 13.43824973, 52.46473705 ], [ 13.43824673, 52.46473564 ], [ 13.4382318, 52.46473414 ], [ 13.43825481, 52.4646542 ], [ 13.43774491, 52.46459794 ], [ 13.43772148, 52.46467869 ], [ 13.43764085, 52.46467065 ], [ 13.437636, 52.46467415 ], [ 13.43762809, 52.46470073 ], [ 13.43762799, 52.46470189 ], [ 13.43763395, 52.46470596 ] ] ] } },
{ "type": "Feature", "properties": { "id": "HAUS583966", "typ": "Kindertagesstätte" }, "geometry": { "type": "Polygon", "coordinates": [ [ [ 13.43603809, 52.48459037 ], [ 13.43608781, 52.48456326 ], [ 13.436017, 52.48451151 ], [ 13.43601014, 52.484515 ], [ 13.43600433, 52.48451074 ], [ 13.43601274, 52.48450649 ], [ 13.43598053, 52.4844817 ], [ 13.43592723, 52.48450745 ], [ 13.43603809, 52.48459037 ] ] ] } },
{ "type": "Feature", "properties": { "id": "HAUS584088", "typ": "Kindertagesstätte" }, "geometry": { "type": "Polygon", "coordinates": [ [ [ 13.4722368, 52.4659019 ], [ 13.47228454, 52.46592834 ], [ 13.47234652, 52.4658867 ], [ 13.4723954, 52.46591363 ], [ 13.47256122, 52.46580129 ], [ 13.47244603, 52.46573742 ], [ 13.47227929, 52.46584999 ], [ 13.47226265, 52.46584089 ], [ 13.47219721, 52.46588484 ], [ 13.47223266, 52.46590471 ], [ 13.4722368, 52.4659019 ] ] ] } },
{ "type": "Feature", "properties": { "id": "HAUS584266", "typ": "Kindertagesstätte" }, "geometry": { "type": "Polygon", "coordinates": [ [ [ 13.424422, 52.46525959 ], [ 13.4244986, 52.46526941 ], [ 13.42450179, 52.46525962 ], [ 13.42453672, 52.4652639 ], [ 13.42451554, 52.46532921 ], [ 13.42460396, 52.46533939 ], [ 13.42460151, 52.46534736 ], [ 13.42464084, 52.46535133 ], [ 13.42464144, 52.46535917 ], [ 13.42465194, 52.4653637 ], [ 13.42467978, 52.46536609 ], [ 13.42468951, 52.46536269 ], [ 13.42469236, 52.46535751 ], [ 13.42484283, 52.46537516 ], [ 13.42486261, 52.46539275 ], [ 13.42486719, 52.465391 ], [ 13.42493031, 52.46539854 ], [ 13.42494321, 52.46535995 ], [ 13.4249935, 52.4653393 ], [ 13.42500942, 52.46534127 ], [ 13.42502576, 52.46528995 ], [ 13.4249878, 52.46528545 ], [ 13.42493194, 52.46523583 ], [ 13.42493709, 52.46522384 ], [ 13.42488694, 52.46517924 ], [ 13.42486783, 52.46517788 ], [ 13.42481494, 52.46512925 ], [ 13.42482042, 52.46511428 ], [ 13.42473645, 52.46510451 ], [ 13.42473268, 52.46511524 ], [ 13.42467254, 52.46513956 ], [ 13.42463646, 52.46513556 ], [ 13.42459959, 52.46525128 ], [ 13.42450798, 52.4652405 ], [ 13.42448495, 52.46521969 ], [ 13.42448644, 52.4652151 ], [ 13.42444213, 52.46520974 ], [ 13.42444026, 52.46521491 ], [ 13.42442216, 52.46522196 ], [ 13.42441192, 52.46525167 ], [ 13.424422, 52.46525959 ] ] ] } },
{ "type": "Feature", "properties": { "id": "HAUS584364", "typ": "Kindertagesstätte" }, "geometry": { "type": "Polygon", "coordinates": [ [ [ 13.46560828, 52.47176234 ], [ 13.46560388, 52.47176551 ], [ 13.46572113, 52.47182683 ], [ 13.46589862, 52.47170099 ], [ 13.4659062, 52.47170459 ], [ 13.46596027, 52.47169366 ], [ 13.46606616, 52.47175045 ], [ 13.46625993, 52.4716138 ], [ 13.46624939, 52.47160786 ], [ 13.46628753, 52.47158506 ], [ 13.46631205, 52.47159799 ], [ 13.46644259, 52.47150738 ], [ 13.46631963, 52.47144054 ], [ 13.46628931, 52.47146152 ], [ 13.46622634, 52.47142802 ], [ 13.46616421, 52.47146951 ], [ 13.46619257, 52.47148433 ], [ 13.46613602, 52.47152325 ], [ 13.46610054, 52.47150414 ], [ 13.46596067, 52.47160097 ], [ 13.46583963, 52.471538 ], [ 13.46577751, 52.47158202 ], [ 13.46579309, 52.47158956 ], [ 13.4657354, 52.47162914 ], [ 13.46574593, 52.47163444 ], [ 13.46569736, 52.47166876 ], [ 13.46568088, 52.47165969 ], [ 13.46562556, 52.47169909 ], [ 13.46559913, 52.47168562 ], [ 13.46554086, 52.4717265 ], [ 13.46560828, 52.47176234 ] ] ] } },
{ "type": "Feature", "properties": { "id": "HAUS584545", "typ": "Kindertagesstätte" }, "geometry": { "type": "Polygon", "coordinates": [ [ [ 13.43273838, 52.4873997 ], [ 13.43287027, 52.48735208 ], [ 13.43285287, 52.48733415 ], [ 13.43286482, 52.48732984 ], [ 13.43288218, 52.48734777 ], [ 13.43301434, 52.48730007 ], [ 13.43299692, 52.48728212 ], [ 13.43300885, 52.48727781 ], [ 13.43302626, 52.48729577 ], [ 13.43315876, 52.48724791 ], [ 13.43314146, 52.48723002 ], [ 13.43315287, 52.48722592 ], [ 13.43317019, 52.48724377 ], [ 13.43330257, 52.48719598 ], [ 13.43320556, 52.48709611 ], [ 13.43264624, 52.48729828 ], [ 13.43264168, 52.48729994 ], [ 13.43273838, 52.4873997 ] ] ] } },
{ "type": "Feature", "properties": { "id": "HAUS584806", "typ": "Kindertagesstätte" }, "geometry": { "type": "Polygon", "coordinates": [ [ [ 13.43734294, 52.47693039 ], [ 13.43735537, 52.4768981 ], [ 13.4376539, 52.47694406 ], [ 13.43771249, 52.47680152 ], [ 13.43778368, 52.47662594 ], [ 13.43764457, 52.47660456 ], [ 13.43754444, 52.47685037 ], [ 13.4373853, 52.47682626 ], [ 13.43741289, 52.47675618 ], [ 13.43727556, 52.4767354 ], [ 13.43723517, 52.47683636 ], [ 13.43712346, 52.47681873 ], [ 13.4370934, 52.47689201 ], [ 13.43734294, 52.47693039 ] ] ] } },
{ "type": "Feature", "properties": { "id": "HAUS584937", "typ": "Kindertagesstätte" }, "geometry": { "type": "Polygon", "coordinates": [ [ [ 13.43559512, 52.47641133 ], [ 13.43557566, 52.47646425 ], [ 13.43556988, 52.47646345 ], [ 13.43556125, 52.47648689 ], [ 13.43556701, 52.47648769 ], [ 13.43555378, 52.47652359 ], [ 13.43555984, 52.4765244 ], [ 13.4355612, 52.47652072 ], [ 13.43571063, 52.47654373 ], [ 13.43571139, 52.47654155 ], [ 13.43603172, 52.47658491 ], [ 13.43603048, 52.47658824 ], [ 13.43612456, 52.47660097 ], [ 13.43616751, 52.4764886 ], [ 13.43611234, 52.4764821 ], [ 13.43559512, 52.47641133 ] ] ] } },
{ "type": "Feature", "properties": { "id": "HAUS585151", "typ": "Kindertagesstätte" }, "geometry": { "type": "Polygon", "coordinates": [ [ [ 13.43066099, 52.48922525 ], [ 13.43074467, 52.4891944 ], [ 13.43080321, 52.48925428 ], [ 13.43081801, 52.48924888 ], [ 13.43083805, 52.48926921 ], [ 13.43082313, 52.48927465 ], [ 13.43085293, 52.48930513 ], [ 13.43080647, 52.48932232 ], [ 13.43091196, 52.48942854 ], [ 13.4311993, 52.48932221 ], [ 13.43112332, 52.4892453 ], [ 13.43109077, 52.48925706 ], [ 13.43098409, 52.489149 ], [ 13.43101044, 52.48913932 ], [ 13.43089607, 52.48902444 ], [ 13.43057764, 52.48914186 ], [ 13.43066099, 52.48922525 ] ] ] } },
{ "type": "Feature", "properties": { "id": "HAUS586238", "typ": "Kindertagesstätte" }, "geometry": { "type": "Polygon", "coordinates": [ [ [ 13.48170218, 52.42185099 ], [ 13.48160708, 52.42185105 ], [ 13.48160693, 52.42189706 ], [ 13.4816428, 52.4218971 ], [ 13.48164271, 52.42196864 ], [ 13.48154731, 52.42196861 ], [ 13.48154825, 52.42190652 ], [ 13.48160704, 52.42190659 ], [ 13.48160561, 52.42185105 ], [ 13.48151875, 52.42185094 ], [ 13.48151914, 52.42181841 ], [ 13.4814308, 52.42181812 ], [ 13.48143049, 52.42186755 ], [ 13.48137905, 52.42186721 ], [ 13.48137896, 52.42193821 ], [ 13.48132751, 52.42193805 ], [ 13.48132717, 52.42199763 ], [ 13.48135465, 52.42199776 ], [ 13.48135458, 52.42202131 ], [ 13.48165032, 52.42202175 ], [ 13.48165031, 52.42202625 ], [ 13.48176188, 52.4220263 ], [ 13.4817619, 52.42202189 ], [ 13.48193829, 52.42202229 ], [ 13.48193842, 52.42198042 ], [ 13.48188198, 52.42198025 ], [ 13.48188198, 52.42193227 ], [ 13.48183245, 52.42193184 ], [ 13.48183245, 52.42188332 ], [ 13.48193844, 52.42188336 ], [ 13.48193876, 52.42183132 ], [ 13.48177002, 52.42183085 ], [ 13.4817024, 52.42183077 ], [ 13.48170218, 52.42185099 ] ] ] } },
{ "type": "Feature", "properties": { "id": "HAUS586839", "typ": "Kindertagesstätte" }, "geometry": { "type": "Polygon", "coordinates": [ [ [ 13.50649863, 52.40675458 ], [ 13.5065605, 52.40669416 ], [ 13.50654069, 52.40668668 ], [ 13.50658872, 52.40663973 ], [ 13.50659282, 52.40664135 ], [ 13.50666414, 52.40657177 ], [ 13.50638143, 52.40646311 ], [ 13.50639129, 52.40645341 ], [ 13.50638468, 52.40645107 ], [ 13.50630292, 52.40653088 ], [ 13.5061936, 52.40663753 ], [ 13.50649863, 52.40675458 ] ] ] } },
{ "type": "Feature", "properties": { "id": "HAUS587849", "typ": "Kindertagesstätte" }, "geometry": { "type": "Polygon", "coordinates": [ [ [ 13.47243788, 52.42038981 ], [ 13.47245081, 52.42038982 ], [ 13.47246921, 52.42040074 ], [ 13.47246899, 52.42041438 ], [ 13.47253683, 52.4204148 ], [ 13.47253696, 52.4204069 ], [ 13.47257768, 52.42040678 ], [ 13.47257745, 52.42043267 ], [ 13.47260288, 52.42043279 ], [ 13.47261594, 52.42044063 ], [ 13.4726159, 52.42044845 ], [ 13.47267675, 52.42044852 ], [ 13.47267655, 52.42046667 ], [ 13.47270786, 52.42046672 ], [ 13.4727221, 52.42046309 ], [ 13.47272789, 52.42045435 ], [ 13.47272784, 52.4204263 ], [ 13.47301592, 52.42042704 ], [ 13.47301582, 52.42046074 ], [ 13.47316839, 52.42046093 ], [ 13.47316891, 52.4203947 ], [ 13.47315568, 52.42039469 ], [ 13.47315486, 52.42037572 ], [ 13.47319984, 52.42037587 ], [ 13.47320029, 52.42032959 ], [ 13.47319788, 52.42032336 ], [ 13.47319052, 52.42031881 ], [ 13.47318035, 52.42031726 ], [ 13.47315625, 52.42031714 ], [ 13.47315671, 52.42023193 ], [ 13.47318638, 52.42023207 ], [ 13.4731862, 52.42024294 ], [ 13.4733076, 52.42024328 ], [ 13.47330763, 52.42023546 ], [ 13.4733256, 52.42022416 ], [ 13.47334957, 52.42022419 ], [ 13.47335001, 52.42017719 ], [ 13.4733243, 52.42017707 ], [ 13.4733244, 52.42014786 ], [ 13.47335012, 52.4201479 ], [ 13.47335043, 52.42010081 ], [ 13.47332647, 52.42010069 ], [ 13.47330858, 52.42008943 ], [ 13.47330861, 52.42008152 ], [ 13.47324791, 52.42008153 ], [ 13.47324787, 52.42009061 ], [ 13.47322949, 52.4200905 ], [ 13.47322986, 52.42002858 ], [ 13.47321693, 52.42002856 ], [ 13.4731983, 52.42001739 ], [ 13.47319836, 52.41999933 ], [ 13.47304417, 52.41999904 ], [ 13.4730441, 52.4200171 ], [ 13.473026, 52.42002831 ], [ 13.47301305, 52.42002803 ], [ 13.47301282, 52.42005157 ], [ 13.47299048, 52.42005181 ], [ 13.47299036, 52.42004372 ], [ 13.47292275, 52.42004382 ], [ 13.47292283, 52.42006412 ], [ 13.47290427, 52.42007516 ], [ 13.47289133, 52.42007513 ], [ 13.47289091, 52.42011207 ], [ 13.47294427, 52.42011223 ], [ 13.47294453, 52.4201223 ], [ 13.47293703, 52.42012229 ], [ 13.47293659, 52.42021 ], [ 13.47294422, 52.42021001 ], [ 13.47294389, 52.42022035 ], [ 13.47290877, 52.42022003 ], [ 13.47290842, 52.42023126 ], [ 13.47289075, 52.42024229 ], [ 13.47287768, 52.42024227 ], [ 13.47287726, 52.42027741 ], [ 13.4728533, 52.42027737 ], [ 13.47285352, 52.42025608 ], [ 13.47268448, 52.42025559 ], [ 13.47268453, 52.42023996 ], [ 13.47261663, 52.42023977 ], [ 13.47261661, 52.4202476 ], [ 13.47260364, 52.4202553 ], [ 13.47257807, 52.42025545 ], [ 13.47257842, 52.42028124 ], [ 13.47253765, 52.42028116 ], [ 13.47253769, 52.42027323 ], [ 13.47246981, 52.42027312 ], [ 13.47246974, 52.42028663 ], [ 13.47245118, 52.42029778 ], [ 13.47243827, 52.42029775 ], [ 13.47243788, 52.42038981 ] ] ] } },
{ "type": "Feature", "properties": { "id": "HAUS588957", "typ": "Kindertagesstätte" }, "geometry": { "type": "Polygon", "coordinates": [ [ [ 13.49938417, 52.42041892 ], [ 13.4993326, 52.42046048 ], [ 13.49924658, 52.42042075 ], [ 13.49929506, 52.42038153 ], [ 13.49908704, 52.42028509 ], [ 13.49910141, 52.42027353 ], [ 13.49901504, 52.42023349 ], [ 13.49892585, 52.42030506 ], [ 13.4989419, 52.42031253 ], [ 13.49887439, 52.42036757 ], [ 13.49897692, 52.42041515 ], [ 13.49901149, 52.42038733 ], [ 13.49919575, 52.42047281 ], [ 13.4991829, 52.42048323 ], [ 13.49922797, 52.42050413 ], [ 13.49923224, 52.42050063 ], [ 13.49926395, 52.42051522 ], [ 13.49925952, 52.42051863 ], [ 13.4992977, 52.42053638 ], [ 13.49926543, 52.4205625 ], [ 13.49931064, 52.42058285 ], [ 13.49932464, 52.4205711 ], [ 13.49939407, 52.42060298 ], [ 13.49950324, 52.4205153 ], [ 13.49943366, 52.42048288 ], [ 13.49946622, 52.42045649 ], [ 13.49939476, 52.42042377 ], [ 13.49938417, 52.42041892 ] ] ] } },
{ "type": "Feature", "properties": { "id": "HAUS588971", "typ": "Kindertagesstätte" }, "geometry": { "type": "Polygon", "coordinates": [ [ [ 13.50393501, 52.40409737 ], [ 13.50399584, 52.4040381 ], [ 13.50397542, 52.40402996 ], [ 13.50402492, 52.40398093 ], [ 13.50402974, 52.4039825 ], [ 13.50409879, 52.40391474 ], [ 13.50381199, 52.40380471 ], [ 13.50368511, 52.40392923 ], [ 13.50368333, 52.40392861 ], [ 13.50362963, 52.4039803 ], [ 13.50393501, 52.40409737 ] ] ] } },
{ "type": "Feature", "properties": { "id": "HAUS589795", "typ": "Kindertagesstätte" }, "geometry": { "type": "Polygon", "coordinates": [ [ [ 13.49241027, 52.41851386 ], [ 13.49246897, 52.41854411 ], [ 13.49248414, 52.41853308 ], [ 13.49254578, 52.41856478 ], [ 13.49254062, 52.41856855 ], [ 13.49271936, 52.41866059 ], [ 13.49274808, 52.41863978 ], [ 13.49275234, 52.41864194 ], [ 13.49280139, 52.41860641 ], [ 13.4926228, 52.41851445 ], [ 13.49249791, 52.41845015 ], [ 13.49241027, 52.41851386 ] ] ] } },
{ "type": "Feature", "properties": { "id": "HAUS608074", "typ": "Kindertagesstätte" }, "geometry": { "type": "Polygon", "coordinates": [ [ [ 13.43693486, 52.42143039 ], [ 13.4369384, 52.42141472 ], [ 13.43704528, 52.42142373 ], [ 13.43704128, 52.42144146 ], [ 13.43724726, 52.42145871 ], [ 13.43724574, 52.42146557 ], [ 13.43738034, 52.42147675 ], [ 13.43739187, 52.42142599 ], [ 13.43745595, 52.4214314 ], [ 13.4374901, 52.42127994 ], [ 13.43748034, 52.42127914 ], [ 13.43750043, 52.42118892 ], [ 13.43751018, 52.42118975 ], [ 13.43752352, 52.42113064 ], [ 13.43745447, 52.42112513 ], [ 13.43746764, 52.42106602 ], [ 13.43721476, 52.42104458 ], [ 13.43720173, 52.4211037 ], [ 13.43711989, 52.42109674 ], [ 13.4371067, 52.42115567 ], [ 13.4371161, 52.42115668 ], [ 13.43709558, 52.42124668 ], [ 13.43708631, 52.42124595 ], [ 13.43707403, 52.42130129 ], [ 13.43693288, 52.42128881 ], [ 13.43693465, 52.42127366 ], [ 13.43686529, 52.42126797 ], [ 13.43684747, 52.4213473 ], [ 13.43688212, 52.42135016 ], [ 13.43687433, 52.42138546 ], [ 13.43683966, 52.4213826 ], [ 13.43683068, 52.42142159 ], [ 13.43693486, 52.42143039 ] ] ] } },
{ "type": "Feature", "properties": { "id": "HAUS608089", "typ": "Kindertagesstätte" }, "geometry": { "type": "Polygon", "coordinates": [ [ [ 13.48852931, 52.41596003 ], [ 13.48854476, 52.41599157 ], [ 13.48855481, 52.41600684 ], [ 13.48857938, 52.41603613 ], [ 13.48859382, 52.41605004 ], [ 13.48860312, 52.41604558 ], [ 13.48860997, 52.41605314 ], [ 13.48857785, 52.41606418 ], [ 13.48859791, 52.41608591 ], [ 13.48862977, 52.41607491 ], [ 13.48863677, 52.41608256 ], [ 13.48863238, 52.41608408 ], [ 13.48863104, 52.41608264 ], [ 13.48859493, 52.41609488 ], [ 13.48862263, 52.41614995 ], [ 13.48892304, 52.41604695 ], [ 13.48892392, 52.41604794 ], [ 13.48898795, 52.41602627 ], [ 13.48898704, 52.41602528 ], [ 13.48931558, 52.41591526 ], [ 13.48931225, 52.41591162 ], [ 13.48933408, 52.41587458 ], [ 13.48932807, 52.41587335 ], [ 13.48932746, 52.41587443 ], [ 13.48930285, 52.41584744 ], [ 13.48935378, 52.41583006 ], [ 13.4893532, 52.41583105 ], [ 13.48935939, 52.41583248 ], [ 13.48941394, 52.41574163 ], [ 13.48939205, 52.41574794 ], [ 13.48935224, 52.41570384 ], [ 13.48937487, 52.41569619 ], [ 13.48933458, 52.41565188 ], [ 13.48914309, 52.41571695 ], [ 13.48917722, 52.41575445 ], [ 13.48917939, 52.41575373 ], [ 13.48918177, 52.41575643 ], [ 13.48908948, 52.41578752 ], [ 13.48908716, 52.41578481 ], [ 13.48908938, 52.4157841 ], [ 13.48905498, 52.41574644 ], [ 13.48898224, 52.41577123 ], [ 13.48901608, 52.41580845 ], [ 13.48901846, 52.41580765 ], [ 13.48902137, 52.4158108 ], [ 13.48892839, 52.41584188 ], [ 13.48892575, 52.415839 ], [ 13.48892813, 52.41583819 ], [ 13.48889441, 52.41580092 ], [ 13.48882172, 52.4158255 ], [ 13.48885527, 52.41586264 ], [ 13.48885747, 52.41586192 ], [ 13.48886029, 52.41586515 ], [ 13.48876775, 52.41589659 ], [ 13.48876526, 52.41589381 ], [ 13.48876758, 52.415893 ], [ 13.48873346, 52.41585542 ], [ 13.4886608, 52.41588005 ], [ 13.48869491, 52.41591763 ], [ 13.48869711, 52.41591691 ], [ 13.48869949, 52.4159197 ], [ 13.4886072, 52.4159507 ], [ 13.48860457, 52.4159479 ], [ 13.48860695, 52.41594709 ], [ 13.48857296, 52.41590967 ], [ 13.48852025, 52.41592758 ], [ 13.48852931, 52.41596003 ] ] ] } },
{ "type": "Feature", "properties": { "id": "HAUS608687", "typ": "Kindertagesstätte" }, "geometry": { "type": "Polygon", "coordinates": [ [ [ 13.45551893, 52.42468964 ], [ 13.45552629, 52.42468767 ], [ 13.45555902, 52.42473994 ], [ 13.45568203, 52.424711 ], [ 13.45571636, 52.42476595 ], [ 13.45576094, 52.42475568 ], [ 13.45575817, 52.42475092 ], [ 13.45584248, 52.42473145 ], [ 13.45582143, 52.42469762 ], [ 13.45585777, 52.42468932 ], [ 13.45586275, 52.4246976 ], [ 13.45594529, 52.42467866 ], [ 13.45597962, 52.42473362 ], [ 13.45602419, 52.42472317 ], [ 13.45602083, 52.4247184 ], [ 13.45610529, 52.42469875 ], [ 13.45608439, 52.42466511 ], [ 13.45612044, 52.42465663 ], [ 13.45612584, 52.42466518 ], [ 13.4562215, 52.42464275 ], [ 13.45620381, 52.42461568 ], [ 13.45619689, 52.42461747 ], [ 13.45616387, 52.42456575 ], [ 13.45608192, 52.42458486 ], [ 13.4560315, 52.42450472 ], [ 13.45594616, 52.42452473 ], [ 13.4559491, 52.42452922 ], [ 13.45590598, 52.4245395 ], [ 13.45593725, 52.42459005 ], [ 13.45581895, 52.42461755 ], [ 13.45576899, 52.42453732 ], [ 13.4556835, 52.42455732 ], [ 13.45568613, 52.42456192 ], [ 13.45564317, 52.42457218 ], [ 13.45567487, 52.42462247 ], [ 13.45550242, 52.42466283 ], [ 13.45551893, 52.42468964 ] ] ] } },
{ "type": "Feature", "properties": { "id": "HAUS610183", "typ": "Kindertagesstätte" }, "geometry": { "type": "Polygon", "coordinates": [ [ [ 13.50993009, 52.40297178 ], [ 13.5099909, 52.40291253 ], [ 13.50997025, 52.40290469 ], [ 13.51002028, 52.40285556 ], [ 13.51002396, 52.40285679 ], [ 13.51009354, 52.40278913 ], [ 13.5098069, 52.40267928 ], [ 13.50968124, 52.40280195 ], [ 13.50967969, 52.40280129 ], [ 13.50962501, 52.40285468 ], [ 13.50993009, 52.40297178 ] ] ] } },
{ "type": "Feature", "properties": { "id": "HAUS611189", "typ": "Kindertagesstätte" }, "geometry": { "type": "Polygon", "coordinates": [ [ [ 13.45062742, 52.43084188 ], [ 13.45085856, 52.43084223 ], [ 13.45085853, 52.43087676 ], [ 13.45098743, 52.43087709 ], [ 13.45098755, 52.43080872 ], [ 13.45100765, 52.4308085 ], [ 13.45100819, 52.43071849 ], [ 13.45089952, 52.43071825 ], [ 13.45089941, 52.43073327 ], [ 13.45063839, 52.43073245 ], [ 13.45063745, 52.43080247 ], [ 13.45062757, 52.4308024 ], [ 13.45062742, 52.43084188 ] ] ] } },
{ "type": "Feature", "properties": { "id": "HAUS611615", "typ": "Kindertagesstätte" }, "geometry": { "type": "Polygon", "coordinates": [ [ [ 13.43435351, 52.4571449 ], [ 13.43434764, 52.45716185 ], [ 13.43450432, 52.45718256 ], [ 13.43454679, 52.45706255 ], [ 13.4345186, 52.45705881 ], [ 13.43452777, 52.45703226 ], [ 13.43446577, 52.45702419 ], [ 13.43451807, 52.45687904 ], [ 13.4345719, 52.45688597 ], [ 13.4345918, 52.45683058 ], [ 13.43457501, 52.45682835 ], [ 13.43458176, 52.45680946 ], [ 13.43459863, 52.45681171 ], [ 13.43465343, 52.45665765 ], [ 13.43447547, 52.45663378 ], [ 13.43439378, 52.45686206 ], [ 13.43441735, 52.45686527 ], [ 13.43440968, 52.45688764 ], [ 13.4343316, 52.45687717 ], [ 13.4342413, 52.45713001 ], [ 13.43435351, 52.4571449 ] ] ] } },
{ "type": "Feature", "properties": { "id": "HAUS612562", "typ": "Kindertagesstätte" }, "geometry": { "type": "Polygon", "coordinates": [ [ [ 13.43679897, 52.48630752 ], [ 13.4367903, 52.48631174 ], [ 13.4369593, 52.48644047 ], [ 13.43710144, 52.48637092 ], [ 13.43711968, 52.48638495 ], [ 13.43718997, 52.48635069 ], [ 13.43717533, 52.48633958 ], [ 13.43720172, 52.48632677 ], [ 13.43721608, 52.48633794 ], [ 13.43744587, 52.48622555 ], [ 13.43732161, 52.48613122 ], [ 13.4373173, 52.48613324 ], [ 13.43733102, 52.48614377 ], [ 13.43713701, 52.48623851 ], [ 13.43713011, 52.48623322 ], [ 13.43708263, 52.48625637 ], [ 13.4370894, 52.48626161 ], [ 13.43701322, 52.48629881 ], [ 13.43689625, 52.48620939 ], [ 13.43691639, 52.48619954 ], [ 13.43679697, 52.48610852 ], [ 13.43663876, 52.48618561 ], [ 13.43679897, 52.48630752 ] ] ] } },
{ "type": "Feature", "properties": { "id": "HAUS612849", "typ": "Kindertagesstätte" }, "geometry": { "type": "Polygon", "coordinates": [ [ [ 13.50761737, 52.41926698 ], [ 13.50759269, 52.4193224 ], [ 13.50787712, 52.41936987 ], [ 13.50802382, 52.41904217 ], [ 13.50779769, 52.41900429 ], [ 13.50779806, 52.4189993 ], [ 13.50779127, 52.41899319 ], [ 13.50775807, 52.41898708 ], [ 13.50774466, 52.41898954 ], [ 13.50773997, 52.41899462 ], [ 13.50759805, 52.41897084 ], [ 13.50750132, 52.4191857 ], [ 13.50751689, 52.41918832 ], [ 13.50751263, 52.41919785 ], [ 13.50749191, 52.41924591 ], [ 13.50761737, 52.41926698 ] ] ] } },
{ "type": "Feature", "properties": { "id": "HAUS614258", "typ": "Kindertagesstätte" }, "geometry": { "type": "Polygon", "coordinates": [ [ [ 13.46785209, 52.44021877 ], [ 13.46783212, 52.44023384 ], [ 13.46782988, 52.44023264 ], [ 13.46782643, 52.44023506 ], [ 13.46811723, 52.44038107 ], [ 13.46813697, 52.44036616 ], [ 13.46843492, 52.44042021 ], [ 13.46844223, 52.44040512 ], [ 13.46844068, 52.44040479 ], [ 13.4685789, 52.4401214 ], [ 13.46851747, 52.4400759 ], [ 13.4684489, 52.44011048 ], [ 13.46847822, 52.44013219 ], [ 13.46847052, 52.44013607 ], [ 13.46842291, 52.44023454 ], [ 13.46826067, 52.44020528 ], [ 13.46820139, 52.44018811 ], [ 13.4682023, 52.44017584 ], [ 13.468219, 52.44017408 ], [ 13.46823303, 52.44016827 ], [ 13.46823824, 52.44016416 ], [ 13.4682439, 52.44015439 ], [ 13.4682441, 52.44014919 ], [ 13.46823917, 52.44013928 ], [ 13.46823427, 52.44013502 ], [ 13.46821975, 52.44012923 ], [ 13.46820257, 52.4401277 ], [ 13.46819399, 52.44012866 ], [ 13.46818594, 52.44013073 ], [ 13.46817295, 52.44013776 ], [ 13.46816599, 52.44014747 ], [ 13.46816523, 52.44015278 ], [ 13.46816932, 52.44016308 ], [ 13.46817399, 52.44016759 ], [ 13.46816014, 52.44017618 ], [ 13.46802215, 52.4401359 ], [ 13.46796774, 52.44011304 ], [ 13.46797228, 52.44010132 ], [ 13.46798922, 52.4401012 ], [ 13.46799725, 52.4400995 ], [ 13.46801067, 52.44009318 ], [ 13.46801856, 52.44008403 ], [ 13.46801949, 52.44007369 ], [ 13.4680133, 52.44006407 ], [ 13.4680076, 52.44005996 ], [ 13.4679925, 52.44005451 ], [ 13.46798386, 52.44005343 ], [ 13.46796648, 52.44005487 ], [ 13.46795181, 52.44006074 ], [ 13.46794271, 52.44006989 ], [ 13.46794085, 52.44007517 ], [ 13.46794094, 52.44008055 ], [ 13.46794686, 52.44009064 ], [ 13.46793041, 52.4400971 ], [ 13.46787371, 52.44007333 ], [ 13.46779159, 52.44014636 ], [ 13.46775856, 52.44013403 ], [ 13.4677454, 52.44013442 ], [ 13.46773471, 52.44013884 ], [ 13.46771693, 52.44015183 ], [ 13.46785209, 52.44021877 ] ] ] } },
{ "type": "Feature", "properties": { "id": "HAUS614366", "typ": "Kindertagesstätte" }, "geometry": { "type": "Polygon", "coordinates": [ [ [ 13.45106549, 52.43068383 ], [ 13.45107093, 52.43068383 ], [ 13.45107089, 52.43073429 ], [ 13.45107588, 52.43073438 ], [ 13.4510764, 52.43071848 ], [ 13.45125019, 52.43071853 ], [ 13.45125095, 52.4307346 ], [ 13.45144227, 52.4307347 ], [ 13.45144149, 52.43068077 ], [ 13.45142208, 52.43068075 ], [ 13.45142177, 52.43062588 ], [ 13.45133554, 52.43062563 ], [ 13.45133563, 52.430631 ], [ 13.45119382, 52.43063128 ], [ 13.45119374, 52.43062571 ], [ 13.45113882, 52.43062555 ], [ 13.45113882, 52.43063095 ], [ 13.45106557, 52.4306309 ], [ 13.45106549, 52.43068383 ] ] ] } },
{ "type": "Feature", "properties": { "id": "HAUS614503", "typ": "Kindertagesstätte" }, "geometry": { "type": "Polygon", "coordinates": [ [ [ 13.5082624, 52.40233218 ], [ 13.50832343, 52.40227291 ], [ 13.50830261, 52.40226492 ], [ 13.50835317, 52.40221556 ], [ 13.50835707, 52.40221715 ], [ 13.50842652, 52.40214932 ], [ 13.5081394, 52.40203899 ], [ 13.50801336, 52.40216237 ], [ 13.50801157, 52.40216187 ], [ 13.50795697, 52.40221481 ], [ 13.5082624, 52.40233218 ] ] ] } },
{ "type": "Feature", "properties": { "id": "HAUS614843", "typ": "Kindertagesstätte" }, "geometry": { "type": "Polygon", "coordinates": [ [ [ 13.42912389, 52.41735258 ], [ 13.42910636, 52.41736015 ], [ 13.429135, 52.41738486 ], [ 13.42917854, 52.41736589 ], [ 13.42919332, 52.41738306 ], [ 13.42912574, 52.41740496 ], [ 13.42917066, 52.41744441 ], [ 13.42929335, 52.41740403 ], [ 13.42948187, 52.41734886 ], [ 13.42948793, 52.41734282 ], [ 13.42950379, 52.41733254 ], [ 13.42952361, 52.41732527 ], [ 13.42954592, 52.41732154 ], [ 13.42955747, 52.41732111 ], [ 13.42958036, 52.41732316 ], [ 13.42970486, 52.41729358 ], [ 13.42968599, 52.41724643 ], [ 13.42965733, 52.41725296 ], [ 13.42963581, 52.41721768 ], [ 13.42967153, 52.41721215 ], [ 13.42963417, 52.41711855 ], [ 13.42958603, 52.41712541 ], [ 13.42958894, 52.41713235 ], [ 13.42953971, 52.41713939 ], [ 13.42953405, 52.41713104 ], [ 13.42949452, 52.41714143 ], [ 13.42949931, 52.41714872 ], [ 13.42947329, 52.41716269 ], [ 13.42944504, 52.41717493 ], [ 13.42945604, 52.41719205 ], [ 13.42935887, 52.41721715 ], [ 13.42934761, 52.41720047 ], [ 13.42931345, 52.41720457 ], [ 13.42927877, 52.41720646 ], [ 13.42927336, 52.41719893 ], [ 13.42923344, 52.41720875 ], [ 13.4292396, 52.41721849 ], [ 13.42919835, 52.41723575 ], [ 13.42918758, 52.41722561 ], [ 13.42914528, 52.41724276 ], [ 13.42915706, 52.41725269 ], [ 13.42910555, 52.41727431 ], [ 13.42913624, 52.4173027 ], [ 13.42908999, 52.41732142 ], [ 13.42912389, 52.41735258 ] ] ] } },
{ "type": "Feature", "properties": { "id": "HAUS615352", "typ": "Kindertagesstätte" }, "geometry": { "type": "Polygon", "coordinates": [ [ [ 13.43378089, 52.42664753 ], [ 13.43380497, 52.42692471 ], [ 13.43391655, 52.42692112 ], [ 13.43391614, 52.42691707 ], [ 13.43393466, 52.42691647 ], [ 13.43393508, 52.42692052 ], [ 13.43401727, 52.42691787 ], [ 13.43400089, 52.42672975 ], [ 13.43392488, 52.42673223 ], [ 13.43392305, 52.42671157 ], [ 13.43395981, 52.42671036 ], [ 13.43395785, 52.42668798 ], [ 13.4339211, 52.42668918 ], [ 13.43391816, 52.42665548 ], [ 13.43395491, 52.42665428 ], [ 13.43395296, 52.42663189 ], [ 13.4339162, 52.4266331 ], [ 13.43391536, 52.42662232 ], [ 13.43397668, 52.42661684 ], [ 13.43397597, 52.4266128 ], [ 13.43391494, 52.42661817 ], [ 13.43388656, 52.42662202 ], [ 13.43383054, 52.42663152 ], [ 13.43378076, 52.42664218 ], [ 13.43374471, 52.42664864 ], [ 13.43378089, 52.42664753 ] ] ] } },
{ "type": "Feature", "properties": { "id": "HAUS615421", "typ": "Kindertagesstätte" }, "geometry": { "type": "Polygon", "coordinates": [ [ [ 13.4382055, 52.47517514 ], [ 13.43822858, 52.47509146 ], [ 13.43795438, 52.47504753 ], [ 13.43791925, 52.47512937 ], [ 13.4382055, 52.47517514 ] ] ] } },
{ "type": "Feature", "properties": { "id": "HAUS616047", "typ": "Kindertagesstätte" }, "geometry": { "type": "Polygon", "coordinates": [ [ [ 13.45371507, 52.43099844 ], [ 13.45379593, 52.43099874 ], [ 13.45379618, 52.43097349 ], [ 13.45408433, 52.43097454 ], [ 13.45408303, 52.43108588 ], [ 13.45406317, 52.43108585 ], [ 13.45406186, 52.43127259 ], [ 13.45415375, 52.4312729 ], [ 13.45415401, 52.43124415 ], [ 13.45418679, 52.43124428 ], [ 13.45418603, 52.43132606 ], [ 13.45437422, 52.43132679 ], [ 13.45437617, 52.43112755 ], [ 13.45428443, 52.43112724 ], [ 13.45428418, 52.43115536 ], [ 13.45425257, 52.43115523 ], [ 13.4542536, 52.43104083 ], [ 13.45433123, 52.43104104 ], [ 13.45433189, 52.43098361 ], [ 13.45455859, 52.43098448 ], [ 13.45455926, 52.4309249 ], [ 13.45452604, 52.43092477 ], [ 13.45452679, 52.43084433 ], [ 13.45442021, 52.430844 ], [ 13.45441998, 52.43086476 ], [ 13.45409727, 52.43086357 ], [ 13.45409749, 52.43084443 ], [ 13.45395885, 52.43084387 ], [ 13.45395906, 52.43082849 ], [ 13.45374589, 52.43082774 ], [ 13.45374563, 52.43085515 ], [ 13.45371651, 52.43085501 ], [ 13.45371507, 52.43099844 ] ] ] } },
{ "type": "Feature", "properties": { "id": "HAUS616056", "typ": "Kindertagesstätte" }, "geometry": { "type": "Polygon", "coordinates": [ [ [ 13.45585395, 52.42682193 ], [ 13.45587033, 52.4268221 ], [ 13.45587011, 52.42684151 ], [ 13.45585396, 52.4268415 ], [ 13.45585383, 52.42684535 ], [ 13.45589029, 52.42684568 ], [ 13.45588988, 52.42703541 ], [ 13.45593912, 52.42703566 ], [ 13.45593925, 52.42718926 ], [ 13.45593588, 52.42718934 ], [ 13.45593585, 52.42719258 ], [ 13.45613962, 52.42719269 ], [ 13.45613978, 52.42718937 ], [ 13.45611801, 52.42718934 ], [ 13.456118, 52.42713998 ], [ 13.45610841, 52.42713957 ], [ 13.45610838, 52.42705325 ], [ 13.45611783, 52.42705356 ], [ 13.45611802, 52.42701959 ], [ 13.45610885, 52.42701965 ], [ 13.45610914, 52.42697823 ], [ 13.45614016, 52.42697818 ], [ 13.45614002, 52.42697496 ], [ 13.45598923, 52.42697514 ], [ 13.45598964, 52.42691563 ], [ 13.45606477, 52.42691564 ], [ 13.45606553, 52.4268178 ], [ 13.45604396, 52.42681747 ], [ 13.45604381, 52.42669731 ], [ 13.45585432, 52.42669686 ], [ 13.45585395, 52.42682193 ] ] ] } },
{ "type": "Feature", "properties": { "id": "HAUS616888", "typ": "Kindertagesstätte" }, "geometry": { "type": "Polygon", "coordinates": [ [ [ 13.44573384, 52.4418151 ], [ 13.44575638, 52.44180753 ], [ 13.44576888, 52.44182147 ], [ 13.4458398, 52.44179762 ], [ 13.44582737, 52.44178377 ], [ 13.44599201, 52.44172862 ], [ 13.44596063, 52.4416935 ], [ 13.44593416, 52.44170233 ], [ 13.44592472, 52.44169175 ], [ 13.44593698, 52.44168765 ], [ 13.44589676, 52.44164412 ], [ 13.4458819, 52.44164907 ], [ 13.44586203, 52.44162848 ], [ 13.44582368, 52.44164118 ], [ 13.44577429, 52.44165838 ], [ 13.44579375, 52.44167754 ], [ 13.44571032, 52.44170617 ], [ 13.44572847, 52.44172646 ], [ 13.44569412, 52.44173793 ], [ 13.44571333, 52.4417594 ], [ 13.44569075, 52.44176696 ], [ 13.44573384, 52.4418151 ] ] ] } },
{ "type": "Feature", "properties": { "id": "HAUS617221", "typ": "Kindertagesstätte" }, "geometry": { "type": "Polygon", "coordinates": [ [ [ 13.49946622, 52.42045649 ], [ 13.499454, 52.42046645 ], [ 13.499525, 52.42049945 ], [ 13.49964057, 52.42040594 ], [ 13.49961998, 52.42039645 ], [ 13.49972858, 52.42030873 ], [ 13.49968271, 52.42028746 ], [ 13.49968593, 52.42028487 ], [ 13.49961649, 52.42025277 ], [ 13.49957207, 52.42028865 ], [ 13.499565, 52.42028541 ], [ 13.49953191, 52.4203123 ], [ 13.49953931, 52.42031571 ], [ 13.49945378, 52.42038494 ], [ 13.49944663, 52.42038164 ], [ 13.49939476, 52.42042377 ], [ 13.49946622, 52.42045649 ] ] ] } },
{ "type": "Feature", "properties": { "id": "HAUS617313", "typ": "Kindertagesstätte" }, "geometry": { "type": "Polygon", "coordinates": [ [ [ 13.42131164, 52.41508844 ], [ 13.42139788, 52.41509385 ], [ 13.42138261, 52.41507715 ], [ 13.42154855, 52.41508752 ], [ 13.42119881, 52.41470247 ], [ 13.42109741, 52.41473703 ], [ 13.4211353, 52.41477906 ], [ 13.42105497, 52.4148063 ], [ 13.42131164, 52.41508844 ] ] ] } },
{ "type": "Feature", "properties": { "id": "HAUS617656", "typ": "Kindertagesstätte" }, "geometry": { "type": "Polygon", "coordinates": [ [ [ 13.47572078, 52.40968498 ], [ 13.4757279, 52.40969776 ], [ 13.47574126, 52.4097085 ], [ 13.47575951, 52.40971611 ], [ 13.4757807, 52.4097198 ], [ 13.47580273, 52.40971921 ], [ 13.4758233, 52.40971438 ], [ 13.47584034, 52.40970584 ], [ 13.47584711, 52.40970822 ], [ 13.47582028, 52.40973894 ], [ 13.47596231, 52.40978561 ], [ 13.47599812, 52.40974484 ], [ 13.47603988, 52.40975958 ], [ 13.47600475, 52.40979956 ], [ 13.47627658, 52.40988888 ], [ 13.47630605, 52.40985521 ], [ 13.47634751, 52.40987032 ], [ 13.47631901, 52.40990278 ], [ 13.47652403, 52.40997011 ], [ 13.47655046, 52.40989926 ], [ 13.47664084, 52.40992062 ], [ 13.47665324, 52.40991116 ], [ 13.47667383, 52.40989045 ], [ 13.47668829, 52.40986789 ], [ 13.47669621, 52.40984414 ], [ 13.47669734, 52.40981991 ], [ 13.47669167, 52.40979593 ], [ 13.47668631, 52.40978426 ], [ 13.47667063, 52.40976179 ], [ 13.47664866, 52.40974117 ], [ 13.47663554, 52.40973182 ], [ 13.47660554, 52.4097154 ], [ 13.47657133, 52.40970244 ], [ 13.47653395, 52.40969332 ], [ 13.47649454, 52.40968831 ], [ 13.47647445, 52.40968741 ], [ 13.47650538, 52.40978696 ], [ 13.47644064, 52.40976561 ], [ 13.47637843, 52.40983688 ], [ 13.47623665, 52.40980432 ], [ 13.47624342, 52.40979341 ], [ 13.4763328, 52.40981383 ], [ 13.47635617, 52.40979222 ], [ 13.47637269, 52.40976836 ], [ 13.47638183, 52.40974306 ], [ 13.47638325, 52.40971717 ], [ 13.47637693, 52.40969155 ], [ 13.4763709, 52.40967911 ], [ 13.47636306, 52.40966707 ], [ 13.47634214, 52.40964458 ], [ 13.47631488, 52.4096248 ], [ 13.47628219, 52.40960839 ], [ 13.47624512, 52.4095959 ], [ 13.47622536, 52.40959126 ], [ 13.47620499, 52.40958774 ], [ 13.47616308, 52.40958421 ], [ 13.4761904, 52.40968314 ], [ 13.47612754, 52.40966222 ], [ 13.47607168, 52.40972568 ], [ 13.47601486, 52.40971295 ], [ 13.4760395, 52.40969172 ], [ 13.47604931, 52.40968016 ], [ 13.47605733, 52.40966809 ], [ 13.47606772, 52.40964285 ], [ 13.47607035, 52.40961688 ], [ 13.47606512, 52.40959104 ], [ 13.47605958, 52.40957846 ], [ 13.47604355, 52.40955518 ], [ 13.47603337, 52.4095446 ], [ 13.4760087, 52.40952528 ], [ 13.4759944, 52.40951668 ], [ 13.47596239, 52.40950192 ], [ 13.47594494, 52.40949587 ], [ 13.4759078, 52.40948667 ], [ 13.47586858, 52.40948157 ], [ 13.47584859, 52.40948059 ], [ 13.47587638, 52.40958038 ], [ 13.47581341, 52.40955952 ], [ 13.47574273, 52.4096397 ], [ 13.4758163, 52.40966378 ], [ 13.47581202, 52.40967067 ], [ 13.4757988, 52.40966306 ], [ 13.47578671, 52.40966191 ], [ 13.47578067, 52.40966268 ], [ 13.47577496, 52.40966436 ], [ 13.47576639, 52.40966997 ], [ 13.47576316, 52.40967738 ], [ 13.47576386, 52.40968123 ], [ 13.47572064, 52.40967147 ], [ 13.47571982, 52.40967823 ], [ 13.47572078, 52.40968498 ] ] ] } },
{ "type": "Feature", "properties": { "id": "HAUS618114", "typ": "Kindertagesstätte" }, "geometry": { "type": "Polygon", "coordinates": [ [ [ 13.46027291, 52.4467139 ], [ 13.46031703, 52.44671459 ], [ 13.4604319, 52.44678899 ], [ 13.46040287, 52.44680584 ], [ 13.46042767, 52.44682187 ], [ 13.46043929, 52.44682188 ], [ 13.46048808, 52.44679374 ], [ 13.46060706, 52.44687029 ], [ 13.46060672, 52.44688287 ], [ 13.4606434, 52.44690665 ], [ 13.46066399, 52.44690712 ], [ 13.46069407, 52.44692667 ], [ 13.46069372, 52.44693925 ], [ 13.46072058, 52.44695654 ], [ 13.46075114, 52.4469636 ], [ 13.46087102, 52.44704114 ], [ 13.46087067, 52.44705371 ], [ 13.46094902, 52.44710442 ], [ 13.4609696, 52.4471049 ], [ 13.46107217, 52.44717029 ], [ 13.46106943, 52.447234 ], [ 13.46116025, 52.4472902 ], [ 13.46118026, 52.44729068 ], [ 13.46127591, 52.44723734 ], [ 13.46127894, 52.44717408 ], [ 13.46123184, 52.44714364 ], [ 13.46139973, 52.44704736 ], [ 13.4614007, 52.44702373 ], [ 13.46122814, 52.44691286 ], [ 13.46122917, 52.44687583 ], [ 13.46120233, 52.44685863 ], [ 13.46123917, 52.44683702 ], [ 13.46107968, 52.44673489 ], [ 13.46104785, 52.44675354 ], [ 13.46102525, 52.44673877 ], [ 13.46105679, 52.4467203 ], [ 13.46105386, 52.44671841 ], [ 13.46107007, 52.44670909 ], [ 13.46104528, 52.44669306 ], [ 13.4610341, 52.44669295 ], [ 13.46102408, 52.44669869 ], [ 13.46084831, 52.44658539 ], [ 13.46087485, 52.44656997 ], [ 13.46081908, 52.44653404 ], [ 13.46078813, 52.44655197 ], [ 13.4607984, 52.44655863 ], [ 13.46078278, 52.44656742 ], [ 13.4606419, 52.44656407 ], [ 13.46062759, 52.44657385 ], [ 13.46056509, 52.44653368 ], [ 13.46047651, 52.4465838 ], [ 13.46045622, 52.44658377 ], [ 13.46040271, 52.4466146 ], [ 13.46040223, 52.44662727 ], [ 13.4603185, 52.44667614 ], [ 13.46027409, 52.4466758 ], [ 13.46027291, 52.4467139 ] ] ] } },
{ "type": "Feature", "properties": { "id": "HAUS618451", "typ": "Kindertagesstätte" }, "geometry": { "type": "Polygon", "coordinates": [ [ [ 13.46566559, 52.42436133 ], [ 13.46567133, 52.42436133 ], [ 13.46567143, 52.4243749 ], [ 13.46571333, 52.42437505 ], [ 13.46571334, 52.42436956 ], [ 13.46575421, 52.42436954 ], [ 13.46575422, 52.4243663 ], [ 13.46579495, 52.42436635 ], [ 13.4657949, 52.42437516 ], [ 13.4658368, 52.42437522 ], [ 13.46583685, 52.42436146 ], [ 13.46604824, 52.42436184 ], [ 13.46604851, 52.42432887 ], [ 13.46628988, 52.42432892 ], [ 13.46628944, 52.42436747 ], [ 13.46650303, 52.42436794 ], [ 13.46650353, 52.42431367 ], [ 13.4664825, 52.42431364 ], [ 13.46648273, 52.42429216 ], [ 13.46650949, 52.4242921 ], [ 13.46650946, 52.42421661 ], [ 13.4660861, 52.42421559 ], [ 13.46608586, 52.42428443 ], [ 13.46604896, 52.42428439 ], [ 13.46604994, 52.42417627 ], [ 13.46599716, 52.42417638 ], [ 13.46599711, 52.4241922 ], [ 13.46591714, 52.424192 ], [ 13.46591679, 52.4242487 ], [ 13.46571526, 52.42424825 ], [ 13.4657153, 52.42423567 ], [ 13.46567268, 52.42423561 ], [ 13.46567247, 52.42424828 ], [ 13.46566689, 52.42424809 ], [ 13.46566559, 52.42436133 ] ] ] } },
{ "type": "Feature", "properties": { "id": "HAUS618651", "typ": "Kindertagesstätte" }, "geometry": { "type": "Polygon", "coordinates": [ [ [ 13.51462843, 52.42021516 ], [ 13.51463536, 52.42020853 ], [ 13.51466488, 52.42021997 ], [ 13.5146581, 52.42022624 ], [ 13.51474121, 52.42025913 ], [ 13.51474798, 52.42025276 ], [ 13.51477735, 52.42026437 ], [ 13.51477014, 52.4202712 ], [ 13.51501463, 52.42036768 ], [ 13.51513896, 52.42025016 ], [ 13.51490007, 52.42015603 ], [ 13.51491582, 52.42014113 ], [ 13.51488971, 52.42013085 ], [ 13.51487409, 52.42014575 ], [ 13.51477335, 52.42010603 ], [ 13.51478912, 52.42009095 ], [ 13.51476311, 52.42008068 ], [ 13.5147472, 52.42009576 ], [ 13.514508, 52.42000136 ], [ 13.51438409, 52.42011878 ], [ 13.51462843, 52.42021516 ] ] ] } },
{ "type": "Feature", "properties": { "id": "HAUS618751", "typ": "Kindertagesstätte" }, "geometry": { "type": "Polygon", "coordinates": [ [ [ 13.44179247, 52.44612029 ], [ 13.44192461, 52.44606946 ], [ 13.44187277, 52.44601913 ], [ 13.44174018, 52.44607016 ], [ 13.44179247, 52.44612029 ] ] ] } },
{ "type": "Feature", "properties": { "id": "HAUS618925", "typ": "Kindertagesstätte" }, "geometry": { "type": "Polygon", "coordinates": [ [ [ 13.48017811, 52.42843634 ], [ 13.48019871, 52.42843742 ], [ 13.48024167, 52.4284156 ], [ 13.48026048, 52.42842943 ], [ 13.48021751, 52.42845126 ], [ 13.48032333, 52.4285291 ], [ 13.480439, 52.42847034 ], [ 13.48045799, 52.42848408 ], [ 13.48044667, 52.42848981 ], [ 13.48052904, 52.42855016 ], [ 13.48056168, 52.42853354 ], [ 13.48057129, 52.42854057 ], [ 13.48067565, 52.42848743 ], [ 13.48069099, 52.42849868 ], [ 13.480719, 52.42848442 ], [ 13.4807214, 52.42847184 ], [ 13.48071556, 52.42846757 ], [ 13.48095372, 52.42834652 ], [ 13.48097975, 52.42836553 ], [ 13.48101147, 52.42836701 ], [ 13.48107621, 52.4283342 ], [ 13.48094004, 52.42823382 ], [ 13.48095418, 52.42822665 ], [ 13.48090191, 52.42818813 ], [ 13.48080759, 52.42818234 ], [ 13.48063379, 52.42827 ], [ 13.48062172, 52.42826066 ], [ 13.48057086, 52.42828656 ], [ 13.48056434, 52.42832759 ], [ 13.4806101, 52.42836115 ], [ 13.48061517, 52.42835857 ], [ 13.48062364, 52.42836477 ], [ 13.48056189, 52.42839758 ], [ 13.48044816, 52.42831409 ], [ 13.48030225, 52.42830614 ], [ 13.48012422, 52.42839678 ], [ 13.48017811, 52.42843634 ] ] ] } },
{ "type": "Feature", "properties": { "id": "HAUS619426", "typ": "Kindertagesstätte" }, "geometry": { "type": "Polygon", "coordinates": [ [ [ 13.46146085, 52.42450372 ], [ 13.46131657, 52.42428186 ], [ 13.46125538, 52.42429691 ], [ 13.46123259, 52.42426224 ], [ 13.46124911, 52.42425944 ], [ 13.4611969, 52.42418003 ], [ 13.46096656, 52.42423664 ], [ 13.46101874, 52.42431635 ], [ 13.46116675, 52.42427944 ], [ 13.46118907, 52.42431427 ], [ 13.4611731, 52.42431817 ], [ 13.46131753, 52.42453937 ], [ 13.46146085, 52.42450372 ] ] ] } },
{ "type": "Feature", "properties": { "id": "HAUS619671", "typ": "Kindertagesstätte" }, "geometry": { "type": "Polygon", "coordinates": [ [ [ 13.44939905, 52.42327691 ], [ 13.44960915, 52.42326266 ], [ 13.44960778, 52.42327614 ], [ 13.44968846, 52.42327995 ], [ 13.44969121, 52.42325694 ], [ 13.44990485, 52.4232427 ], [ 13.44988614, 52.42314382 ], [ 13.44980837, 52.42314361 ], [ 13.44979788, 52.42308545 ], [ 13.4494472, 52.42310839 ], [ 13.44945842, 52.42316699 ], [ 13.4493815, 52.42317767 ], [ 13.44939905, 52.42327691 ] ] ] } },
{ "type": "Feature", "properties": { "id": "HAUS619923", "typ": "Kindertagesstätte" }, "geometry": { "type": "Polygon", "coordinates": [ [ [ 13.44280587, 52.42409842 ], [ 13.4428078, 52.42410093 ], [ 13.44283545, 52.42410504 ], [ 13.4428481, 52.4241043 ], [ 13.44291213, 52.42411358 ], [ 13.44297061, 52.42396097 ], [ 13.44290454, 52.42395172 ], [ 13.44289967, 52.42394949 ], [ 13.44286891, 52.42394495 ], [ 13.44285994, 52.4239456 ], [ 13.4427968, 52.42393662 ], [ 13.44274099, 52.42408987 ], [ 13.44280587, 52.42409842 ] ] ] } },
{ "type": "Feature", "properties": { "id": "HAUS675137", "typ": "Kindertagesstätte" }, "geometry": { "type": "Polygon", "coordinates": [ [ [ 13.43779686, 52.47057364 ], [ 13.43775916, 52.47068956 ], [ 13.43817134, 52.47073895 ], [ 13.4382095, 52.47062309 ], [ 13.43785015, 52.47058008 ], [ 13.43784105, 52.47057899 ], [ 13.43779686, 52.47057364 ] ] ] } },
{ "type": "Feature", "properties": { "id": "HAUS675315", "typ": "Kindertagesstätte" }, "geometry": { "type": "Polygon", "coordinates": [ [ [ 13.44250364, 52.42547357 ], [ 13.44216266, 52.42534244 ], [ 13.44206862, 52.42543372 ], [ 13.44227063, 52.4255114 ], [ 13.44217668, 52.42560253 ], [ 13.4421571, 52.42559499 ], [ 13.44208331, 52.42566694 ], [ 13.44224167, 52.42572785 ], [ 13.44250364, 52.42547357 ] ] ] } },
{ "type": "Feature", "properties": { "id": "HAUS675589", "typ": "Kindertagesstätte" }, "geometry": { "type": "Polygon", "coordinates": [ [ [ 13.43651941, 52.4628505 ], [ 13.43648056, 52.46285325 ], [ 13.43641737, 52.46286276 ], [ 13.43639298, 52.46286858 ], [ 13.43637098, 52.46287727 ], [ 13.43635251, 52.46288863 ], [ 13.43633749, 52.46290164 ], [ 13.4363276, 52.46291652 ], [ 13.4363227, 52.46293229 ], [ 13.43632641, 52.46294385 ], [ 13.43633931, 52.46295732 ], [ 13.43636252, 52.46297252 ], [ 13.43638361, 52.46298132 ], [ 13.43640704, 52.46298754 ], [ 13.43644527, 52.46299266 ], [ 13.4364857, 52.46299577 ], [ 13.43653032, 52.46299565 ], [ 13.43656685, 52.46299275 ], [ 13.43660637, 52.46298666 ], [ 13.43664332, 52.46297864 ], [ 13.43667238, 52.46296775 ], [ 13.43668979, 52.46295774 ], [ 13.43670099, 52.46294846 ], [ 13.43671259, 52.46293446 ], [ 13.43672081, 52.46291419 ], [ 13.43671838, 52.46290923 ], [ 13.43670369, 52.4628906 ], [ 13.4366833, 52.46287566 ], [ 13.43666154, 52.46286548 ], [ 13.43664323, 52.46286034 ], [ 13.43661445, 52.46285533 ], [ 13.43657151, 52.46285124 ], [ 13.43655851, 52.46285058 ], [ 13.43651941, 52.4628505 ] ] ] } },
{ "type": "Feature", "properties": { "id": "HAUS675741", "typ": "Kindertagesstätte" }, "geometry": { "type": "Polygon", "coordinates": [ [ [ 13.46636275, 52.43324382 ], [ 13.46615173, 52.43320946 ], [ 13.46612762, 52.4332653 ], [ 13.46607966, 52.43325643 ], [ 13.46604943, 52.43322936 ], [ 13.46612744, 52.43319712 ], [ 13.46600163, 52.43308534 ], [ 13.46585167, 52.43314804 ], [ 13.46584446, 52.43314134 ], [ 13.46583806, 52.43314397 ], [ 13.46602156, 52.4333076 ], [ 13.46603935, 52.43331045 ], [ 13.46604817, 52.43329023 ], [ 13.46607807, 52.43329463 ], [ 13.46606842, 52.43331536 ], [ 13.46632547, 52.4333577 ], [ 13.46632714, 52.43335341 ], [ 13.46631508, 52.43335148 ], [ 13.46636275, 52.43324382 ] ] ] } }
]
}
