{"type": "FeatureCollection", "name": "b_tramstopp_neukoelln", "features": [{"type": "Feature", "properties": {"id": "b_tramstopp.301009321", "no": 301009321, "hstname": "Kosanke-Siedlung", "anzlinien": 1, "code": "KOSS01"}, "geometry": {"type": "MultiPoint", "coordinates": [[13.4837428, 52.49757884]]}}, {"type": "Feature", "properties": {"id": "b_tramstopp.301009322", "no": 301009322, "hstname": "Gustav-Holzmann-Str.", "anzlinien": 1, "code": "GHZM01"}, "geometry": {"type": "MultiPoint", "coordinates": [[13.4898107, 52.49383234]]}}, {"type": "Feature", "properties": {"id": "b_tramstopp.301009324", "no": 301009324, "hstname": "Heizkraftwerk Klingenberg", "anzlinien": 1, "code": "HKFW01"}, "geometry": {"type": "MultiPoint", "coordinates": [[13.4957165, 52.48827804]]}}, {"type": "Feature", "properties": {"id": "b_tramstopp.301009337", "no": 301009337, "hstname": "Heizkraftwerk Klingenberg", "anzlinien": 1, "code": "HKFW02"}, "geometry": {"type": "MultiPoint", "coordinates": [[13.4965502, 52.48761574]]}}, {"type": "Feature", "properties": {"id": "b_tramstopp.301009338", "no": 301009338, "hstname": "Gustav-Holzmann-Str.", "anzlinien": 1, "code": "GHZM02"}, "geometry": {"type": "MultiPoint", "coordinates": [[13.4904804, 52.49342964]]}}, {"type": "Feature", "properties": {"id": "b_tramstopp.301009340", "no": 301009340, "hstname": "Kosanke-Siedlung", "anzlinien": 1, "code": "KOSS02"}, "geometry": {"type": "MultiPoint", "coordinates": [[13.483604, 52.49771354]]}}]}