{"type": "FeatureCollection", "name": "bb_ua_windfeld_2m_22h_2022_100m_neukoelln", "features": [{"type": "Feature", "properties": {"id": "bb_ua_windfeld_2m_22h_2022_100m.45981", "schl": 45981, "wg": 0.02, "wr": 349.75}, "geometry": {"type": "Point", "coordinates": [13.421664103690972, 52.495388701520774]}}, {"type": "Feature", "properties": {"id": "bb_ua_windfeld_2m_22h_2022_100m.46312", "schl": 46312, "wg": 0.03, "wr": 39.2}, "geometry": {"type": "Point", "coordinates": [13.421696287947809, 52.49449002288346]}}, {"type": "Feature", "properties": {"id": "bb_ua_windfeld_2m_22h_2022_100m.46313", "schl": 46313, "wg": 0.0, "wr": 187.43}, "geometry": {"type": "Point", "coordinates": [13.423168666707712, 52.494509657149244]}}, {"type": "Feature", "properties": {"id": "bb_ua_windfeld_2m_22h_2022_100m.46314", "schl": 46314, "wg": 0.03, "wr": 204.22}, "geometry": {"type": "Point", "coordinates": [13.42464104716563, 52.494529273099616]}}, {"type": "Feature", "properties": {"id": "bb_ua_windfeld_2m_22h_2022_100m.46645", "schl": 46645, "wg": 0.01, "wr": 19.2}, "geometry": {"type": "Point", "coordinates": [13.423200819272603, 52.49361097772712]}}, {"type": "Feature", "properties": {"id": "bb_ua_windfeld_2m_22h_2022_100m.46646", "schl": 46646, "wg": 0.0, "wr": 6.8}, "geometry": {"type": "Point", "coordinates": [13.424673169738059, 52.49363059304449]}}, {"type": "Feature", "properties": {"id": "bb_ua_windfeld_2m_22h_2022_100m.46647", "schl": 46647, "wg": 0.01, "wr": 168.97}, "geometry": {"type": "Point", "coordinates": [13.426145521899825, 52.493650190046985]}}, {"type": "Feature", "properties": {"id": "bb_ua_windfeld_2m_22h_2022_100m.46648", "schl": 46648, "wg": 0.03, "wr": 111.44}, "geometry": {"type": "Point", "coordinates": [13.427617875756328, 52.493669768734584]}}, {"type": "Feature", "properties": {"id": "bb_ua_windfeld_2m_22h_2022_100m.46977", "schl": 46977, "wg": 0.01, "wr": 298.86}, "geometry": {"type": "Point", "coordinates": [13.4232329701396, 52.49271229815384]}}, {"type": "Feature", "properties": {"id": "bb_ua_windfeld_2m_22h_2022_100m.46978", "schl": 46978, "wg": 0.01, "wr": 215.78}, "geometry": {"type": "Point", "coordinates": [13.424705290614169, 52.49273191283822]}}, {"type": "Feature", "properties": {"id": "bb_ua_windfeld_2m_22h_2022_100m.46979", "schl": 46979, "wg": 0.01, "wr": 277.54}, "geometry": {"type": "Point", "coordinates": [13.426177612784935, 52.49275150920831]}}, {"type": "Feature", "properties": {"id": "bb_ua_windfeld_2m_22h_2022_100m.46980", "schl": 46980, "wg": 0.0, "wr": 310.8}, "geometry": {"type": "Point", "coordinates": [13.427649936650315, 52.49277108726409]}}, {"type": "Feature", "properties": {"id": "bb_ua_windfeld_2m_22h_2022_100m.46981", "schl": 46981, "wg": 0.02, "wr": 342.43}, "geometry": {"type": "Point", "coordinates": [13.429122262208729, 52.492790647005506]}}, {"type": "Feature", "properties": {"id": "bb_ua_windfeld_2m_22h_2022_100m.46982", "schl": 46982, "wg": 0.01, "wr": 126.95}, "geometry": {"type": "Point", "coordinates": [13.430594589458588, 52.492810188432514]}}, {"type": "Feature", "properties": {"id": "bb_ua_windfeld_2m_22h_2022_100m.47309", "schl": 47309, "wg": 0.04, "wr": 9.11}, "geometry": {"type": "Point", "coordinates": [13.423265119308818, 52.49181361842937]}}, {"type": "Feature", "properties": {"id": "bb_ua_windfeld_2m_22h_2022_100m.47310", "schl": 47310, "wg": 0.03, "wr": 284.12}, "geometry": {"type": "Point", "coordinates": [13.424737409794087, 52.49183323248078]}}, {"type": "Feature", "properties": {"id": "bb_ua_windfeld_2m_22h_2022_100m.47311", "schl": 47311, "wg": 0.02, "wr": 313.75}, "geometry": {"type": "Point", "coordinates": [13.426209701975433, 52.49185282821852]}}, {"type": "Feature", "properties": {"id": "bb_ua_windfeld_2m_22h_2022_100m.47312", "schl": 47312, "wg": 0.01, "wr": 306.86}, "geometry": {"type": "Point", "coordinates": [13.427681995851271, 52.49187240564251]}}, {"type": "Feature", "properties": {"id": "bb_ua_windfeld_2m_22h_2022_100m.47313", "schl": 47313, "wg": 0.02, "wr": 24.12}, "geometry": {"type": "Point", "coordinates": [13.429154291420023, 52.49189196475274]}}, {"type": "Feature", "properties": {"id": "bb_ua_windfeld_2m_22h_2022_100m.47314", "schl": 47314, "wg": 0.01, "wr": 236.4}, "geometry": {"type": "Point", "coordinates": [13.430626588680106, 52.49191150554913]}}, {"type": "Feature", "properties": {"id": "bb_ua_windfeld_2m_22h_2022_100m.47315", "schl": 47315, "wg": 0.03, "wr": 198.69}, "geometry": {"type": "Point", "coordinates": [13.43209888762994, 52.491931028031665]}}, {"type": "Feature", "properties": {"id": "bb_ua_windfeld_2m_22h_2022_100m.47644", "schl": 47644, "wg": 0.01, "wr": 220.47}, "geometry": {"type": "Point", "coordinates": [13.424769527277927, 52.490934551972195]}}, {"type": "Feature", "properties": {"id": "bb_ua_windfeld_2m_22h_2022_100m.47645", "schl": 47645, "wg": 0.02, "wr": 277.01}, "geometry": {"type": "Point", "coordinates": [13.426241789471433, 52.49095414707758]}}, {"type": "Feature", "properties": {"id": "bb_ua_windfeld_2m_22h_2022_100m.47646", "schl": 47646, "wg": 0.01, "wr": 262.73}, "geometry": {"type": "Point", "coordinates": [13.427714053359315, 52.490973723869814]}}, {"type": "Feature", "properties": {"id": "bb_ua_windfeld_2m_22h_2022_100m.47647", "schl": 47647, "wg": 0.03, "wr": 83.02}, "geometry": {"type": "Point", "coordinates": [13.42918631893999, 52.49099328234888]}}, {"type": "Feature", "properties": {"id": "bb_ua_windfeld_2m_22h_2022_100m.47648", "schl": 47648, "wg": 0.03, "wr": 322.4}, "geometry": {"type": "Point", "coordinates": [13.430658586211875, 52.491012822514705]}}, {"type": "Feature", "properties": {"id": "bb_ua_windfeld_2m_22h_2022_100m.47649", "schl": 47649, "wg": 0.02, "wr": 60.98}, "geometry": {"type": "Point", "coordinates": [13.432130855173392, 52.491032344367234]}}, {"type": "Feature", "properties": {"id": "bb_ua_windfeld_2m_22h_2022_100m.47650", "schl": 47650, "wg": 0.03, "wr": 315.96}, "geometry": {"type": "Point", "coordinates": [13.433603125822957, 52.491051847906455]}}, {"type": "Feature", "properties": {"id": "bb_ua_windfeld_2m_22h_2022_100m.47651", "schl": 47651, "wg": 0.03, "wr": 296.28}, "geometry": {"type": "Point", "coordinates": [13.435075398158988, 52.491071333132275]}}, {"type": "Feature", "properties": {"id": "bb_ua_windfeld_2m_22h_2022_100m.47982", "schl": 47982, "wg": 0.02, "wr": 334.35}, "geometry": {"type": "Point", "coordinates": [13.42480164306581, 52.490035871312465]}}, {"type": "Feature", "properties": {"id": "bb_ua_windfeld_2m_22h_2022_100m.47983", "schl": 47983, "wg": 0.0, "wr": 156.38}, "geometry": {"type": "Point", "coordinates": [13.426273875273061, 52.490055465785524]}}, {"type": "Feature", "properties": {"id": "bb_ua_windfeld_2m_22h_2022_100m.47984", "schl": 47984, "wg": 0.01, "wr": 327.48}, "geometry": {"type": "Point", "coordinates": [13.427746109174565, 52.49007504194604]}}, {"type": "Feature", "properties": {"id": "bb_ua_windfeld_2m_22h_2022_100m.47985", "schl": 47985, "wg": 0.04, "wr": 9.4}, "geometry": {"type": "Point", "coordinates": [13.429218344768744, 52.490094599793956]}}, {"type": "Feature", "properties": {"id": "bb_ua_windfeld_2m_22h_2022_100m.47986", "schl": 47986, "wg": 0.01, "wr": 78.91}, "geometry": {"type": "Point", "coordinates": [13.430690582054014, 52.49011413932923]}}, {"type": "Feature", "properties": {"id": "bb_ua_windfeld_2m_22h_2022_100m.47987", "schl": 47987, "wg": 0.03, "wr": 331.19}, "geometry": {"type": "Point", "coordinates": [13.432162821028797, 52.49013366055181]}}, {"type": "Feature", "properties": {"id": "bb_ua_windfeld_2m_22h_2022_100m.47988", "schl": 47988, "wg": 0.02, "wr": 353.01}, "geometry": {"type": "Point", "coordinates": [13.43363506169151, 52.49015316346165]}}, {"type": "Feature", "properties": {"id": "bb_ua_windfeld_2m_22h_2022_100m.47989", "schl": 47989, "wg": 0.05, "wr": 342.5}, "geometry": {"type": "Point", "coordinates": [13.435107304040567, 52.490172648058696]}}, {"type": "Feature", "properties": {"id": "bb_ua_windfeld_2m_22h_2022_100m.47990", "schl": 47990, "wg": 0.05, "wr": 142.41}, "geometry": {"type": "Point", "coordinates": [13.436579548074395, 52.49019211434291]}}, {"type": "Feature", "properties": {"id": "bb_ua_windfeld_2m_22h_2022_100m.47991", "schl": 47991, "wg": 0.08, "wr": 85.66}, "geometry": {"type": "Point", "coordinates": [13.438051793791407, 52.49021156231425]}}, {"type": "Feature", "properties": {"id": "bb_ua_windfeld_2m_22h_2022_100m.48321", "schl": 48321, "wg": 0.03, "wr": 336.42}, "geometry": {"type": "Point", "coordinates": [13.424833757157858, 52.48913719050159]}}, {"type": "Feature", "properties": {"id": "bb_ua_windfeld_2m_22h_2022_100m.48322", "schl": 48322, "wg": 0.01, "wr": 338.51}, "geometry": {"type": "Point", "coordinates": [13.42630595938043, 52.48915678434235]}}, {"type": "Feature", "properties": {"id": "bb_ua_windfeld_2m_22h_2022_100m.48323", "schl": 48323, "wg": 0.0, "wr": 307.44}, "geometry": {"type": "Point", "coordinates": [13.42777816329714, 52.48917635987116]}}, {"type": "Feature", "properties": {"id": "bb_ua_windfeld_2m_22h_2022_100m.48324", "schl": 48324, "wg": 0.01, "wr": 214.65}, "geometry": {"type": "Point", "coordinates": [13.429250368906404, 52.48919591708796]}}, {"type": "Feature", "properties": {"id": "bb_ua_windfeld_2m_22h_2022_100m.48325", "schl": 48325, "wg": 0.04, "wr": 53.29}, "geometry": {"type": "Point", "coordinates": [13.430722576206643, 52.48921545599271]}}, {"type": "Feature", "properties": {"id": "bb_ua_windfeld_2m_22h_2022_100m.48326", "schl": 48326, "wg": 0.01, "wr": 57.31}, "geometry": {"type": "Point", "coordinates": [13.432194785196272, 52.48923497658535]}}, {"type": "Feature", "properties": {"id": "bb_ua_windfeld_2m_22h_2022_100m.48327", "schl": 48327, "wg": 0.0, "wr": 54.66}, "geometry": {"type": "Point", "coordinates": [13.433666995873713, 52.48925447886586]}}, {"type": "Feature", "properties": {"id": "bb_ua_windfeld_2m_22h_2022_100m.48328", "schl": 48328, "wg": 0.04, "wr": 200.55}, "geometry": {"type": "Point", "coordinates": [13.435139208237382, 52.48927396283415]}}, {"type": "Feature", "properties": {"id": "bb_ua_windfeld_2m_22h_2022_100m.48329", "schl": 48329, "wg": 0.07, "wr": 96.89}, "geometry": {"type": "Point", "coordinates": [13.436611422285702, 52.4892934284902]}}, {"type": "Feature", "properties": {"id": "bb_ua_windfeld_2m_22h_2022_100m.48330", "schl": 48330, "wg": 0.05, "wr": 303.31}, "geometry": {"type": "Point", "coordinates": [13.438083638017085, 52.48931287583396]}}, {"type": "Feature", "properties": {"id": "bb_ua_windfeld_2m_22h_2022_100m.48331", "schl": 48331, "wg": 0.12, "wr": 59.73}, "geometry": {"type": "Point", "coordinates": [13.439555855429955, 52.48933230486537]}}, {"type": "Feature", "properties": {"id": "bb_ua_windfeld_2m_22h_2022_100m.48649", "schl": 48649, "wg": 0.05, "wr": 280.27}, "geometry": {"type": "Point", "coordinates": [13.408672087177326, 52.48802177570971]}}, {"type": "Feature", "properties": {"id": "bb_ua_windfeld_2m_22h_2022_100m.48650", "schl": 48650, "wg": 0.06, "wr": 335.72}, "geometry": {"type": "Point", "coordinates": [13.410144240678248, 52.48804157034006]}}, {"type": "Feature", "properties": {"id": "bb_ua_windfeld_2m_22h_2022_100m.48651", "schl": 48651, "wg": 0.09, "wr": 28.92}, "geometry": {"type": "Point", "coordinates": [13.41161639589058, 52.48806134665956]}}, {"type": "Feature", "properties": {"id": "bb_ua_windfeld_2m_22h_2022_100m.48652", "schl": 48652, "wg": 0.05, "wr": 7.65}, "geometry": {"type": "Point", "coordinates": [13.413088552812743, 52.48808110466819]}}, {"type": "Feature", "properties": {"id": "bb_ua_windfeld_2m_22h_2022_100m.48661", "schl": 48661, "wg": 0.02, "wr": 5.08}, "geometry": {"type": "Point", "coordinates": [13.426338041793665, 52.48825810274805]}}, {"type": "Feature", "properties": {"id": "bb_ua_windfeld_2m_22h_2022_100m.48662", "schl": 48662, "wg": 0.02, "wr": 7.91}, "geometry": {"type": "Point", "coordinates": [13.42781021572716, 52.48827767764518]}}, {"type": "Feature", "properties": {"id": "bb_ua_windfeld_2m_22h_2022_100m.48663", "schl": 48663, "wg": 0.08, "wr": 171.8}, "geometry": {"type": "Point", "coordinates": [13.429282391353091, 52.48829723423089]}}, {"type": "Feature", "properties": {"id": "bb_ua_windfeld_2m_22h_2022_100m.48664", "schl": 48664, "wg": 0.01, "wr": 134.13}, "geometry": {"type": "Point", "coordinates": [13.430754568669876, 52.48831677250514]}}, {"type": "Feature", "properties": {"id": "bb_ua_windfeld_2m_22h_2022_100m.48665", "schl": 48665, "wg": 0.04, "wr": 126.14}, "geometry": {"type": "Point", "coordinates": [13.432226747675937, 52.48833629246788]}}, {"type": "Feature", "properties": {"id": "bb_ua_windfeld_2m_22h_2022_100m.48666", "schl": 48666, "wg": 0.01, "wr": 344.8}, "geometry": {"type": "Point", "coordinates": [13.433698928369688, 52.48835579411905]}}, {"type": "Feature", "properties": {"id": "bb_ua_windfeld_2m_22h_2022_100m.48667", "schl": 48667, "wg": 0.02, "wr": 292.53}, "geometry": {"type": "Point", "coordinates": [13.43517111074955, 52.488375277458616]}}, {"type": "Feature", "properties": {"id": "bb_ua_windfeld_2m_22h_2022_100m.48668", "schl": 48668, "wg": 0.03, "wr": 311.55}, "geometry": {"type": "Point", "coordinates": [13.43664329481394, 52.488394742486534]}}, {"type": "Feature", "properties": {"id": "bb_ua_windfeld_2m_22h_2022_100m.48669", "schl": 48669, "wg": 0.04, "wr": 304.45}, "geometry": {"type": "Point", "coordinates": [13.438115480561281, 52.48841418920275]}}, {"type": "Feature", "properties": {"id": "bb_ua_windfeld_2m_22h_2022_100m.48670", "schl": 48670, "wg": 0.1, "wr": 63.8}, "geometry": {"type": "Point", "coordinates": [13.439587667989986, 52.488433617607214]}}, {"type": "Feature", "properties": {"id": "bb_ua_windfeld_2m_22h_2022_100m.48671", "schl": 48671, "wg": 0.02, "wr": 25.1}, "geometry": {"type": "Point", "coordinates": [13.441059857098477, 52.48845302769987]}}, {"type": "Feature", "properties": {"id": "bb_ua_windfeld_2m_22h_2022_100m.48675", "schl": 48675, "wg": 0.02, "wr": 302.47}, "geometry": {"type": "Point", "coordinates": [13.44694863029866, 52.48853048495156]}}, {"type": "Feature", "properties": {"id": "bb_ua_windfeld_2m_22h_2022_100m.48987", "schl": 48987, "wg": 0.13, "wr": 300.48}, "geometry": {"type": "Point", "coordinates": [13.4087045276668, 52.487123101590186]}}, {"type": "Feature", "properties": {"id": "bb_ua_windfeld_2m_22h_2022_100m.48988", "schl": 48988, "wg": 0.04, "wr": 323.65}, "geometry": {"type": "Point", "coordinates": [13.410176651187527, 52.48714289558178]}}, {"type": "Feature", "properties": {"id": "bb_ua_windfeld_2m_22h_2022_100m.48989", "schl": 48989, "wg": 0.08, "wr": 359.87}, "geometry": {"type": "Point", "coordinates": [13.411648776419547, 52.48716267126314]}}, {"type": "Feature", "properties": {"id": "bb_ua_windfeld_2m_22h_2022_100m.48990", "schl": 48990, "wg": 0.08, "wr": 22.06}, "geometry": {"type": "Point", "coordinates": [13.413120903361275, 52.48718242863421]}}, {"type": "Feature", "properties": {"id": "bb_ua_windfeld_2m_22h_2022_100m.48991", "schl": 48991, "wg": 0.12, "wr": 15.53}, "geometry": {"type": "Point", "coordinates": [13.41459303201113, 52.48720216769493]}}, {"type": "Feature", "properties": {"id": "bb_ua_windfeld_2m_22h_2022_100m.48992", "schl": 48992, "wg": 0.08, "wr": 353.13}, "geometry": {"type": "Point", "coordinates": [13.416065162367534, 52.48722188844526]}}, {"type": "Feature", "properties": {"id": "bb_ua_windfeld_2m_22h_2022_100m.48993", "schl": 48993, "wg": 0.07, "wr": 18.52}, "geometry": {"type": "Point", "coordinates": [13.417537294428907, 52.48724159088516]}}, {"type": "Feature", "properties": {"id": "bb_ua_windfeld_2m_22h_2022_100m.48994", "schl": 48994, "wg": 0.16, "wr": 22.47}, "geometry": {"type": "Point", "coordinates": [13.419009428193663, 52.487261275014575]}}, {"type": "Feature", "properties": {"id": "bb_ua_windfeld_2m_22h_2022_100m.48998", "schl": 48998, "wg": 0.02, "wr": 24.6}, "geometry": {"type": "Point", "coordinates": [13.424897980254917, 52.48733982842637]}}, {"type": "Feature", "properties": {"id": "bb_ua_windfeld_2m_22h_2022_100m.48999", "schl": 48999, "wg": 0.01, "wr": 313.24}, "geometry": {"type": "Point", "coordinates": [13.42637012251288, 52.48735942100262]}}, {"type": "Feature", "properties": {"id": "bb_ua_windfeld_2m_22h_2022_100m.49000", "schl": 49000, "wg": 0.01, "wr": 19.4}, "geometry": {"type": "Point", "coordinates": [13.427842266464744, 52.487378995268095]}}, {"type": "Feature", "properties": {"id": "bb_ua_windfeld_2m_22h_2022_100m.49001", "schl": 49001, "wg": 0.03, "wr": 347.56}, "geometry": {"type": "Point", "coordinates": [13.429314412108923, 52.48739855122275]}}, {"type": "Feature", "properties": {"id": "bb_ua_windfeld_2m_22h_2022_100m.49002", "schl": 49002, "wg": 0.01, "wr": 138.57}, "geometry": {"type": "Point", "coordinates": [13.430786559443838, 52.48741808886653]}}, {"type": "Feature", "properties": {"id": "bb_ua_windfeld_2m_22h_2022_100m.49003", "schl": 49003, "wg": 0.02, "wr": 276.25}, "geometry": {"type": "Point", "coordinates": [13.43225870846791, 52.48743760819938]}}, {"type": "Feature", "properties": {"id": "bb_ua_windfeld_2m_22h_2022_100m.49004", "schl": 49004, "wg": 0.02, "wr": 23.65}, "geometry": {"type": "Point", "coordinates": [13.433730859179551, 52.48745710922126]}}, {"type": "Feature", "properties": {"id": "bb_ua_windfeld_2m_22h_2022_100m.49005", "schl": 49005, "wg": 0.01, "wr": 1.18}, "geometry": {"type": "Point", "coordinates": [13.435203011577187, 52.48747659193213]}}, {"type": "Feature", "properties": {"id": "bb_ua_windfeld_2m_22h_2022_100m.49006", "schl": 49006, "wg": 0.0, "wr": 135.24}, "geometry": {"type": "Point", "coordinates": [13.436675165659233, 52.48749605633193]}}, {"type": "Feature", "properties": {"id": "bb_ua_windfeld_2m_22h_2022_100m.49007", "schl": 49007, "wg": 0.03, "wr": 240.24}, "geometry": {"type": "Point", "coordinates": [13.43814732142411, 52.487515502420614]}}, {"type": "Feature", "properties": {"id": "bb_ua_windfeld_2m_22h_2022_100m.49008", "schl": 49008, "wg": 0.06, "wr": 86.4}, "geometry": {"type": "Point", "coordinates": [13.439619478870231, 52.48753493019815]}}, {"type": "Feature", "properties": {"id": "bb_ua_windfeld_2m_22h_2022_100m.49009", "schl": 49009, "wg": 0.06, "wr": 75.52}, "geometry": {"type": "Point", "coordinates": [13.441091637996022, 52.48755433966446]}}, {"type": "Feature", "properties": {"id": "bb_ua_windfeld_2m_22h_2022_100m.49010", "schl": 49010, "wg": 0.05, "wr": 37.65}, "geometry": {"type": "Point", "coordinates": [13.442563798799899, 52.48757373081951]}}, {"type": "Feature", "properties": {"id": "bb_ua_windfeld_2m_22h_2022_100m.49011", "schl": 49011, "wg": 0.02, "wr": 32.77}, "geometry": {"type": "Point", "coordinates": [13.44403596128028, 52.48759310366328]}}, {"type": "Feature", "properties": {"id": "bb_ua_windfeld_2m_22h_2022_100m.49012", "schl": 49012, "wg": 0.01, "wr": 217.82}, "geometry": {"type": "Point", "coordinates": [13.44550812543558, 52.48761245819569]}}, {"type": "Feature", "properties": {"id": "bb_ua_windfeld_2m_22h_2022_100m.49013", "schl": 49013, "wg": 0.04, "wr": 310.25}, "geometry": {"type": "Point", "coordinates": [13.446980291264225, 52.48763179441669]}}, {"type": "Feature", "properties": {"id": "bb_ua_windfeld_2m_22h_2022_100m.49014", "schl": 49014, "wg": 0.05, "wr": 303.41}, "geometry": {"type": "Point", "coordinates": [13.44845245876463, 52.487651112326255]}}, {"type": "Feature", "properties": {"id": "bb_ua_windfeld_2m_22h_2022_100m.49325", "schl": 49325, "wg": 0.06, "wr": 328.04}, "geometry": {"type": "Point", "coordinates": [13.408736966443403, 52.486224427319215]}}, {"type": "Feature", "properties": {"id": "bb_ua_windfeld_2m_22h_2022_100m.49326", "schl": 49326, "wg": 0.09, "wr": 318.74}, "geometry": {"type": "Point", "coordinates": [13.410209059985517, 52.486244220672106]}}, {"type": "Feature", "properties": {"id": "bb_ua_windfeld_2m_22h_2022_100m.49327", "schl": 49327, "wg": 0.14, "wr": 344.73}, "geometry": {"type": "Point", "coordinates": [13.411681155238801, 52.48626399571535]}}, {"type": "Feature", "properties": {"id": "bb_ua_windfeld_2m_22h_2022_100m.49328", "schl": 49328, "wg": 0.11, "wr": 28.59}, "geometry": {"type": "Point", "coordinates": [13.413153252201676, 52.48628375244888]}}, {"type": "Feature", "properties": {"id": "bb_ua_windfeld_2m_22h_2022_100m.49329", "schl": 49329, "wg": 0.08, "wr": 351.83}, "geometry": {"type": "Point", "coordinates": [13.414625350872559, 52.48630349087266]}}, {"type": "Feature", "properties": {"id": "bb_ua_windfeld_2m_22h_2022_100m.49330", "schl": 49330, "wg": 0.06, "wr": 350.77}, "geometry": {"type": "Point", "coordinates": [13.416097451249868, 52.48632321098665]}}, {"type": "Feature", "properties": {"id": "bb_ua_windfeld_2m_22h_2022_100m.49331", "schl": 49331, "wg": 0.1, "wr": 26.1}, "geometry": {"type": "Point", "coordinates": [13.417569553332024, 52.48634291279078]}}, {"type": "Feature", "properties": {"id": "bb_ua_windfeld_2m_22h_2022_100m.49332", "schl": 49332, "wg": 0.24, "wr": 25.95}, "geometry": {"type": "Point", "coordinates": [13.419041657117447, 52.48636259628502]}}, {"type": "Feature", "properties": {"id": "bb_ua_windfeld_2m_22h_2022_100m.49333", "schl": 49333, "wg": 0.18, "wr": 13.79}, "geometry": {"type": "Point", "coordinates": [13.420513762604553, 52.486382261469316]}}, {"type": "Feature", "properties": {"id": "bb_ua_windfeld_2m_22h_2022_100m.49334", "schl": 49334, "wg": 0.03, "wr": 283.28}, "geometry": {"type": "Point", "coordinates": [13.421985869791762, 52.486401908343616]}}, {"type": "Feature", "properties": {"id": "bb_ua_windfeld_2m_22h_2022_100m.49335", "schl": 49335, "wg": 0.01, "wr": 82.52}, "geometry": {"type": "Point", "coordinates": [13.423457978677494, 52.48642153690786]}}, {"type": "Feature", "properties": {"id": "bb_ua_windfeld_2m_22h_2022_100m.49336", "schl": 49336, "wg": 0.04, "wr": 322.73}, "geometry": {"type": "Point", "coordinates": [13.424930089260165, 52.48644114716205]}}, {"type": "Feature", "properties": {"id": "bb_ua_windfeld_2m_22h_2022_100m.49337", "schl": 49337, "wg": 0.02, "wr": 333.59}, "geometry": {"type": "Point", "coordinates": [13.426402201538199, 52.486460739106064]}}, {"type": "Feature", "properties": {"id": "bb_ua_windfeld_2m_22h_2022_100m.49338", "schl": 49338, "wg": 0.01, "wr": 104.72}, "geometry": {"type": "Point", "coordinates": [13.42787431551001, 52.48648031273993]}}, {"type": "Feature", "properties": {"id": "bb_ua_windfeld_2m_22h_2022_100m.49339", "schl": 49339, "wg": 0.03, "wr": 81.73}, "geometry": {"type": "Point", "coordinates": [13.429346431174022, 52.486499868063525]}}, {"type": "Feature", "properties": {"id": "bb_ua_windfeld_2m_22h_2022_100m.49340", "schl": 49340, "wg": 0.01, "wr": 19.69}, "geometry": {"type": "Point", "coordinates": [13.430818548528647, 52.48651940507686]}}, {"type": "Feature", "properties": {"id": "bb_ua_windfeld_2m_22h_2022_100m.49341", "schl": 49341, "wg": 0.01, "wr": 315.94}, "geometry": {"type": "Point", "coordinates": [13.432290667572309, 52.48653892377985]}}, {"type": "Feature", "properties": {"id": "bb_ua_windfeld_2m_22h_2022_100m.49342", "schl": 49342, "wg": 0.05, "wr": 173.11}, "geometry": {"type": "Point", "coordinates": [13.433762788303426, 52.48655842417247]}}, {"type": "Feature", "properties": {"id": "bb_ua_windfeld_2m_22h_2022_100m.49343", "schl": 49343, "wg": 0.01, "wr": 220.55}, "geometry": {"type": "Point", "coordinates": [13.435234910720414, 52.48657790625466]}}, {"type": "Feature", "properties": {"id": "bb_ua_windfeld_2m_22h_2022_100m.49344", "schl": 49344, "wg": 0.01, "wr": 333.64}, "geometry": {"type": "Point", "coordinates": [13.436707034821696, 52.486597370026374]}}, {"type": "Feature", "properties": {"id": "bb_ua_windfeld_2m_22h_2022_100m.49345", "schl": 49345, "wg": 0.02, "wr": 128.42}, "geometry": {"type": "Point", "coordinates": [13.438179160605689, 52.486616815487565]}}, {"type": "Feature", "properties": {"id": "bb_ua_windfeld_2m_22h_2022_100m.49346", "schl": 49346, "wg": 0.01, "wr": 232.73}, "geometry": {"type": "Point", "coordinates": [13.439651288070811, 52.486636242638184]}}, {"type": "Feature", "properties": {"id": "bb_ua_windfeld_2m_22h_2022_100m.49347", "schl": 49347, "wg": 0.1, "wr": 84.47}, "geometry": {"type": "Point", "coordinates": [13.441123417215483, 52.48665565147819]}}, {"type": "Feature", "properties": {"id": "bb_ua_windfeld_2m_22h_2022_100m.49348", "schl": 49348, "wg": 0.02, "wr": 150.32}, "geometry": {"type": "Point", "coordinates": [13.44259554803812, 52.486675042007526]}}, {"type": "Feature", "properties": {"id": "bb_ua_windfeld_2m_22h_2022_100m.49349", "schl": 49349, "wg": 0.02, "wr": 107.33}, "geometry": {"type": "Point", "coordinates": [13.444067680537145, 52.48669441422614]}}, {"type": "Feature", "properties": {"id": "bb_ua_windfeld_2m_22h_2022_100m.49350", "schl": 49350, "wg": 0.01, "wr": 344.56}, "geometry": {"type": "Point", "coordinates": [13.445539814710976, 52.48671376813401]}}, {"type": "Feature", "properties": {"id": "bb_ua_windfeld_2m_22h_2022_100m.49351", "schl": 49351, "wg": 0.03, "wr": 279.92}, "geometry": {"type": "Point", "coordinates": [13.447011950558029, 52.48673310373107]}}, {"type": "Feature", "properties": {"id": "bb_ua_windfeld_2m_22h_2022_100m.49352", "schl": 49352, "wg": 0.04, "wr": 120.13}, "geometry": {"type": "Point", "coordinates": [13.448484088076725, 52.48675242101726]}}, {"type": "Feature", "properties": {"id": "bb_ua_windfeld_2m_22h_2022_100m.49353", "schl": 49353, "wg": 0.04, "wr": 152.68}, "geometry": {"type": "Point", "coordinates": [13.449956227265481, 52.48677171999254]}}, {"type": "Feature", "properties": {"id": "bb_ua_windfeld_2m_22h_2022_100m.49663", "schl": 49663, "wg": 0.09, "wr": 264.59}, "geometry": {"type": "Point", "coordinates": [13.407297341654806, 52.4853059418736]}}, {"type": "Feature", "properties": {"id": "bb_ua_windfeld_2m_22h_2022_100m.49664", "schl": 49664, "wg": 0.06, "wr": 352.35}, "geometry": {"type": "Point", "coordinates": [13.408769403507256, 52.48532575289681]}}, {"type": "Feature", "properties": {"id": "bb_ua_windfeld_2m_22h_2022_100m.49665", "schl": 49665, "wg": 0.14, "wr": 333.86}, "geometry": {"type": "Point", "coordinates": [13.410241467072337, 52.48534554561101]}}, {"type": "Feature", "properties": {"id": "bb_ua_windfeld_2m_22h_2022_100m.49666", "schl": 49666, "wg": 0.14, "wr": 338.56}, "geometry": {"type": "Point", "coordinates": [13.411713532348468, 52.48536532001616]}}, {"type": "Feature", "properties": {"id": "bb_ua_windfeld_2m_22h_2022_100m.49667", "schl": 49667, "wg": 0.14, "wr": 44.24}, "geometry": {"type": "Point", "coordinates": [13.413185599334069, 52.48538507611218]}}, {"type": "Feature", "properties": {"id": "bb_ua_windfeld_2m_22h_2022_100m.49668", "schl": 49668, "wg": 0.11, "wr": 9.87}, "geometry": {"type": "Point", "coordinates": [13.414657668027559, 52.485404813899045]}}, {"type": "Feature", "properties": {"id": "bb_ua_windfeld_2m_22h_2022_100m.49669", "schl": 49669, "wg": 0.04, "wr": 28.91}, "geometry": {"type": "Point", "coordinates": [13.416129738427355, 52.485424533376715]}}, {"type": "Feature", "properties": {"id": "bb_ua_windfeld_2m_22h_2022_100m.49670", "schl": 49670, "wg": 0.03, "wr": 9.4}, "geometry": {"type": "Point", "coordinates": [13.417601810531878, 52.48544423454511]}}, {"type": "Feature", "properties": {"id": "bb_ua_windfeld_2m_22h_2022_100m.49671", "schl": 49671, "wg": 0.0, "wr": 42.18}, "geometry": {"type": "Point", "coordinates": [13.419073884339547, 52.48546391740421]}}, {"type": "Feature", "properties": {"id": "bb_ua_windfeld_2m_22h_2022_100m.49672", "schl": 49672, "wg": 0.09, "wr": 68.09}, "geometry": {"type": "Point", "coordinates": [13.42054595984878, 52.48548358195394]}}, {"type": "Feature", "properties": {"id": "bb_ua_windfeld_2m_22h_2022_100m.49673", "schl": 49673, "wg": 0.04, "wr": 325.69}, "geometry": {"type": "Point", "coordinates": [13.422018037057997, 52.48550322819428]}}, {"type": "Feature", "properties": {"id": "bb_ua_windfeld_2m_22h_2022_100m.49674", "schl": 49674, "wg": 0.04, "wr": 13.28}, "geometry": {"type": "Point", "coordinates": [13.423490115965617, 52.48552285612517]}}, {"type": "Feature", "properties": {"id": "bb_ua_windfeld_2m_22h_2022_100m.49675", "schl": 49675, "wg": 0.16, "wr": 358.74}, "geometry": {"type": "Point", "coordinates": [13.424962196570057, 52.485542465746555]}}, {"type": "Feature", "properties": {"id": "bb_ua_windfeld_2m_22h_2022_100m.49676", "schl": 49676, "wg": 0.04, "wr": 90.65}, "geometry": {"type": "Point", "coordinates": [13.426434278869738, 52.485562057058395]}}, {"type": "Feature", "properties": {"id": "bb_ua_windfeld_2m_22h_2022_100m.49677", "schl": 49677, "wg": 0.04, "wr": 0.38}, "geometry": {"type": "Point", "coordinates": [13.42790636286308, 52.485581630060636]}}, {"type": "Feature", "properties": {"id": "bb_ua_windfeld_2m_22h_2022_100m.49678", "schl": 49678, "wg": 0.01, "wr": 127.1}, "geometry": {"type": "Point", "coordinates": [13.429378448548501, 52.485601184753236]}}, {"type": "Feature", "properties": {"id": "bb_ua_windfeld_2m_22h_2022_100m.49679", "schl": 49679, "wg": 0.01, "wr": 336.36}, "geometry": {"type": "Point", "coordinates": [13.430850535924419, 52.48562072113614]}}, {"type": "Feature", "properties": {"id": "bb_ua_windfeld_2m_22h_2022_100m.49680", "schl": 49680, "wg": 0.01, "wr": 25.33}, "geometry": {"type": "Point", "coordinates": [13.432322624989254, 52.4856402392093]}}, {"type": "Feature", "properties": {"id": "bb_ua_windfeld_2m_22h_2022_100m.49681", "schl": 49681, "wg": 0.0, "wr": 354.58}, "geometry": {"type": "Point", "coordinates": [13.433794715741424, 52.485659738972664]}}, {"type": "Feature", "properties": {"id": "bb_ua_windfeld_2m_22h_2022_100m.49682", "schl": 49682, "wg": 0.01, "wr": 2.71}, "geometry": {"type": "Point", "coordinates": [13.43526680817935, 52.48567922042621]}}, {"type": "Feature", "properties": {"id": "bb_ua_windfeld_2m_22h_2022_100m.49683", "schl": 49683, "wg": 0.04, "wr": 118.62}, "geometry": {"type": "Point", "coordinates": [13.43673890230145, 52.485698683569865]}}, {"type": "Feature", "properties": {"id": "bb_ua_windfeld_2m_22h_2022_100m.49684", "schl": 49684, "wg": 0.03, "wr": 356.45}, "geometry": {"type": "Point", "coordinates": [13.438210998106142, 52.48571812840358]}}, {"type": "Feature", "properties": {"id": "bb_ua_windfeld_2m_22h_2022_100m.49685", "schl": 49685, "wg": 0.03, "wr": 2.19}, "geometry": {"type": "Point", "coordinates": [13.439683095591842, 52.48573755492733]}}, {"type": "Feature", "properties": {"id": "bb_ua_windfeld_2m_22h_2022_100m.49686", "schl": 49686, "wg": 0.01, "wr": 346.35}, "geometry": {"type": "Point", "coordinates": [13.441155194756975, 52.485756963141036]}}, {"type": "Feature", "properties": {"id": "bb_ua_windfeld_2m_22h_2022_100m.49687", "schl": 49687, "wg": 0.11, "wr": 73.23}, "geometry": {"type": "Point", "coordinates": [13.442627295599959, 52.48577635304467]}}, {"type": "Feature", "properties": {"id": "bb_ua_windfeld_2m_22h_2022_100m.49688", "schl": 49688, "wg": 0.02, "wr": 340.54}, "geometry": {"type": "Point", "coordinates": [13.44409939811921, 52.48579572463818]}}, {"type": "Feature", "properties": {"id": "bb_ua_windfeld_2m_22h_2022_100m.49689", "schl": 49689, "wg": 0.01, "wr": 53.21}, "geometry": {"type": "Point", "coordinates": [13.445571502313147, 52.485815077921536]}}, {"type": "Feature", "properties": {"id": "bb_ua_windfeld_2m_22h_2022_100m.49690", "schl": 49690, "wg": 0.03, "wr": 98.32}, "geometry": {"type": "Point", "coordinates": [13.447043608180191, 52.485834412894654]}}, {"type": "Feature", "properties": {"id": "bb_ua_windfeld_2m_22h_2022_100m.49691", "schl": 49691, "wg": 0.02, "wr": 160.13}, "geometry": {"type": "Point", "coordinates": [13.44851571571876, 52.48585372955751]}}, {"type": "Feature", "properties": {"id": "bb_ua_windfeld_2m_22h_2022_100m.49692", "schl": 49692, "wg": 0.03, "wr": 333.17}, "geometry": {"type": "Point", "coordinates": [13.449987824927272, 52.48587302791006]}}, {"type": "Feature", "properties": {"id": "bb_ua_windfeld_2m_22h_2022_100m.49693", "schl": 49693, "wg": 0.02, "wr": 328.96}, "geometry": {"type": "Point", "coordinates": [13.451459935804147, 52.485892307952234]}}]}