{"type": "FeatureCollection", "name": "c_rwvers_strassen_keine_neukoelln", "features": [{"type": "Feature", "properties": {"id": "c_rwvers_strassen_keine.77", "importid": 77, "elem_nr": "50500003_50500002.01", "bezirk": "Neukölln", "strschl": "00969", "str_name": "Dieselstraße", "grund_der_einschraenkung": "geringer Grundwasserflurabstand, Möglichkeit zur Versickerung unterliegt der Einzelfallentscheidung", "sachdatum": "2022-01-01T00:00:00+01:00"}, "geometry": {"type": "LineString", "coordinates": [[13.45932338, 52.47777101], [13.46143828, 52.47761769]]}}, {"type": "Feature", "properties": {"id": "c_rwvers_strassen_keine.115", "importid": 115, "elem_nr": "53440010_53440012.01", "bezirk": "Neukölln", "strschl": "01791", "str_name": "Hafenstraße", "grund_der_einschraenkung": "Versickerung aufgrund von geringem Grundwasserflurabstand nicht möglich", "sachdatum": "2022-01-01T00:00:00+01:00"}, "geometry": {"type": "LineString", "coordinates": [[13.5074692, 52.42807253], [13.50752659, 52.42805461], [13.50812833, 52.42788357]]}}, {"type": "Feature", "properties": {"id": "c_rwvers_strassen_keine.300", "importid": 300, "elem_nr": "51460013_51460008.01", "bezirk": "Neukölln", "strschl": "04556", "str_name": "Trollblumenweg", "grund_der_einschraenkung": "keine Versickerung im WSG möglich", "sachdatum": "2022-01-01T00:00:00+01:00"}, "geometry": {"type": "LineString", "coordinates": [[13.47885797, 52.4406865], [13.48190452, 52.43947075]]}}, {"type": "Feature", "properties": {"id": "c_rwvers_strassen_keine.347", "importid": 347, "elem_nr": "52450012_52450014.01", "bezirk": "Neukölln", "strschl": "05270", "str_name": "Sauerdornweg", "grund_der_einschraenkung": "keine Versickerung im WSG möglich", "sachdatum": "2022-01-01T00:00:00+01:00"}, "geometry": {"type": "LineString", "coordinates": [[13.49070579, 52.43556294], [13.49111939, 52.43590491]]}}, {"type": "Feature", "properties": {"id": "c_rwvers_strassen_keine.348", "importid": 348, "elem_nr": "52450015_52450016.01", "bezirk": "Neukölln", "strschl": "05271", "str_name": "Frauenschuhweg", "grund_der_einschraenkung": "keine Versickerung im WSG möglich", "sachdatum": "2022-01-01T00:00:00+01:00"}, "geometry": {"type": "LineString", "coordinates": [[13.49190853, 52.43412104], [13.49255081, 52.43469333]]}}, {"type": "Feature", "properties": {"id": "c_rwvers_strassen_keine.349", "importid": 349, "elem_nr": "52450017_52450012.01", "bezirk": "Neukölln", "strschl": "05272", "str_name": "Männertreuweg", "grund_der_einschraenkung": "keine Versickerung im WSG möglich", "sachdatum": "2022-01-01T00:00:00+01:00"}, "geometry": {"type": "LineString", "coordinates": [[13.4887839, 52.43653848], [13.49070579, 52.43556294]]}}, {"type": "Feature", "properties": {"id": "c_rwvers_strassen_keine.350", "importid": 350, "elem_nr": "52450012_52450016.01", "bezirk": "Neukölln", "strschl": "05272", "str_name": "Männertreuweg", "grund_der_einschraenkung": "keine Versickerung im WSG möglich", "sachdatum": "2022-01-01T00:00:00+01:00"}, "geometry": {"type": "LineString", "coordinates": [[13.49070579, 52.43556294], [13.49255081, 52.43469333]]}}, {"type": "Feature", "properties": {"id": "c_rwvers_strassen_keine.351", "importid": 351, "elem_nr": "52450016_52450018.01", "bezirk": "Neukölln", "strschl": "05272", "str_name": "Männertreuweg", "grund_der_einschraenkung": "keine Versickerung im WSG möglich", "sachdatum": "2022-01-01T00:00:00+01:00"}, "geometry": {"type": "LineString", "coordinates": [[13.49255081, 52.43469333], [13.49305148, 52.43444496]]}}, {"type": "Feature", "properties": {"id": "c_rwvers_strassen_keine.352", "importid": 352, "elem_nr": "51460012_51450031.01", "bezirk": "Neukölln", "strschl": "05274", "str_name": "Minzeweg", "grund_der_einschraenkung": "keine Versickerung im WSG möglich", "sachdatum": "2022-01-01T00:00:00+01:00"}, "geometry": {"type": "LineString", "coordinates": [[13.47821886, 52.44007101], [13.48155129, 52.43866691]]}}, {"type": "Feature", "properties": {"id": "c_rwvers_strassen_keine.353", "importid": 353, "elem_nr": "51450031_51450044.01", "bezirk": "Neukölln", "strschl": "05274", "str_name": "Minzeweg", "grund_der_einschraenkung": "keine Versickerung im WSG möglich", "sachdatum": "2022-01-01T00:00:00+01:00"}, "geometry": {"type": "LineString", "coordinates": [[13.48155129, 52.43866691], [13.48389817, 52.4377612]]}}, {"type": "Feature", "properties": {"id": "c_rwvers_strassen_keine.368", "importid": 368, "elem_nr": "51450042_51450044.01", "bezirk": "Neukölln", "strschl": "05428", "str_name": "Igelkolbensteig", "grund_der_einschraenkung": "keine Versickerung im WSG möglich", "sachdatum": "2022-01-01T00:00:00+01:00"}, "geometry": {"type": "LineString", "coordinates": [[13.48310044, 52.43707814], [13.48318262, 52.43712947], [13.48388219, 52.43770007], [13.48389817, 52.4377612]]}}, {"type": "Feature", "properties": {"id": "c_rwvers_strassen_keine.416", "importid": 416, "elem_nr": "50470005_50470003.01", "bezirk": "Neukölln", "strschl": "05957", "str_name": "Siedlerverein Harmonie", "grund_der_einschraenkung": "Versickerung aufgrund von geringem Grundwasserflurabstand nicht möglich", "sachdatum": "2022-01-01T00:00:00+01:00"}, "geometry": {"type": "LineString", "coordinates": [[13.46000289, 52.4483919], [13.46039942, 52.4481579]]}}, {"type": "Feature", "properties": {"id": "c_rwvers_strassen_keine.418", "importid": 418, "elem_nr": "49500072_49500073.01", "bezirk": "Neukölln", "strschl": "05983", "str_name": "KGA NCR", "grund_der_einschraenkung": "geringer Grundwasserflurabstand, Möglichkeit zur Versickerung unterliegt der Einzelfallentscheidung", "sachdatum": "2022-01-01T00:00:00+01:00"}, "geometry": {"type": "LineString", "coordinates": [[13.45200239, 52.47581134], [13.45235893, 52.47608955], [13.45216574, 52.47618992], [13.45287899, 52.47670231]]}}, {"type": "Feature", "properties": {"id": "c_rwvers_strassen_keine.419", "importid": 419, "elem_nr": "50470003_50460016.01", "bezirk": "Neukölln", "strschl": "05987", "str_name": "KGA Feldschlößchen", "grund_der_einschraenkung": "Versickerung aufgrund von geringem Grundwasserflurabstand nicht möglich", "sachdatum": "2022-01-01T00:00:00+01:00"}, "geometry": {"type": "LineString", "coordinates": [[13.46039942, 52.4481579], [13.46082254, 52.44789069]]}}, {"type": "Feature", "properties": {"id": "c_rwvers_strassen_keine.420", "importid": 420, "elem_nr": "50470008_50470007.01", "bezirk": "Neukölln", "strschl": "06109", "str_name": "KGA Alpental", "grund_der_einschraenkung": "geringer Grundwasserflurabstand, Möglichkeit zur Versickerung unterliegt der Einzelfallentscheidung", "sachdatum": "2022-01-01T00:00:00+01:00"}, "geometry": {"type": "LineString", "coordinates": [[13.45759937, 52.45075829], [13.45804662, 52.45111929], [13.45779024, 52.45123576], [13.45904787, 52.45240132]]}}, {"type": "Feature", "properties": {"id": "c_rwvers_strassen_keine.421", "importid": 421, "elem_nr": "50470009_50470008.01", "bezirk": "Neukölln", "strschl": "06109", "str_name": "KGA Alpental", "grund_der_einschraenkung": "Versickerung aufgrund von geringem Grundwasserflurabstand nicht möglich", "sachdatum": "2022-01-01T00:00:00+01:00"}, "geometry": {"type": "LineString", "coordinates": [[13.45663571, 52.45158279], [13.45702086, 52.45125892], [13.45731723, 52.45107152], [13.45759937, 52.45075829]]}}, {"type": "Feature", "properties": {"id": "c_rwvers_strassen_keine.422", "importid": 422, "elem_nr": "50470010_50460019.01", "bezirk": "Neukölln", "strschl": "06130", "str_name": "KGA Am Buschkrug", "grund_der_einschraenkung": "geringer Grundwasserflurabstand, Möglichkeit zur Versickerung unterliegt der Einzelfallentscheidung", "sachdatum": "2022-01-01T00:00:00+01:00"}, "geometry": {"type": "LineString", "coordinates": [[13.45597296, 52.45103725], [13.45690606, 52.44858971], [13.45753799, 52.44795795], [13.45787737, 52.44766906], [13.45893889, 52.44699656], [13.45975109, 52.44651692], [13.46040392, 52.44617364], [13.460675, 52.44605]]}}, {"type": "Feature", "properties": {"id": "c_rwvers_strassen_keine.427", "importid": 427, "elem_nr": "50470008_50470011.01", "bezirk": "Neukölln", "strschl": "06189", "str_name": "KGA Bartas Grund", "grund_der_einschraenkung": "Versickerung aufgrund von geringem Grundwasserflurabstand nicht möglich", "sachdatum": "2022-01-01T00:00:00+01:00"}, "geometry": {"type": "LineString", "coordinates": [[13.45759937, 52.45075829], [13.45776625, 52.45058329], [13.45807951, 52.45020629], [13.45839736, 52.44978257], [13.45867076, 52.44944236]]}}, {"type": "Feature", "properties": {"id": "c_rwvers_strassen_keine.428", "importid": 428, "elem_nr": "50500005_51490012.01", "bezirk": "Neukölln", "strschl": "06330", "str_name": "KGA Freiheit", "grund_der_einschraenkung": "geringer Grundwasserflurabstand, Möglichkeit zur Versickerung unterliegt der Einzelfallentscheidung", "sachdatum": "2022-01-01T00:00:00+01:00"}, "geometry": {"type": "LineString", "coordinates": [[13.46836688, 52.47572554], [13.4682998, 52.47555291], [13.46841068, 52.47541197], [13.46791521, 52.47527201], [13.46819606, 52.47493], [13.4686107, 52.47462411], [13.46915945, 52.47426357], [13.4693881, 52.474112], [13.46916161, 52.47365697], [13.46890165, 52.47351104], [13.46961287, 52.47297998], [13.46977389, 52.47288917]]}}, {"type": "Feature", "properties": {"id": "c_rwvers_strassen_keine.432", "importid": 432, "elem_nr": "49510025_49510024.01", "bezirk": "Neukölln", "strschl": "06425", "str_name": "KGA Harztal", "grund_der_einschraenkung": "geringer Grundwasserflurabstand, Möglichkeit zur Versickerung unterliegt der Einzelfallentscheidung", "sachdatum": "2022-01-01T00:00:00+01:00"}, "geometry": {"type": "LineString", "coordinates": [[13.45009305, 52.48442582], [13.45130994, 52.48528585]]}}, {"type": "Feature", "properties": {"id": "c_rwvers_strassen_keine.433", "importid": 433, "elem_nr": "50500019_50500020.01", "bezirk": "Neukölln", "strschl": "06450", "str_name": "KGA Heinrichs Ruh", "grund_der_einschraenkung": "geringer Grundwasserflurabstand, Möglichkeit zur Versickerung unterliegt der Einzelfallentscheidung", "sachdatum": "2022-01-01T00:00:00+01:00"}, "geometry": {"type": "LineString", "coordinates": [[13.46289644, 52.4753353], [13.46354558, 52.47570285], [13.46331545, 52.47584901], [13.46373411, 52.47606347], [13.46345376, 52.4762581]]}}, {"type": "Feature", "properties": {"id": "c_rwvers_strassen_keine.440", "importid": 440, "elem_nr": "50500026_51500001.01", "bezirk": "Neukölln", "strschl": "06506", "str_name": "KGA Südpol", "grund_der_einschraenkung": "Versickerung aufgrund von geringem Grundwasserflurabstand nicht möglich", "sachdatum": "2022-01-01T00:00:00+01:00"}, "geometry": {"type": "LineString", "coordinates": [[13.46596266, 52.47759334], [13.46790313, 52.47617965], [13.46828887, 52.47613883], [13.46877578, 52.47579349]]}}, {"type": "Feature", "properties": {"id": "c_rwvers_strassen_keine.441", "importid": 441, "elem_nr": "51500001_51500002.01", "bezirk": "Neukölln", "strschl": "06506", "str_name": "KGA Südpol", "grund_der_einschraenkung": "Versickerung aufgrund von geringem Grundwasserflurabstand nicht möglich", "sachdatum": "2022-01-01T00:00:00+01:00"}, "geometry": {"type": "LineString", "coordinates": [[13.46877578, 52.47579349], [13.4689726, 52.47590339]]}}, {"type": "Feature", "properties": {"id": "c_rwvers_strassen_keine.446", "importid": 446, "elem_nr": "50460016_50460011.01", "bezirk": "Neukölln", "strschl": "06549", "str_name": "KGA Martha Baer", "grund_der_einschraenkung": "geringer Grundwasserflurabstand, Möglichkeit zur Versickerung unterliegt der Einzelfallentscheidung", "sachdatum": "2022-01-01T00:00:00+01:00"}, "geometry": {"type": "LineString", "coordinates": [[13.46082254, 52.44789069], [13.46095528, 52.44779112], [13.4610955, 52.44765831], [13.46125051, 52.44750665]]}}, {"type": "Feature", "properties": {"id": "c_rwvers_strassen_keine.450", "importid": 450, "elem_nr": "50500027_50500001.01", "bezirk": "Neukölln", "strschl": "06576", "str_name": "KGA Neuköllner Schweiz", "grund_der_einschraenkung": "Versickerung aufgrund von geringem Grundwasserflurabstand nicht möglich", "sachdatum": "2022-01-01T00:00:00+01:00"}, "geometry": {"type": "LineString", "coordinates": [[13.46351167, 52.47891553], [13.46370653, 52.47875853], [13.46403715, 52.47890636], [13.46569575, 52.47773587], [13.46517283, 52.47744848], [13.4648951, 52.47733128]]}}, {"type": "Feature", "properties": {"id": "c_rwvers_strassen_keine.457", "importid": 457, "elem_nr": "50490029_50490028.01", "bezirk": "Neukölln", "strschl": "06694", "str_name": "KGA Friedenstal", "grund_der_einschraenkung": "geringer Grundwasserflurabstand, Möglichkeit zur Versickerung unterliegt der Einzelfallentscheidung", "sachdatum": "2022-01-01T00:00:00+01:00"}, "geometry": {"type": "LineString", "coordinates": [[13.46333627, 52.47299847], [13.46340193, 52.47394845], [13.46368064, 52.47419507]]}}, {"type": "Feature", "properties": {"id": "c_rwvers_strassen_keine.460", "importid": 460, "elem_nr": "51490013_51490009.01", "bezirk": "Neukölln", "strschl": "06747", "str_name": "KGA Stolz von Rixdorf", "grund_der_einschraenkung": "geringer Grundwasserflurabstand, Möglichkeit zur Versickerung unterliegt der Einzelfallentscheidung", "sachdatum": "2022-01-01T00:00:00+01:00"}, "geometry": {"type": "LineString", "coordinates": [[13.469045, 52.47251372], [13.47191301, 52.47046044], [13.47137024, 52.47039413], [13.47126899, 52.47031222]]}}, {"type": "Feature", "properties": {"id": "c_rwvers_strassen_keine.462", "importid": 462, "elem_nr": "50470011_50470005.01", "bezirk": "Neukölln", "strschl": "06761", "str_name": "KGA Therese Dähn", "grund_der_einschraenkung": "Versickerung aufgrund von geringem Grundwasserflurabstand nicht möglich", "sachdatum": "2022-01-01T00:00:00+01:00"}, "geometry": {"type": "LineString", "coordinates": [[13.45867076, 52.44944236], [13.45942815, 52.44868765], [13.46000289, 52.4483919]]}}, {"type": "Feature", "properties": {"id": "c_rwvers_strassen_keine.466", "importid": 466, "elem_nr": "50490032_50490029.01", "bezirk": "Neukölln", "strschl": "06774", "str_name": "KGA Treue Seele", "grund_der_einschraenkung": "geringer Grundwasserflurabstand, Möglichkeit zur Versickerung unterliegt der Einzelfallentscheidung", "sachdatum": "2022-01-01T00:00:00+01:00"}, "geometry": {"type": "LineString", "coordinates": [[13.46128644, 52.47492687], [13.46206103, 52.47440133], [13.46166441, 52.47420577], [13.46322549, 52.47310796], [13.46333627, 52.47299847]]}}, {"type": "Feature", "properties": {"id": "c_rwvers_strassen_keine.467", "importid": 467, "elem_nr": "50480014_51490014.01", "bezirk": "Neukölln", "strschl": "06786", "str_name": "KGA Volksgärten", "grund_der_einschraenkung": "geringer Grundwasserflurabstand, Möglichkeit zur Versickerung unterliegt der Einzelfallentscheidung", "sachdatum": "2022-01-01T00:00:00+01:00"}, "geometry": {"type": "LineString", "coordinates": [[13.46658687, 52.46573718], [13.46730639, 52.46532655], [13.46986273, 52.46683343]]}}, {"type": "Feature", "properties": {"id": "c_rwvers_strassen_keine.468", "importid": 468, "elem_nr": "50480014_50490033.01", "bezirk": "Neukölln", "strschl": "06786", "str_name": "KGA Volksgärten", "grund_der_einschraenkung": "geringer Grundwasserflurabstand, Möglichkeit zur Versickerung unterliegt der Einzelfallentscheidung", "sachdatum": "2022-01-01T00:00:00+01:00"}, "geometry": {"type": "LineString", "coordinates": [[13.46658687, 52.46573718], [13.46582312, 52.4661675], [13.46833396, 52.46764469], [13.46881556, 52.46754199]]}}, {"type": "Feature", "properties": {"id": "c_rwvers_strassen_keine.472", "importid": 472, "elem_nr": "49510024_49510026.01", "bezirk": "Neukölln", "strschl": "06837", "str_name": "KGA Wilde Rose", "grund_der_einschraenkung": "Versickerung aufgrund von geringem Grundwasserflurabstand nicht möglich", "sachdatum": "2022-01-01T00:00:00+01:00"}, "geometry": {"type": "LineString", "coordinates": [[13.45130994, 52.48528585], [13.45183977, 52.48568564]]}}, {"type": "Feature", "properties": {"id": "c_rwvers_strassen_keine.473", "importid": 473, "elem_nr": "50500029_50500033.01", "bezirk": "Neukölln", "strschl": "06862", "str_name": "KGA Zufriedenheit", "grund_der_einschraenkung": "geringer Grundwasserflurabstand, Möglichkeit zur Versickerung unterliegt der Einzelfallentscheidung", "sachdatum": "2022-01-01T00:00:00+01:00"}, "geometry": {"type": "LineString", "coordinates": [[13.46028962, 52.48249404], [13.46064261, 52.48296274], [13.46137118, 52.48336995], [13.46137432848415, 52.48338498509376]]}}, {"type": "Feature", "properties": {"id": "c_rwvers_strassen_keine.474", "importid": 474, "elem_nr": "50500010_50500030.01", "bezirk": "Neukölln", "strschl": "06883", "str_name": "BLW Unterbezirk Neukölln Gruppe Kiehler Grund", "grund_der_einschraenkung": "geringer Grundwasserflurabstand, Möglichkeit zur Versickerung unterliegt der Einzelfallentscheidung", "sachdatum": "2022-01-01T00:00:00+01:00"}, "geometry": {"type": "LineString", "coordinates": [[13.45784243, 52.47845827], [13.4579256, 52.47864891], [13.45866302, 52.47941472]]}}, {"type": "Feature", "properties": {"id": "c_rwvers_strassen_keine.477", "importid": 477, "elem_nr": "50480022_50480023.01", "bezirk": "Neukölln", "strschl": "07224", "str_name": "Britzer Hafensteg", "grund_der_einschraenkung": "Versickerung aufgrund von geringem Grundwasserflurabstand nicht möglich", "sachdatum": "2022-01-01T00:00:00+01:00"}, "geometry": {"type": "LineString", "coordinates": [[13.45465481, 52.46094587], [13.45504279, 52.46105517]]}}, {"type": "Feature", "properties": {"id": "c_rwvers_strassen_keine.479", "importid": 479, "elem_nr": "49500034_49500037.01", "bezirk": "Neukölln", "strschl": "07253", "str_name": "Elsensteg", "grund_der_einschraenkung": "geringer Grundwasserflurabstand, Möglichkeit zur Versickerung unterliegt der Einzelfallentscheidung", "sachdatum": "2022-01-01T00:00:00+01:00"}, "geometry": {"type": "LineString", "coordinates": [[13.44673215, 52.48340888], [13.44720895, 52.48380142]]}}, {"type": "Feature", "properties": {"id": "c_rwvers_strassen_keine.480", "importid": 480, "elem_nr": "51460004_51460019.01", "bezirk": "Neukölln", "strschl": "16234", "str_name": "Johannisthaler Chaussee", "grund_der_einschraenkung": "keine Versickerung im WSG möglich", "sachdatum": "2022-01-01T00:00:00+01:00"}, "geometry": {"type": "LineString", "coordinates": [[13.47821246, 52.44247045], [13.47844169, 52.44265301], [13.478609155554572, 52.44277457421889]]}}, {"type": "Feature", "properties": {"id": "c_rwvers_strassen_keine.483", "importid": 483, "elem_nr": "49480009_49480010.01", "bezirk": "Neukölln", "strschl": "01679", "str_name": "Grenzallee", "grund_der_einschraenkung": "Versickerung aufgrund von geringem Grundwasserflurabstand nicht möglich", "sachdatum": "2022-01-01T00:00:00+01:00"}, "geometry": {"type": "LineString", "coordinates": [[13.45284875, 52.4652658], [13.45326052, 52.4652694], [13.45344453, 52.46527003], [13.45351454, 52.46527273]]}}, {"type": "Feature", "properties": {"id": "c_rwvers_strassen_keine.485", "importid": 485, "elem_nr": "49510015_49510021.01", "bezirk": "Neukölln", "strschl": "07339", "str_name": "Lohmühlenbrücke", "grund_der_einschraenkung": "geringer Grundwasserflurabstand, Möglichkeit zur Versickerung unterliegt der Einzelfallentscheidung", "sachdatum": "2022-01-01T00:00:00+01:00"}, "geometry": {"type": "LineString", "coordinates": [[13.43913619, 52.48949092], [13.43955666, 52.48957072]]}}, {"type": "Feature", "properties": {"id": "c_rwvers_strassen_keine.519", "importid": 519, "elem_nr": "51490017_51490015.01", "bezirk": "Neukölln", "strschl": "07845", "str_name": "Von-der-Schulenburg-Park", "grund_der_einschraenkung": "geringer Grundwasserflurabstand, Möglichkeit zur Versickerung unterliegt der Einzelfallentscheidung", "sachdatum": "2022-01-01T00:00:00+01:00"}, "geometry": {"type": "LineString", "coordinates": [[13.46923413, 52.46774654], [13.46990961, 52.46730619], [13.47070873, 52.46685431], [13.47109333, 52.46669575], [13.4712699, 52.46669598], [13.47157882, 52.46671885], [13.47185083, 52.46677672], [13.47200046, 52.46690812]]}}, {"type": "Feature", "properties": {"id": "c_rwvers_strassen_keine.574", "importid": 574, "elem_nr": "50500036_50500031.01", "bezirk": "Neukölln", "strschl": "08306", "str_name": "KGA Märkische Schweiz", "grund_der_einschraenkung": "Versickerung aufgrund von geringem Grundwasserflurabstand nicht möglich", "sachdatum": "2022-01-01T00:00:00+01:00"}, "geometry": {"type": "LineString", "coordinates": [[13.466147666885828, 52.480025009106015], [13.46474225, 52.47928297], [13.46668538, 52.47797984]]}}, {"type": "Feature", "properties": {"id": "c_rwvers_strassen_keine.1768", "importid": 1768, "elem_nr": "51450044_52450039.01", "bezirk": "Neukölln", "strschl": "05274", "str_name": "Minzeweg", "grund_der_einschraenkung": "keine Versickerung im WSG möglich", "sachdatum": "2022-01-01T00:00:00+01:00"}, "geometry": {"type": "LineString", "coordinates": [[13.48389817, 52.4377612], [13.48522135, 52.43726428], [13.48535088, 52.43721402]]}}, {"type": "Feature", "properties": {"id": "c_rwvers_strassen_keine.1769", "importid": 1769, "elem_nr": "52450039_52450040.01", "bezirk": "Neukölln", "strschl": "05274", "str_name": "Minzeweg", "grund_der_einschraenkung": "keine Versickerung im WSG möglich", "sachdatum": "2022-01-01T00:00:00+01:00"}, "geometry": {"type": "LineString", "coordinates": [[13.48535088, 52.43721402], [13.48613362, 52.43691027]]}}, {"type": "Feature", "properties": {"id": "c_rwvers_strassen_keine.1770", "importid": 1770, "elem_nr": "52450040_52450042.01", "bezirk": "Neukölln", "strschl": "05274", "str_name": "Minzeweg", "grund_der_einschraenkung": "keine Versickerung im WSG möglich", "sachdatum": "2022-01-01T00:00:00+01:00"}, "geometry": {"type": "LineString", "coordinates": [[13.48613362, 52.43691027], [13.48621161, 52.43688001], [13.48691026, 52.4366041]]}}, {"type": "Feature", "properties": {"id": "c_rwvers_strassen_keine.1771", "importid": 1771, "elem_nr": "52450042_52450044.01", "bezirk": "Neukölln", "strschl": "05274", "str_name": "Minzeweg", "grund_der_einschraenkung": "keine Versickerung im WSG möglich", "sachdatum": "2022-01-01T00:00:00+01:00"}, "geometry": {"type": "LineString", "coordinates": [[13.48691026, 52.4366041], [13.48700744, 52.43656573], [13.48750804, 52.43629599], [13.48761159, 52.43623529]]}}, {"type": "Feature", "properties": {"id": "c_rwvers_strassen_keine.1772", "importid": 1772, "elem_nr": "52450044_52450045.01", "bezirk": "Neukölln", "strschl": "10630", "str_name": "Zwergasternweg", "grund_der_einschraenkung": "keine Versickerung im WSG möglich", "sachdatum": "2022-01-01T00:00:00+01:00"}, "geometry": {"type": "LineString", "coordinates": [[13.48761159, 52.43623529], [13.4887917, 52.43701575]]}}, {"type": "Feature", "properties": {"id": "c_rwvers_strassen_keine.1773", "importid": 1773, "elem_nr": "52450040_52450041.01", "bezirk": "Neukölln", "strschl": "10628", "str_name": "Sternliebweg", "grund_der_einschraenkung": "keine Versickerung im WSG möglich", "sachdatum": "2022-01-01T00:00:00+01:00"}, "geometry": {"type": "LineString", "coordinates": [[13.48613362, 52.43691027], [13.48716834, 52.43775614]]}}, {"type": "Feature", "properties": {"id": "c_rwvers_strassen_keine.1774", "importid": 1774, "elem_nr": "52450039_52450038.01", "bezirk": "Neukölln", "strschl": "10627", "str_name": "Geißbartweg", "grund_der_einschraenkung": "keine Versickerung im WSG möglich", "sachdatum": "2022-01-01T00:00:00+01:00"}, "geometry": {"type": "LineString", "coordinates": [[13.48535088, 52.43721402], [13.48643106, 52.43819506]]}}, {"type": "Feature", "properties": {"id": "c_rwvers_strassen_keine.1775", "importid": 1775, "elem_nr": "52450046_52450047.01", "bezirk": "Neukölln", "strschl": "04556", "str_name": "Trollblumenweg", "grund_der_einschraenkung": "keine Versickerung im WSG möglich", "sachdatum": "2022-01-01T00:00:00+01:00"}, "geometry": {"type": "LineString", "coordinates": [[13.48479937, 52.43870761], [13.48549286, 52.4384392]]}}, {"type": "Feature", "properties": {"id": "c_rwvers_strassen_keine.1776", "importid": 1776, "elem_nr": "52450048_52450047.01", "bezirk": "Neukölln", "strschl": "04556", "str_name": "Trollblumenweg", "grund_der_einschraenkung": "keine Versickerung im WSG möglich", "sachdatum": "2022-01-01T00:00:00+01:00"}, "geometry": {"type": "LineString", "coordinates": [[13.48535195, 52.4383069], [13.48549286, 52.4384392]]}}, {"type": "Feature", "properties": {"id": "c_rwvers_strassen_keine.1777", "importid": 1777, "elem_nr": "52450047_52450049.01", "bezirk": "Neukölln", "strschl": "04556", "str_name": "Trollblumenweg", "grund_der_einschraenkung": "keine Versickerung im WSG möglich", "sachdatum": "2022-01-01T00:00:00+01:00"}, "geometry": {"type": "LineString", "coordinates": [[13.48549286, 52.4384392], [13.48559795, 52.43853321]]}}]}