{
"type": "FeatureCollection",
"name": "d_tramlinien_neukoelln",
"crs": { "type": "name", "properties": { "name": "urn:ogc:def:crs:OGC:1.3:CRS84" } },
"features": [
{ "type": "Feature", "properties": { "id": "d_tramlinien.23", "gisid": 23, "linename": "21-30-021", "starthst": "S Schöneweide, Aus u. Einstieg Gl.2", "endhst": "S+U Lichtenberg Bhf/Gudrunstr., Gl.2", "richtung": "R" }, "geometry": { "type": "MultiLineString", "coordinates": [ [ [ 13.50736697, 52.45456681 ], [ 13.50837881, 52.45403147 ], [ 13.50895622, 52.45372441 ], [ 13.50927305, 52.45367067 ], [ 13.50947161, 52.45369883 ], [ 13.50964637, 52.45381009 ], [ 13.50972557, 52.45395222 ], [ 13.50976258, 52.45410023 ], [ 13.50963229, 52.4542269 ], [ 13.50921298, 52.45451671 ], [ 13.508891, 52.45475314 ], [ 13.50867299, 52.45495896 ], [ 13.50858057, 52.45520798 ], [ 13.50863597, 52.45543321 ], [ 13.50880942, 52.45558294 ], [ 13.50938792, 52.45586608 ], [ 13.50967685, 52.45601727 ], [ 13.5097888, 52.45608114 ], [ 13.5120595, 52.45850944 ], [ 13.5120595, 52.45850944 ], [ 13.5125378, 52.45902734 ], [ 13.5127721, 52.45938284 ], [ 13.5141083, 52.46221754 ], [ 13.5141083, 52.46221754 ], [ 13.5141341, 52.46228644 ], [ 13.5141106, 52.46245934 ], [ 13.5140759, 52.46255774 ], [ 13.5140266, 52.46275244 ], [ 13.513907, 52.46329864 ], [ 13.5136754, 52.46439534 ], [ 13.5136471, 52.46489904 ], [ 13.5134603, 52.46571834 ], [ 13.5132057, 52.46700244 ], [ 13.5132654, 52.46741504 ], [ 13.5134692, 52.46778004 ], [ 13.5136604, 52.46803104 ], [ 13.5138794, 52.46823494 ], [ 13.5138794, 52.46823494 ], [ 13.5144162, 52.46857584 ], [ 13.5146488, 52.46874004 ], [ 13.5178371, 52.47176304 ], [ 13.5178371, 52.47176304 ], [ 13.5202709, 52.47405414 ], [ 13.5202709, 52.47405414 ], [ 13.523943, 52.47744684 ], [ 13.523943, 52.47744684 ], [ 13.524278, 52.47838854 ], [ 13.5240149, 52.47867924 ], [ 13.5235702, 52.47897544 ], [ 13.5235702, 52.47897544 ], [ 13.5206773, 52.48024214 ], [ 13.5206773, 52.48024214 ], [ 13.516332, 52.48217004 ], [ 13.516332, 52.48217004 ], [ 13.5132861, 52.48349434 ], [ 13.5129463, 52.48363344 ], [ 13.51155, 52.48412854 ], [ 13.51155, 52.48412854 ], [ 13.5108616, 52.48426034 ], [ 13.5104831, 52.48429944 ], [ 13.5061999, 52.48437404 ], [ 13.5059092, 52.48437094 ], [ 13.5056878, 52.48431434 ], [ 13.5016556, 52.48329744 ], [ 13.5016556, 52.48329744 ], [ 13.5014145, 52.48326904 ], [ 13.5011934, 52.48329794 ], [ 13.5008526, 52.48349554 ], [ 13.4965502, 52.48761574 ], [ 13.4965502, 52.48761574 ], [ 13.4904804, 52.49342964 ], [ 13.4904804, 52.49342964 ], [ 13.4884326, 52.49523804 ], [ 13.4882862, 52.49542924 ], [ 13.4879938, 52.49570844 ], [ 13.4875542, 52.49596314 ], [ 13.483604, 52.49771354 ], [ 13.483604, 52.49771354 ], [ 13.4769363, 52.50079104 ], [ 13.4769363, 52.50079104 ], [ 13.4766139, 52.50087484 ], [ 13.4766139, 52.50087484 ], [ 13.47548514, 52.50147355 ], [ 13.47535896, 52.50164323 ], [ 13.47535219, 52.50183892 ], [ 13.47553568, 52.50233071 ], [ 13.47544451, 52.50264767 ], [ 13.47519893, 52.50279134 ], [ 13.4746005, 52.50289714 ], [ 13.4738672, 52.50303974 ], [ 13.4738672, 52.50303974 ], [ 13.4698094, 52.50647174 ], [ 13.4698094, 52.50647174 ], [ 13.4687567, 52.50692164 ], [ 13.4665187, 52.50853654 ], [ 13.4665187, 52.50853654 ], [ 13.4645627, 52.50999704 ], [ 13.4633969, 52.51117974 ], [ 13.4633969, 52.51117974 ], [ 13.4630267, 52.51151684 ], [ 13.462695, 52.51168544 ], [ 13.4615042, 52.51215764 ], [ 13.4581902, 52.51275124 ], [ 13.4581902, 52.51275124 ], [ 13.4577265, 52.51283054 ], [ 13.4549876, 52.51376164 ], [ 13.4535904, 52.51417484 ], [ 13.4535387, 52.51424264 ], [ 13.4539829, 52.51529074 ], [ 13.4539829, 52.51529074 ], [ 13.4541098, 52.51557784 ], [ 13.4541453, 52.51570644 ], [ 13.4541511, 52.51576804 ], [ 13.4541513, 52.51580004 ], [ 13.4541406, 52.51589624 ], [ 13.4541137, 52.51599174 ], [ 13.4533795, 52.51798534 ], [ 13.4533682, 52.51802254 ], [ 13.4533614, 52.51806014 ], [ 13.4533606, 52.51811624 ], [ 13.4533704, 52.51816964 ], [ 13.453388, 52.51821704 ], [ 13.453421, 52.51827334 ], [ 13.4534692, 52.51834104 ], [ 13.4536447, 52.51857904 ], [ 13.4537458, 52.51871534 ], [ 13.4537625, 52.51873694 ], [ 13.4537769, 52.51875354 ], [ 13.4537933, 52.51877014 ], [ 13.4538198, 52.51879204 ], [ 13.4538467, 52.51880984 ], [ 13.4538811, 52.51882774 ], [ 13.4539153, 52.51884194 ], [ 13.4539445, 52.51885224 ], [ 13.4540035, 52.51887074 ], [ 13.4550327, 52.51918294 ], [ 13.4550327, 52.51918294 ], [ 13.4555749, 52.51932444 ], [ 13.4561234, 52.51938514 ], [ 13.4575342, 52.51949454 ], [ 13.4581323, 52.51949604 ], [ 13.458356, 52.51971084 ], [ 13.4586771, 52.52028474 ], [ 13.4586771, 52.52028474 ], [ 13.4587646, 52.52043374 ], [ 13.4589112, 52.52045804 ], [ 13.4591358, 52.52043464 ], [ 13.4622073, 52.51984304 ], [ 13.4622073, 52.51984304 ], [ 13.4626789, 52.51980214 ], [ 13.4636682, 52.51991124 ], [ 13.4665193, 52.52009614 ], [ 13.4665193, 52.52009614 ], [ 13.4723796, 52.52056524 ], [ 13.4723796, 52.52056524 ], [ 13.4731743, 52.52057874 ], [ 13.4773515, 52.52023364 ], [ 13.4777244, 52.52024604 ], [ 13.4792778, 52.52034074 ], [ 13.4792778, 52.52034074 ], [ 13.479469, 52.52037424 ], [ 13.4799279, 52.52057164 ], [ 13.4802018, 52.52069774 ], [ 13.4803284, 52.52091264 ], [ 13.4803278, 52.52111584 ], [ 13.4797344, 52.52218294 ], [ 13.4797038, 52.52354574 ], [ 13.4797038, 52.52354574 ], [ 13.4797953, 52.52640344 ], [ 13.4799237, 52.52653494 ], [ 13.4801272, 52.52663394 ], [ 13.4807827, 52.52675244 ], [ 13.4826219, 52.52671414 ], [ 13.4826219, 52.52671414 ], [ 13.4853186, 52.52667484 ], [ 13.4909628, 52.52655894 ], [ 13.4909628, 52.52655894 ], [ 13.4990632, 52.52634694 ], [ 13.4990632, 52.52634694 ], [ 13.4994255, 52.52634144 ], [ 13.4996229, 52.52625534 ], [ 13.4996777, 52.52617194 ], [ 13.4996397, 52.52575184 ], [ 13.4996397, 52.52575184 ], [ 13.4994902, 52.52305214 ], [ 13.4994902, 52.52305214 ], [ 13.4993405, 52.51955014 ], [ 13.4993405, 52.51955014 ], [ 13.4993553, 52.51969614 ], [ 13.4992092, 52.51834714 ], [ 13.499067, 52.51776384 ], [ 13.499067, 52.51776384 ], [ 13.4987624, 52.51640454 ], [ 13.498177, 52.51420984 ], [ 13.498177, 52.51420984 ], [ 13.4982413, 52.51410834 ], [ 13.4983772, 52.51403294 ], [ 13.4985324, 52.51396084 ], [ 13.4987566, 52.51388524 ], [ 13.5017452, 52.51357144 ], [ 13.5017452, 52.51357144 ], [ 13.5022622, 52.51352974 ], [ 13.5023614, 52.51345124 ], [ 13.5023356, 52.51334374 ], [ 13.5022888, 52.51327154 ], [ 13.501244, 52.51286864 ], [ 13.501244, 52.51286864 ], [ 13.49952897, 52.51220158 ] ] ] } },
{ "type": "Feature", "properties": { "id": "d_tramlinien.24", "gisid": 24, "linename": "21-30-021", "starthst": "S Schöneweide, Aus u. Einstieg Gl.2", "endhst": "BH Lichtenberg > Gudrun", "richtung": "R" }, "geometry": { "type": "MultiLineString", "coordinates": [ [ [ 13.50736697, 52.45456681 ], [ 13.50837881, 52.45403147 ], [ 13.50895622, 52.45372441 ], [ 13.50927305, 52.45367067 ], [ 13.50947161, 52.45369883 ], [ 13.50964637, 52.45381009 ], [ 13.50972557, 52.45395222 ], [ 13.50976258, 52.45410023 ], [ 13.50963229, 52.4542269 ], [ 13.50921298, 52.45451671 ], [ 13.508891, 52.45475314 ], [ 13.50867299, 52.45495896 ], [ 13.50858057, 52.45520798 ], [ 13.50863597, 52.45543321 ], [ 13.50880942, 52.45558294 ], [ 13.50938792, 52.45586608 ], [ 13.50967685, 52.45601727 ], [ 13.5097888, 52.45608114 ], [ 13.5120595, 52.45850944 ], [ 13.5120595, 52.45850944 ], [ 13.5125378, 52.45902734 ], [ 13.5127721, 52.45938284 ], [ 13.5141083, 52.46221754 ], [ 13.5141083, 52.46221754 ], [ 13.5141341, 52.46228644 ], [ 13.5141106, 52.46245934 ], [ 13.5140759, 52.46255774 ], [ 13.5140266, 52.46275244 ], [ 13.513907, 52.46329864 ], [ 13.5136754, 52.46439534 ], [ 13.5136471, 52.46489904 ], [ 13.5134603, 52.46571834 ], [ 13.5132057, 52.46700244 ], [ 13.5132654, 52.46741504 ], [ 13.5134692, 52.46778004 ], [ 13.5136604, 52.46803104 ], [ 13.5138794, 52.46823494 ], [ 13.5138794, 52.46823494 ], [ 13.5144162, 52.46857584 ], [ 13.5146488, 52.46874004 ], [ 13.5178371, 52.47176304 ], [ 13.5178371, 52.47176304 ], [ 13.5202709, 52.47405414 ], [ 13.5202709, 52.47405414 ], [ 13.523943, 52.47744684 ], [ 13.523943, 52.47744684 ], [ 13.524278, 52.47838854 ], [ 13.5240149, 52.47867924 ], [ 13.5235702, 52.47897544 ], [ 13.5235702, 52.47897544 ], [ 13.5206773, 52.48024214 ], [ 13.5206773, 52.48024214 ], [ 13.516332, 52.48217004 ], [ 13.516332, 52.48217004 ], [ 13.5132861, 52.48349434 ], [ 13.5129463, 52.48363344 ], [ 13.51155, 52.48412854 ], [ 13.51155, 52.48412854 ], [ 13.5108616, 52.48426034 ], [ 13.5104831, 52.48429944 ], [ 13.5061999, 52.48437404 ], [ 13.5059092, 52.48437094 ], [ 13.5056878, 52.48431434 ], [ 13.5016556, 52.48329744 ], [ 13.5016556, 52.48329744 ], [ 13.5014145, 52.48326904 ], [ 13.5011934, 52.48329794 ], [ 13.5008526, 52.48349554 ], [ 13.4965502, 52.48761574 ], [ 13.4965502, 52.48761574 ], [ 13.4904804, 52.49342964 ], [ 13.4904804, 52.49342964 ], [ 13.4884326, 52.49523804 ], [ 13.4882862, 52.49542924 ], [ 13.4879938, 52.49570844 ], [ 13.4875542, 52.49596314 ], [ 13.483604, 52.49771354 ], [ 13.483604, 52.49771354 ], [ 13.4769363, 52.50079104 ], [ 13.4769363, 52.50079104 ], [ 13.4766139, 52.50087484 ], [ 13.4766139, 52.50087484 ], [ 13.47548514, 52.50147355 ], [ 13.47535896, 52.50164323 ], [ 13.47535219, 52.50183892 ], [ 13.47553568, 52.50233071 ], [ 13.47544451, 52.50264767 ], [ 13.47519893, 52.50279134 ], [ 13.4746005, 52.50289714 ], [ 13.4738672, 52.50303974 ], [ 13.4738672, 52.50303974 ], [ 13.4698094, 52.50647174 ], [ 13.4698094, 52.50647174 ], [ 13.4687567, 52.50692164 ], [ 13.4665187, 52.50853654 ], [ 13.4665187, 52.50853654 ], [ 13.4645627, 52.50999704 ], [ 13.4633969, 52.51117974 ], [ 13.4633969, 52.51117974 ], [ 13.4630267, 52.51151684 ], [ 13.462695, 52.51168544 ], [ 13.4615042, 52.51215764 ], [ 13.4581902, 52.51275124 ], [ 13.4581902, 52.51275124 ], [ 13.4577265, 52.51283054 ], [ 13.4549876, 52.51376164 ], [ 13.4535904, 52.51417484 ], [ 13.4535387, 52.51424264 ], [ 13.4539829, 52.51529074 ], [ 13.4539829, 52.51529074 ], [ 13.4541098, 52.51557784 ], [ 13.4541453, 52.51570644 ], [ 13.4541511, 52.51576804 ], [ 13.4541513, 52.51580004 ], [ 13.4541406, 52.51589624 ], [ 13.4541137, 52.51599174 ], [ 13.4533795, 52.51798534 ], [ 13.4533682, 52.51802254 ], [ 13.4533614, 52.51806014 ], [ 13.4533606, 52.51811624 ], [ 13.4533704, 52.51816964 ], [ 13.453388, 52.51821704 ], [ 13.453421, 52.51827334 ], [ 13.4534692, 52.51834104 ], [ 13.4536447, 52.51857904 ], [ 13.4537458, 52.51871534 ], [ 13.4537625, 52.51873694 ], [ 13.4537769, 52.51875354 ], [ 13.4537933, 52.51877014 ], [ 13.4538198, 52.51879204 ], [ 13.4538467, 52.51880984 ], [ 13.4538811, 52.51882774 ], [ 13.4539153, 52.51884194 ], [ 13.4539445, 52.51885224 ], [ 13.4540035, 52.51887074 ], [ 13.4550327, 52.51918294 ], [ 13.4550327, 52.51918294 ], [ 13.4555749, 52.51932444 ], [ 13.4561234, 52.51938514 ], [ 13.4575342, 52.51949454 ], [ 13.4581323, 52.51949604 ], [ 13.458356, 52.51971084 ], [ 13.4586771, 52.52028474 ], [ 13.4586771, 52.52028474 ], [ 13.4587646, 52.52043374 ], [ 13.4589112, 52.52045804 ], [ 13.4591358, 52.52043464 ], [ 13.4622073, 52.51984304 ], [ 13.4622073, 52.51984304 ], [ 13.4626789, 52.51980214 ], [ 13.4636682, 52.51991124 ], [ 13.4665193, 52.52009614 ], [ 13.4665193, 52.52009614 ], [ 13.4723796, 52.52056524 ], [ 13.4723796, 52.52056524 ], [ 13.4731743, 52.52057874 ], [ 13.4773515, 52.52023364 ], [ 13.4777244, 52.52024604 ], [ 13.4792778, 52.52034074 ], [ 13.4792778, 52.52034074 ], [ 13.479469, 52.52037424 ], [ 13.4799279, 52.52057164 ], [ 13.4802018, 52.52069774 ], [ 13.4803284, 52.52091264 ], [ 13.4803278, 52.52111584 ], [ 13.4797344, 52.52218294 ], [ 13.4797038, 52.52354574 ], [ 13.4797038, 52.52354574 ], [ 13.4797953, 52.52640344 ], [ 13.4799237, 52.52653494 ], [ 13.4801272, 52.52663394 ], [ 13.4807827, 52.52675244 ], [ 13.4826219, 52.52671414 ], [ 13.4826219, 52.52671414 ], [ 13.4853186, 52.52667484 ], [ 13.4909628, 52.52655894 ], [ 13.4909628, 52.52655894 ], [ 13.4990632, 52.52634694 ], [ 13.4990632, 52.52634694 ], [ 13.4994255, 52.52634144 ], [ 13.4996229, 52.52625534 ], [ 13.4996777, 52.52617194 ], [ 13.4996397, 52.52575184 ], [ 13.4996397, 52.52575184 ], [ 13.4994902, 52.52305214 ], [ 13.4994902, 52.52305214 ], [ 13.4993405, 52.51955014 ], [ 13.4993405, 52.51955014 ] ] ] } },
{ "type": "Feature", "properties": { "id": "d_tramlinien.25", "gisid": 25, "linename": "21-30-021", "starthst": "Siegfried-/J.-Orlopp-Str. > Herzb", "endhst": "S Schöneweide, Aus u. Einstieg Gl.2", "richtung": "H" }, "geometry": { "type": "MultiLineString", "coordinates": [ [ [ 13.4997141, 52.52395694 ], [ 13.4997852, 52.52578684 ], [ 13.4997852, 52.52578684 ], [ 13.499808, 52.52623944 ], [ 13.4996985, 52.52635324 ], [ 13.4995379, 52.52639754 ], [ 13.4987898, 52.52641414 ], [ 13.4987898, 52.52641414 ], [ 13.4903669, 52.52662574 ], [ 13.4903669, 52.52662574 ], [ 13.4819694, 52.52676724 ], [ 13.4819694, 52.52676724 ], [ 13.4808172, 52.52677714 ], [ 13.4803401, 52.52673724 ], [ 13.4800524, 52.52668154 ], [ 13.4799754, 52.52666994 ], [ 13.47974, 52.52659384 ], [ 13.4796523, 52.52648254 ], [ 13.4795374, 52.52324044 ], [ 13.4795374, 52.52324044 ], [ 13.4796243, 52.52254104 ], [ 13.4795746, 52.52075594 ], [ 13.4794875, 52.52053494 ], [ 13.4792715, 52.52046314 ], [ 13.4783204, 52.52039314 ], [ 13.4783204, 52.52039314 ], [ 13.4775479, 52.52033544 ], [ 13.4772039, 52.52031634 ], [ 13.4738015, 52.52060954 ], [ 13.4738015, 52.52060954 ], [ 13.4732415, 52.52069204 ], [ 13.4726636, 52.52068484 ], [ 13.4713201, 52.52060534 ], [ 13.4673714, 52.52028774 ], [ 13.4673714, 52.52028774 ], [ 13.4629529, 52.51993444 ], [ 13.4629529, 52.51993444 ], [ 13.4626187, 52.51990354 ], [ 13.4592049, 52.52051824 ], [ 13.4592049, 52.52051824 ], [ 13.4588521, 52.52054144 ], [ 13.4585579, 52.52037974 ], [ 13.4582282, 52.51972324 ], [ 13.4580432, 52.51956104 ], [ 13.4556819, 52.51939594 ], [ 13.4544898, 52.51904824 ], [ 13.4544898, 52.51904824 ], [ 13.4540337, 52.51891014 ], [ 13.4539863, 52.51889704 ], [ 13.4539379, 52.51888564 ], [ 13.4538837, 52.51887634 ], [ 13.4538348, 52.51887174 ], [ 13.45378, 52.51887084 ], [ 13.4537234, 52.51887444 ], [ 13.4536742, 52.51888084 ], [ 13.4536223, 52.51888994 ], [ 13.4533833, 52.51894084 ], [ 13.4533253, 52.51895344 ], [ 13.4532642, 52.51896344 ], [ 13.4532241, 52.51896714 ], [ 13.4531836, 52.51896814 ], [ 13.453143, 52.51896664 ], [ 13.4531031, 52.51896254 ], [ 13.4530641, 52.51895584 ], [ 13.4530265, 52.51894674 ], [ 13.4529707, 52.51892784 ], [ 13.4529298, 52.51890984 ], [ 13.4528925, 52.51888924 ], [ 13.452859, 52.51886644 ], [ 13.4528283, 52.51884024 ], [ 13.4528009, 52.51881054 ], [ 13.4527761, 52.51877844 ], [ 13.4526864, 52.51865454 ], [ 13.4526192, 52.51855934 ], [ 13.4525945, 52.51851444 ], [ 13.4525856, 52.51848654 ], [ 13.4525813, 52.51844884 ], [ 13.4525857, 52.51841104 ], [ 13.4525988, 52.51837404 ], [ 13.452618, 52.51834194 ], [ 13.4526431, 52.51831294 ], [ 13.4526745, 52.51828634 ], [ 13.4527107, 52.51826254 ], [ 13.4527724, 52.51822924 ], [ 13.4529758, 52.51812274 ], [ 13.4530032, 52.51810754 ], [ 13.45304, 52.51808424 ], [ 13.4530644, 52.51806464 ], [ 13.4530854, 52.51804374 ], [ 13.4531041, 52.51801694 ], [ 13.4531196, 52.51798924 ], [ 13.453132, 52.51796074 ], [ 13.4538685, 52.51595404 ], [ 13.4538905, 52.51585454 ], [ 13.4538926, 52.51574244 ], [ 13.4538754, 52.51564994 ], [ 13.4538447, 52.51555654 ], [ 13.4537539, 52.51535524 ], [ 13.4537539, 52.51535524 ], [ 13.4533325, 52.51442514 ], [ 13.4533456, 52.51435204 ], [ 13.4534017, 52.51426334 ], [ 13.4534661, 52.51420074 ], [ 13.453552, 52.51413294 ], [ 13.4548119, 52.51377694 ], [ 13.4574654, 52.51286404 ], [ 13.4574654, 52.51286404 ], [ 13.4579053, 52.51272964 ], [ 13.4582611, 52.51266854 ], [ 13.461512, 52.51208744 ], [ 13.4626799, 52.51162904 ], [ 13.4629266, 52.51147404 ], [ 13.4634826, 52.51091984 ], [ 13.4634826, 52.51091984 ], [ 13.4645482, 52.50987494 ], [ 13.4660816, 52.50867944 ], [ 13.4660816, 52.50867944 ], [ 13.4686414, 52.50686194 ], [ 13.4700042, 52.50625814 ], [ 13.4700042, 52.50625814 ], [ 13.4738672, 52.50303974 ], [ 13.4738672, 52.50303974 ], [ 13.474743, 52.50286764 ], [ 13.474743, 52.50286764 ], [ 13.4752455, 52.50276954 ], [ 13.4753343, 52.50272784 ], [ 13.4754023, 52.50269654 ], [ 13.4754895, 52.50261554 ], [ 13.4755101, 52.50253434 ], [ 13.4753495, 52.50182364 ], [ 13.4753174, 52.50165694 ], [ 13.4753349, 52.50152274 ], [ 13.4754727, 52.50141774 ], [ 13.4760599, 52.50112964 ], [ 13.4760599, 52.50112964 ], [ 13.4766139, 52.50087484 ], [ 13.4766139, 52.50087484 ], [ 13.4837428, 52.49757884 ], [ 13.4837428, 52.49757884 ], [ 13.4874705, 52.49589924 ], [ 13.4878466, 52.49570824 ], [ 13.4880962, 52.49544704 ], [ 13.4898107, 52.49383234 ], [ 13.4898107, 52.49383234 ], [ 13.4957165, 52.48827804 ], [ 13.4957165, 52.48827804 ], [ 13.5007531, 52.48346804 ], [ 13.5011692, 52.48319754 ], [ 13.5013923, 52.48317504 ], [ 13.5016072, 52.48317584 ], [ 13.5023258, 52.48339684 ], [ 13.5023258, 52.48339684 ], [ 13.5057017, 52.48428894 ], [ 13.5059185, 52.48433714 ], [ 13.5062, 52.48434304 ], [ 13.510497, 52.48425724 ], [ 13.510871, 52.48422094 ], [ 13.5113749, 52.48410384 ], [ 13.5113749, 52.48410384 ], [ 13.5119274, 52.48391114 ], [ 13.5130221, 52.48353474 ], [ 13.5132726, 52.48342264 ], [ 13.5165998, 52.48195094 ], [ 13.5165998, 52.48195094 ], [ 13.5203826, 52.48028104 ], [ 13.5203826, 52.48028104 ], [ 13.5235407, 52.47888684 ], [ 13.5235407, 52.47888684 ], [ 13.523904, 52.47862304 ], [ 13.5240703, 52.47844964 ], [ 13.5241414, 52.47836304 ], [ 13.5238568, 52.47747674 ], [ 13.5238568, 52.47747674 ], [ 13.5200818, 52.47394334 ], [ 13.5200818, 52.47394334 ], [ 13.517634, 52.47167214 ], [ 13.517634, 52.47167214 ], [ 13.5145613, 52.46876544 ], [ 13.5139738, 52.46837124 ], [ 13.5137086, 52.46818774 ], [ 13.5135534, 52.46804224 ], [ 13.5133662, 52.46781814 ], [ 13.5133662, 52.46781814 ], [ 13.5131444, 52.46744354 ], [ 13.5130576, 52.46701864 ], [ 13.5132686, 52.46600754 ], [ 13.5135302, 52.46487804 ], [ 13.5135575, 52.46438614 ], [ 13.5139421, 52.46277914 ], [ 13.5139421, 52.46277914 ], [ 13.5139944, 52.46252044 ], [ 13.5138527, 52.46205104 ], [ 13.5138527, 52.46205104 ], [ 13.5126418, 52.45932814 ], [ 13.512481, 52.45905324 ], [ 13.5115748, 52.45813954 ], [ 13.5108927, 52.45747464 ], [ 13.5108927, 52.45747464 ], [ 13.5096986, 52.45613604 ], [ 13.5096986, 52.45613604 ], [ 13.50906361, 52.45582992 ], [ 13.50835439, 52.45568626 ], [ 13.5077733, 52.45548006 ], [ 13.50745289, 52.45532847 ], [ 13.50725845, 52.45517847 ], [ 13.50709874, 52.45493268 ], [ 13.50713609, 52.45475994 ], [ 13.50719096, 52.45469007 ], [ 13.50736697, 52.45456681 ] ] ] } },
{ "type": "Feature", "properties": { "id": "d_tramlinien.27", "gisid": 27, "linename": "21-30-021", "starthst": "S+U Lichtenberg Bhf/Gudrunstr., Gl.2", "endhst": "S Schöneweide, Aus u. Einstieg Gl.2", "richtung": "H" }, "geometry": { "type": "MultiLineString", "coordinates": [ [ [ 13.49952897, 52.51220158 ], [ 13.49888579, 52.51193613 ], [ 13.4981795, 52.51194675 ], [ 13.49776054, 52.51200016 ], [ 13.49765897, 52.51215549 ], [ 13.4978894, 52.51268474 ], [ 13.4986334, 52.51545694 ], [ 13.4986334, 52.51545694 ], [ 13.499303, 52.51798824 ], [ 13.499303, 52.51798824 ], [ 13.4995114, 52.52077894 ], [ 13.4995114, 52.52077894 ], [ 13.4997141, 52.52395694 ], [ 13.4997141, 52.52395694 ], [ 13.4997852, 52.52578684 ], [ 13.4997852, 52.52578684 ], [ 13.499808, 52.52623944 ], [ 13.4996985, 52.52635324 ], [ 13.4995379, 52.52639754 ], [ 13.4987898, 52.52641414 ], [ 13.4987898, 52.52641414 ], [ 13.4903669, 52.52662574 ], [ 13.4903669, 52.52662574 ], [ 13.4819694, 52.52676724 ], [ 13.4819694, 52.52676724 ], [ 13.4808172, 52.52677714 ], [ 13.4803401, 52.52673724 ], [ 13.4800524, 52.52668154 ], [ 13.4799754, 52.52666994 ], [ 13.47974, 52.52659384 ], [ 13.4796523, 52.52648254 ], [ 13.4795374, 52.52324044 ], [ 13.4795374, 52.52324044 ], [ 13.4796243, 52.52254104 ], [ 13.4795746, 52.52075594 ], [ 13.4794875, 52.52053494 ], [ 13.4792715, 52.52046314 ], [ 13.4783204, 52.52039314 ], [ 13.4783204, 52.52039314 ], [ 13.4775479, 52.52033544 ], [ 13.4772039, 52.52031634 ], [ 13.4738015, 52.52060954 ], [ 13.4738015, 52.52060954 ], [ 13.4732415, 52.52069204 ], [ 13.4726636, 52.52068484 ], [ 13.4713201, 52.52060534 ], [ 13.4673714, 52.52028774 ], [ 13.4673714, 52.52028774 ], [ 13.4629529, 52.51993444 ], [ 13.4629529, 52.51993444 ], [ 13.4626187, 52.51990354 ], [ 13.4592049, 52.52051824 ], [ 13.4592049, 52.52051824 ], [ 13.4588521, 52.52054144 ], [ 13.4585579, 52.52037974 ], [ 13.4582282, 52.51972324 ], [ 13.4580432, 52.51956104 ], [ 13.4556819, 52.51939594 ], [ 13.4544898, 52.51904824 ], [ 13.4544898, 52.51904824 ], [ 13.4540337, 52.51891014 ], [ 13.4539863, 52.51889704 ], [ 13.4539379, 52.51888564 ], [ 13.4538837, 52.51887634 ], [ 13.4538348, 52.51887174 ], [ 13.45378, 52.51887084 ], [ 13.4537234, 52.51887444 ], [ 13.4536742, 52.51888084 ], [ 13.4536223, 52.51888994 ], [ 13.4533833, 52.51894084 ], [ 13.4533253, 52.51895344 ], [ 13.4532642, 52.51896344 ], [ 13.4532241, 52.51896714 ], [ 13.4531836, 52.51896814 ], [ 13.453143, 52.51896664 ], [ 13.4531031, 52.51896254 ], [ 13.4530641, 52.51895584 ], [ 13.4530265, 52.51894674 ], [ 13.4529707, 52.51892784 ], [ 13.4529298, 52.51890984 ], [ 13.4528925, 52.51888924 ], [ 13.452859, 52.51886644 ], [ 13.4528283, 52.51884024 ], [ 13.4528009, 52.51881054 ], [ 13.4527761, 52.51877844 ], [ 13.4526864, 52.51865454 ], [ 13.4526192, 52.51855934 ], [ 13.4525945, 52.51851444 ], [ 13.4525856, 52.51848654 ], [ 13.4525813, 52.51844884 ], [ 13.4525857, 52.51841104 ], [ 13.4525988, 52.51837404 ], [ 13.452618, 52.51834194 ], [ 13.4526431, 52.51831294 ], [ 13.4526745, 52.51828634 ], [ 13.4527107, 52.51826254 ], [ 13.4527724, 52.51822924 ], [ 13.4529758, 52.51812274 ], [ 13.4530032, 52.51810754 ], [ 13.45304, 52.51808424 ], [ 13.4530644, 52.51806464 ], [ 13.4530854, 52.51804374 ], [ 13.4531041, 52.51801694 ], [ 13.4531196, 52.51798924 ], [ 13.453132, 52.51796074 ], [ 13.4538685, 52.51595404 ], [ 13.4538905, 52.51585454 ], [ 13.4538926, 52.51574244 ], [ 13.4538754, 52.51564994 ], [ 13.4538447, 52.51555654 ], [ 13.4537539, 52.51535524 ], [ 13.4537539, 52.51535524 ], [ 13.4533325, 52.51442514 ], [ 13.4533456, 52.51435204 ], [ 13.4534017, 52.51426334 ], [ 13.4534661, 52.51420074 ], [ 13.453552, 52.51413294 ], [ 13.4548119, 52.51377694 ], [ 13.4574654, 52.51286404 ], [ 13.4574654, 52.51286404 ], [ 13.4579053, 52.51272964 ], [ 13.4582611, 52.51266854 ], [ 13.461512, 52.51208744 ], [ 13.4626799, 52.51162904 ], [ 13.4629266, 52.51147404 ], [ 13.4634826, 52.51091984 ], [ 13.4634826, 52.51091984 ], [ 13.4645482, 52.50987494 ], [ 13.4660816, 52.50867944 ], [ 13.4660816, 52.50867944 ], [ 13.4686414, 52.50686194 ], [ 13.4700042, 52.50625814 ], [ 13.4700042, 52.50625814 ], [ 13.4738672, 52.50303974 ], [ 13.4738672, 52.50303974 ], [ 13.474743, 52.50286764 ], [ 13.474743, 52.50286764 ], [ 13.4752455, 52.50276954 ], [ 13.4753343, 52.50272784 ], [ 13.4754023, 52.50269654 ], [ 13.4754895, 52.50261554 ], [ 13.4755101, 52.50253434 ], [ 13.4753495, 52.50182364 ], [ 13.4753174, 52.50165694 ], [ 13.4753349, 52.50152274 ], [ 13.4754727, 52.50141774 ], [ 13.4760599, 52.50112964 ], [ 13.4760599, 52.50112964 ], [ 13.4766139, 52.50087484 ], [ 13.4766139, 52.50087484 ], [ 13.4837428, 52.49757884 ], [ 13.4837428, 52.49757884 ], [ 13.4874705, 52.49589924 ], [ 13.4878466, 52.49570824 ], [ 13.4880962, 52.49544704 ], [ 13.4898107, 52.49383234 ], [ 13.4898107, 52.49383234 ], [ 13.4957165, 52.48827804 ], [ 13.4957165, 52.48827804 ], [ 13.5007531, 52.48346804 ], [ 13.5011692, 52.48319754 ], [ 13.5013923, 52.48317504 ], [ 13.5016072, 52.48317584 ], [ 13.5023258, 52.48339684 ], [ 13.5023258, 52.48339684 ], [ 13.5057017, 52.48428894 ], [ 13.5059185, 52.48433714 ], [ 13.5062, 52.48434304 ], [ 13.510497, 52.48425724 ], [ 13.510871, 52.48422094 ], [ 13.5113749, 52.48410384 ], [ 13.5113749, 52.48410384 ], [ 13.5119274, 52.48391114 ], [ 13.5130221, 52.48353474 ], [ 13.5132726, 52.48342264 ], [ 13.5165998, 52.48195094 ], [ 13.5165998, 52.48195094 ], [ 13.5203826, 52.48028104 ], [ 13.5203826, 52.48028104 ], [ 13.5235407, 52.47888684 ], [ 13.5235407, 52.47888684 ], [ 13.523904, 52.47862304 ], [ 13.5240703, 52.47844964 ], [ 13.5241414, 52.47836304 ], [ 13.5238568, 52.47747674 ], [ 13.5238568, 52.47747674 ], [ 13.5200818, 52.47394334 ], [ 13.5200818, 52.47394334 ], [ 13.517634, 52.47167214 ], [ 13.517634, 52.47167214 ], [ 13.5145613, 52.46876544 ], [ 13.5139738, 52.46837124 ], [ 13.5137086, 52.46818774 ], [ 13.5135534, 52.46804224 ], [ 13.5133662, 52.46781814 ], [ 13.5133662, 52.46781814 ], [ 13.5131444, 52.46744354 ], [ 13.5130576, 52.46701864 ], [ 13.5132686, 52.46600754 ], [ 13.5135302, 52.46487804 ], [ 13.5135575, 52.46438614 ], [ 13.5139421, 52.46277914 ], [ 13.5139421, 52.46277914 ], [ 13.5139944, 52.46252044 ], [ 13.5138527, 52.46205104 ], [ 13.5138527, 52.46205104 ], [ 13.5126418, 52.45932814 ], [ 13.512481, 52.45905324 ], [ 13.5115748, 52.45813954 ], [ 13.5108927, 52.45747464 ], [ 13.5108927, 52.45747464 ], [ 13.5096986, 52.45613604 ], [ 13.5096986, 52.45613604 ], [ 13.50906361, 52.45582992 ], [ 13.50835439, 52.45568626 ], [ 13.5077733, 52.45548006 ], [ 13.50745289, 52.45532847 ], [ 13.50725845, 52.45517847 ], [ 13.50709874, 52.45493268 ], [ 13.50713609, 52.45475994 ], [ 13.50719096, 52.45469007 ], [ 13.50736697, 52.45456681 ] ] ] } }
]
}
