{
"type": "FeatureCollection",
"name": "da_autobahn2022_neukoelln",
"crs": { "type": "name", "properties": { "name": "urn:ogc:def:crs:OGC:1.3:CRS84" } },
"features": [
{ "type": "Feature", "properties": { "id": "da_autobahn2022.240", "importid": 240, "link_id": "50480021_50480020", "str_name": "113 ZB Dresden Hauptfb zw AS Späthstr u AD Neukölln", "laenge_m": 206, "kfz": 48670, "pkw": 40145, "lkw": 1800, "lnf": 6230, "lbus": 0, "rbus": 125, "krad": 375, "quelle_kfz": "Verkehrsmengenkarte 2019" }, "geometry": { "type": "LineString", "coordinates": [ [ 13.45611033, 52.46126073 ], [ 13.45573192, 52.4616515 ], [ 13.45524196, 52.46224343 ], [ 13.455039, 52.46251765 ], [ 13.45471777, 52.46290412 ] ] } },
{ "type": "Feature", "properties": { "id": "da_autobahn2022.246", "importid": 246, "link_id": "49480045_50480018", "str_name": "A 100 BAB Stadtring", "laenge_m": 475, "kfz": 45080, "pkw": 36240, "lkw": 2560, "lnf": 5770, "lbus": 0, "rbus": 155, "krad": 350, "quelle_kfz": "Verkehrsmengenkarte 2019" }, "geometry": { "type": "LineString", "coordinates": [ [ 13.44858674, 52.46340043 ], [ 13.4508256, 52.46379195 ], [ 13.45146327, 52.46386323 ], [ 13.45175746, 52.46387542 ], [ 13.45190386, 52.46388149 ], [ 13.45226627, 52.46386538 ], [ 13.45270159, 52.46380887 ], [ 13.45299002, 52.46374226 ], [ 13.45327803, 52.46366027 ], [ 13.45362312, 52.4635321 ], [ 13.4540868, 52.46327208 ], [ 13.45440957, 52.46301875 ], [ 13.45467409, 52.46269563 ] ] } },
{ "type": "Feature", "properties": { "id": "da_autobahn2022.247", "importid": 247, "link_id": "50480020_49480044", "str_name": "A 113 BAB Autobahnzubringer Dresden", "laenge_m": 488, "kfz": 47100, "pkw": 38800, "lkw": 1740, "lnf": 6030, "lbus": 0, "rbus": 160, "krad": 365, "quelle_kfz": "Verkehrsmengenkarte 2019" }, "geometry": { "type": "LineString", "coordinates": [ [ 13.45471777, 52.46290412 ], [ 13.45430309, 52.46325162 ], [ 13.45422841, 52.46330458 ], [ 13.45413779, 52.46336884 ], [ 13.45389486, 52.46350194 ], [ 13.45365598, 52.46362664 ], [ 13.45334762, 52.46373875 ], [ 13.45299827, 52.46384646 ], [ 13.4526186, 52.46391512 ], [ 13.45220493, 52.46396004 ], [ 13.4518208, 52.46397245 ], [ 13.45148852, 52.46395651 ], [ 13.45099587, 52.4639034 ], [ 13.45036538, 52.4638004 ], [ 13.44967835, 52.46368298 ], [ 13.44896316, 52.46355548 ], [ 13.44828085, 52.46345251 ] ] } },
{ "type": "Feature", "properties": { "id": "da_autobahn2022.248", "importid": 248, "link_id": "50480018_50480017", "str_name": "113 ZB Dresden Hauptfb zw AD Neukölln u AS Späthstr", "laenge_m": 185, "kfz": 47750, "pkw": 38510, "lkw": 2630, "lnf": 6110, "lbus": 0, "rbus": 125, "krad": 370, "quelle_kfz": "Verkehrsmengenkarte 2019" }, "geometry": { "type": "LineString", "coordinates": [ [ 13.45467409, 52.46269563 ], [ 13.45521037, 52.46209164 ], [ 13.45565486, 52.46155395 ], [ 13.45591382, 52.46120891 ] ] } },
{ "type": "Feature", "properties": { "id": "da_autobahn2022.249", "importid": 249, "link_id": "50480017_T0000348", "str_name": "A 113 BAB Autobahnzubringer Dresden", "laenge_m": 283, "kfz": 53270, "pkw": 42735, "lkw": 3115, "lnf": 6820, "lbus": 0, "rbus": 185, "krad": 410, "quelle_kfz": "Verkehrsmengenkarte 2019" }, "geometry": { "type": "LineString", "coordinates": [ [ 13.45591382, 52.46120891 ], [ 13.45650023, 52.46050677 ], [ 13.457563727772101, 52.459229816514373 ] ] } },
{ "type": "Feature", "properties": { "id": "da_autobahn2022.252", "importid": 252, "link_id": "T0000349_50480021", "str_name": "A 113 BAB Autobahnzubringer Dresden", "laenge_m": 284, "kfz": 53640, "pkw": 43490, "lkw": 2675, "lnf": 6865, "lbus": 0, "rbus": 185, "krad": 415, "quelle_kfz": "Verkehrsmengenkarte 2019" }, "geometry": { "type": "LineString", "coordinates": [ [ 13.457797910697183, 52.45922303194358 ], [ 13.45762315, 52.45943453 ], [ 13.45611033, 52.46126073 ] ] } },
{ "type": "Feature", "properties": { "id": "da_autobahn2022.279", "importid": 279, "link_id": "49480044_49480043", "str_name": "A 100 BAB Stadtring", "laenge_m": 524, "kfz": 53270, "pkw": 42410, "lkw": 3205, "lnf": 6820, "lbus": 0, "rbus": 140, "krad": 685, "quelle_kfz": "Verkehrsmengenkarte 2019" }, "geometry": { "type": "LineString", "coordinates": [ [ 13.44828085, 52.46345251 ], [ 13.44741468, 52.46330767 ], [ 13.44713157, 52.46326033 ], [ 13.4464728, 52.463151 ], [ 13.44603745, 52.46309108 ], [ 13.44515315, 52.46299226 ], [ 13.44436626, 52.46293746 ], [ 13.44416014, 52.46292311 ], [ 13.44375188, 52.46290416 ], [ 13.44226573, 52.46288262 ], [ 13.44151775, 52.46287663 ], [ 13.44129236, 52.46287068 ] ] } },
{ "type": "Feature", "properties": { "id": "da_autobahn2022.280", "importid": 280, "link_id": "54440007_T0000410", "str_name": "A 113 BAB Autobahnzubringer Dresden", "laenge_m": 565, "kfz": 36060, "pkw": 28315, "lkw": 2885, "lnf": 4615, "lbus": 0, "rbus": 60, "krad": 185, "quelle_kfz": "Verkehrsmengenkarte 2019" }, "geometry": { "type": "LineString", "coordinates": [ [ 13.519618268649065, 52.426759832119323 ], [ 13.51994438, 52.42653857 ], [ 13.52035448, 52.42622908 ], [ 13.520440465302272, 52.426154061964631 ] ] } },
{ "type": "Feature", "properties": { "id": "da_autobahn2022.283", "importid": 283, "link_id": "T0000407_54440008", "str_name": "A 113 BAB Autobahnzubringer Dresden", "laenge_m": 522, "kfz": 38460, "pkw": 30705, "lkw": 2580, "lnf": 4925, "lbus": 0, "rbus": 65, "krad": 200, "quelle_kfz": "Verkehrsmengenkarte 2019" }, "geometry": { "type": "LineString", "coordinates": [ [ 13.520474852131802, 52.426340827283859 ], [ 13.52002608, 52.42666634 ], [ 13.51992198331047, 52.426732017393007 ] ] } },
{ "type": "Feature", "properties": { "id": "da_autobahn2022.284", "importid": 284, "link_id": "49480042_49480045", "str_name": "A 100 BAB Stadtring", "laenge_m": 548, "kfz": 52810, "pkw": 42330, "lkw": 2860, "lnf": 6760, "lbus": 0, "rbus": 180, "krad": 680, "quelle_kfz": "Verkehrsmengenkarte 2019" }, "geometry": { "type": "LineString", "coordinates": [ [ 13.44130553, 52.46273771 ], [ 13.4423496, 52.46275203 ], [ 13.44319585, 52.46275931 ], [ 13.4443886, 52.46281243 ], [ 13.44455378, 52.46281979 ], [ 13.44526504, 52.46287561 ], [ 13.44532567, 52.4628828 ], [ 13.4460007, 52.46296277 ], [ 13.44659681, 52.46305195 ], [ 13.44831211, 52.46335234 ], [ 13.44858674, 52.46340043 ] ] } }
]
}
