{"type": "FeatureCollection", "name": "dd_s_und_fernbahn2022_neukoelln", "features": [{"type": "Feature", "properties": {"id": "dd_s_und_fernbahn2022.24", "importid": 24, "typ": "S- und Fernbahn"}, "geometry": {"type": "LineString", "coordinates": [[13.45942293, 52.46969363], [13.45951571, 52.46966882]]}}, {"type": "Feature", "properties": {"id": "dd_s_und_fernbahn2022.25", "importid": 25, "typ": "S- und Fernbahn"}, "geometry": {"type": "LineString", "coordinates": [[13.46203276, 52.46911832], [13.46213242, 52.46910885], [13.46225407, 52.46909861], [13.46243472, 52.46908584]]}}, {"type": "Feature", "properties": {"id": "dd_s_und_fernbahn2022.26", "importid": 26, "typ": "S- und Fernbahn"}, "geometry": {"type": "LineString", "coordinates": [[13.46282493, 52.46910659], [13.46289593, 52.46910552], [13.46305172, 52.46910555], [13.46315555, 52.46910716], [13.46328092, 52.46911082], [13.46342765, 52.46911737], [13.46357409, 52.46912615], [13.46372017, 52.46913697], [13.46386585, 52.46914958], [13.46401116, 52.46916377], [13.46415609, 52.46917935], [13.46430066, 52.46919607], [13.46444492, 52.46921375], [13.4647328, 52.46925108], [13.46496165, 52.46928191]]}}, {"type": "Feature", "properties": {"id": "dd_s_und_fernbahn2022.27", "importid": 27, "typ": "S- und Fernbahn"}, "geometry": {"type": "LineString", "coordinates": [[13.4656726, 52.46937768], [13.46621572, 52.46945085]]}}, {"type": "Feature", "properties": {"id": "dd_s_und_fernbahn2022.28", "importid": 28, "typ": "S- und Fernbahn"}, "geometry": {"type": "LineString", "coordinates": [[13.46697396, 52.46955298], [13.4670285, 52.46956033]]}}, {"type": "Feature", "properties": {"id": "dd_s_und_fernbahn2022.47", "importid": 47, "typ": "S- und Fernbahn"}, "geometry": {"type": "LineString", "coordinates": [[13.45749435, 52.47018186], [13.45783592, 52.47008545], [13.4581104, 52.47000855], [13.45838562, 52.46993262], [13.45866156, 52.46985768], [13.45941972, 52.46965521]]}}, {"type": "Feature", "properties": {"id": "dd_s_und_fernbahn2022.48", "importid": 48, "typ": "S- und Fernbahn"}, "geometry": {"type": "LineString", "coordinates": [[13.46583221, 52.46927321], [13.46637494, 52.46934635]]}}, {"type": "Feature", "properties": {"id": "dd_s_und_fernbahn2022.49", "importid": 49, "typ": "S- und Fernbahn"}, "geometry": {"type": "LineString", "coordinates": [[13.47278304, 52.47029824], [13.472786654929365, 52.470298726801]]}}, {"type": "Feature", "properties": {"id": "dd_s_und_fernbahn2022.64", "importid": 64, "typ": "S- und Fernbahn"}, "geometry": {"type": "LineString", "coordinates": [[13.45206898, 52.47084123], [13.45207267, 52.47084184], [13.45219778, 52.47086145], [13.45236402, 52.47088603], [13.45251061, 52.47090574], [13.45265785, 52.47092352], [13.45280579, 52.47093909], [13.45287853, 52.47094582], [13.45298731, 52.47095472], [13.453151, 52.47096543], [13.45331517, 52.47097298], [13.45339485, 52.4709751]]}}, {"type": "Feature", "properties": {"id": "dd_s_und_fernbahn2022.65", "importid": 65, "typ": "S- und Fernbahn"}, "geometry": {"type": "LineString", "coordinates": [[13.45339485, 52.4709751], [13.45347964, 52.47097735], [13.45358938, 52.4709785], [13.45368049, 52.47097835]]}}, {"type": "Feature", "properties": {"id": "dd_s_und_fernbahn2022.102", "importid": 102, "typ": "S- und Fernbahn"}, "geometry": {"type": "LineString", "coordinates": [[13.45869072530425, 52.48543207583599], [13.458687, 52.48541361]]}}, {"type": "Feature", "properties": {"id": "dd_s_und_fernbahn2022.194", "importid": 194, "typ": "S- und Fernbahn"}, "geometry": {"type": "LineString", "coordinates": [[13.458687, 52.48541361], [13.45734842, 52.47877716]]}}, {"type": "Feature", "properties": {"id": "dd_s_und_fernbahn2022.195", "importid": 195, "typ": "S- und Fernbahn"}, "geometry": {"type": "LineString", "coordinates": [[13.45734842, 52.47877716], [13.45723907, 52.47823494]]}}, {"type": "Feature", "properties": {"id": "dd_s_und_fernbahn2022.196", "importid": 196, "typ": "S- und Fernbahn"}, "geometry": {"type": "LineString", "coordinates": [[13.45708892, 52.47749034], [13.45708005, 52.47744634]]}}, {"type": "Feature", "properties": {"id": "dd_s_und_fernbahn2022.197", "importid": 197, "typ": "S- und Fernbahn"}, "geometry": {"type": "LineString", "coordinates": [[13.45708005, 52.47744634], [13.45677289, 52.47592306]]}}, {"type": "Feature", "properties": {"id": "dd_s_und_fernbahn2022.198", "importid": 198, "typ": "S- und Fernbahn"}, "geometry": {"type": "LineString", "coordinates": [[13.45676291, 52.47587356], [13.45652052, 52.47467143], [13.45646855, 52.47442182], [13.45644501, 52.47431947], [13.45641919, 52.47421734], [13.45638307, 52.47409096], [13.45635697, 52.47400913], [13.4563288, 52.47392757], [13.45631386, 52.47388668], [13.45630356, 52.47386039]]}}, {"type": "Feature", "properties": {"id": "dd_s_und_fernbahn2022.199", "importid": 199, "typ": "S- und Fernbahn"}, "geometry": {"type": "LineString", "coordinates": [[13.45224969, 52.47073982], [13.45217356, 52.47071901], [13.45208071, 52.47069515], [13.45196528, 52.47066755], [13.45181635, 52.47063502], [13.45166588, 52.47060523], [13.4515142, 52.47057779], [13.45136159, 52.47055238], [13.45120827, 52.47052862], [13.45105441, 52.47050615], [13.4509002, 52.47048462], [13.45069077, 52.47045639]]}}, {"type": "Feature", "properties": {"id": "dd_s_und_fernbahn2022.323", "importid": 323, "typ": "S- und Fernbahn"}, "geometry": {"type": "LineString", "coordinates": [[13.44194822, 52.46910405], [13.44154561, 52.46904343]]}}, {"type": "Feature", "properties": {"id": "dd_s_und_fernbahn2022.324", "importid": 324, "typ": "S- und Fernbahn"}, "geometry": {"type": "LineString", "coordinates": [[13.44154561, 52.46904343], [13.43828849, 52.46855294], [13.43106402, 52.4674635]]}}, {"type": "Feature", "properties": {"id": "dd_s_und_fernbahn2022.405", "importid": 405, "typ": "S- und Fernbahn"}, "geometry": {"type": "LineString", "coordinates": [[13.44821103, 52.47012009], [13.44803025, 52.47009451]]}}, {"type": "Feature", "properties": {"id": "dd_s_und_fernbahn2022.560", "importid": 560, "typ": "S- und Fernbahn"}, "geometry": {"type": "LineString", "coordinates": [[13.46711812, 52.46938303], [13.46835165, 52.46954912], [13.46861698, 52.46958545], [13.46879427, 52.46961116], [13.4690592, 52.46965224], [13.46932284, 52.46969632], [13.46962222, 52.46975005], [13.47033614, 52.46988141], [13.47052668, 52.46991587], [13.4707001, 52.46994593], [13.47087412, 52.46997467], [13.47104871, 52.4700021], [13.47122383, 52.47002822], [13.47140385, 52.47005364], [13.47178343, 52.47010497]]}}, {"type": "Feature", "properties": {"id": "dd_s_und_fernbahn2022.936", "importid": 936, "typ": "S- und Fernbahn"}, "geometry": {"type": "LineString", "coordinates": [[13.44760623, 52.46995618], [13.44775835, 52.46997839], [13.44791398, 52.46999968], [13.44807009, 52.47001962], [13.44822665, 52.4700382], [13.44838363, 52.47005542], [13.44985811, 52.47021044], [13.45001579, 52.47022769], [13.45017307, 52.47024625], [13.45032993, 52.47026612], [13.45048633, 52.47028729], [13.45064224, 52.47030975], [13.45079764, 52.47033351], [13.4510297, 52.47037156], [13.45118369, 52.47039854], [13.45133706, 52.47042679], [13.4515659, 52.47047154], [13.45186489, 52.4705332]]}}, {"type": "Feature", "properties": {"id": "dd_s_und_fernbahn2022.1025", "importid": 1025, "typ": "S- und Fernbahn"}, "geometry": {"type": "LineString", "coordinates": [[13.45238042, 52.47063656], [13.45242427, 52.47064491], [13.45258912, 52.47067419], [13.45273586, 52.47069782]]}}, {"type": "Feature", "properties": {"id": "dd_s_und_fernbahn2022.1032", "importid": 1032, "typ": "S- und Fernbahn"}, "geometry": {"type": "LineString", "coordinates": [[13.4574898, 52.47004101], [13.45896653, 52.46962722], [13.45939162, 52.46950964], [13.45940658, 52.46950564]]}}, {"type": "Feature", "properties": {"id": "dd_s_und_fernbahn2022.1033", "importid": 1033, "typ": "S- und Fernbahn"}, "geometry": {"type": "LineString", "coordinates": [[13.45940658, 52.46950564], [13.45953304, 52.46947181]]}}, {"type": "Feature", "properties": {"id": "dd_s_und_fernbahn2022.1034", "importid": 1034, "typ": "S- und Fernbahn"}, "geometry": {"type": "LineString", "coordinates": [[13.46273503, 52.46900076], [13.46286895, 52.46899666], [13.46301412, 52.46899402], [13.46315934, 52.46899282], [13.46329848, 52.46899302], [13.46352237, 52.46899608], [13.46366747, 52.46899989], [13.46381245, 52.46900514], [13.46395727, 52.46901182], [13.4641019, 52.46901993], [13.46431839, 52.46903477], [13.46453423, 52.46905282], [13.46476041, 52.46907513], [13.46491352, 52.46909196], [13.46506626, 52.46910989], [13.46536883, 52.46914803], [13.4658404, 52.46921097], [13.46584241, 52.46921124]]}}, {"type": "Feature", "properties": {"id": "dd_s_und_fernbahn2022.1035", "importid": 1035, "typ": "S- und Fernbahn"}, "geometry": {"type": "LineString", "coordinates": [[13.4664883, 52.46929822], [13.46705409, 52.46937441]]}}, {"type": "Feature", "properties": {"id": "dd_s_und_fernbahn2022.1116", "importid": 1116, "typ": "S- und Fernbahn"}, "geometry": {"type": "LineString", "coordinates": [[13.44814124, 52.47027751], [13.44805223, 52.47026316]]}}, {"type": "Feature", "properties": {"id": "dd_s_und_fernbahn2022.1147", "importid": 1147, "typ": "S- und Fernbahn"}, "geometry": {"type": "LineString", "coordinates": [[13.458641164337001, 52.4854669263689], [13.45863752, 52.48544886]]}}, {"type": "Feature", "properties": {"id": "dd_s_und_fernbahn2022.1148", "importid": 1148, "typ": "S- und Fernbahn"}, "geometry": {"type": "LineString", "coordinates": [[13.45729731, 52.47880406], [13.45718796, 52.4782618]]}}, {"type": "Feature", "properties": {"id": "dd_s_und_fernbahn2022.1149", "importid": 1149, "typ": "S- und Fernbahn"}, "geometry": {"type": "LineString", "coordinates": [[13.45702438, 52.47745061], [13.45671709, 52.47592661]]}}, {"type": "Feature", "properties": {"id": "dd_s_und_fernbahn2022.1184", "importid": 1184, "typ": "S- und Fernbahn"}, "geometry": {"type": "LineString", "coordinates": [[13.45671709, 52.47592661], [13.45670717, 52.47587741]]}}, {"type": "Feature", "properties": {"id": "dd_s_und_fernbahn2022.1185", "importid": 1185, "typ": "S- und Fernbahn"}, "geometry": {"type": "LineString", "coordinates": [[13.45619684, 52.47391409], [13.45619228, 52.47390414], [13.45612615, 52.47377244], [13.45610024, 52.47372406], [13.4560347, 52.47360796], [13.4560345, 52.47360763]]}}, {"type": "Feature", "properties": {"id": "dd_s_und_fernbahn2022.1186", "importid": 1186, "typ": "S- und Fernbahn"}, "geometry": {"type": "LineString", "coordinates": [[13.45235374, 52.47099105], [13.45234324, 52.47098839], [13.45219558, 52.47095374], [13.45206411, 52.47092524]]}}, {"type": "Feature", "properties": {"id": "dd_s_und_fernbahn2022.1187", "importid": 1187, "typ": "S- und Fernbahn"}, "geometry": {"type": "LineString", "coordinates": [[13.45206411, 52.47092524], [13.45204651, 52.47092142], [13.45189631, 52.47089113], [13.45174518, 52.47086256], [13.45159337, 52.47083542], [13.45128834, 52.47078414], [13.45106323, 52.4707479]]}}, {"type": "Feature", "properties": {"id": "dd_s_und_fernbahn2022.1224", "importid": 1224, "typ": "S- und Fernbahn"}, "geometry": {"type": "LineString", "coordinates": [[13.4514278, 52.47072924], [13.45177112, 52.4707909], [13.45191244, 52.47081526], [13.45206898, 52.47084123]]}}, {"type": "Feature", "properties": {"id": "dd_s_und_fernbahn2022.1264", "importid": 1264, "typ": "S- und Fernbahn"}, "geometry": {"type": "LineString", "coordinates": [[13.45139175, 52.47068559], [13.45139224, 52.47068567], [13.45161961, 52.47072692], [13.45192842, 52.47078101], [13.45207475, 52.47080528], [13.45208411, 52.47080675]]}}, {"type": "Feature", "properties": {"id": "dd_s_und_fernbahn2022.1309", "importid": 1309, "typ": "S- und Fernbahn"}, "geometry": {"type": "LineString", "coordinates": [[13.45186489, 52.4705332], [13.45209723, 52.4705811], [13.45226039, 52.4706137], [13.45238042, 52.47063656]]}}, {"type": "Feature", "properties": {"id": "dd_s_und_fernbahn2022.1456", "importid": 1456, "typ": "S- und Fernbahn"}, "geometry": {"type": "LineString", "coordinates": [[13.45617896, 52.47356973], [13.45616592, 52.47354377]]}}, {"type": "Feature", "properties": {"id": "dd_s_und_fernbahn2022.1522", "importid": 1522, "typ": "S- und Fernbahn"}, "geometry": {"type": "LineString", "coordinates": [[13.45648652, 52.47050601], [13.4568102, 52.47041473]]}}, {"type": "Feature", "properties": {"id": "dd_s_und_fernbahn2022.1533", "importid": 1533, "typ": "S- und Fernbahn"}, "geometry": {"type": "LineString", "coordinates": [[13.46243472, 52.46908584], [13.46243705, 52.46908568], [13.46251027, 52.46908132], [13.46267065, 52.4690734], [13.4627564, 52.46907026]]}}, {"type": "Feature", "properties": {"id": "dd_s_und_fernbahn2022.1544", "importid": 1544, "typ": "S- und Fernbahn"}, "geometry": {"type": "LineString", "coordinates": [[13.45951571, 52.46966882], [13.45952176, 52.4696672], [13.45954983, 52.46965969]]}}, {"type": "Feature", "properties": {"id": "dd_s_und_fernbahn2022.1645", "importid": 1645, "typ": "S- und Fernbahn"}, "geometry": {"type": "LineString", "coordinates": [[13.45069077, 52.47045639], [13.45068711, 52.47045589], [13.44982176, 52.47033922], [13.44882365, 52.47020463], [13.44837533, 52.47014299]]}}, {"type": "Feature", "properties": {"id": "dd_s_und_fernbahn2022.1654", "importid": 1654, "typ": "S- und Fernbahn"}, "geometry": {"type": "LineString", "coordinates": [[13.46496165, 52.46928191], [13.46497233, 52.46928335], [13.4656726, 52.46937768]]}}, {"type": "Feature", "properties": {"id": "dd_s_und_fernbahn2022.1667", "importid": 1667, "typ": "S- und Fernbahn"}, "geometry": {"type": "LineString", "coordinates": [[13.45106323, 52.4707479], [13.4510625, 52.47074778], [13.44972546, 52.47053255], [13.44830303, 52.47030354]]}}, {"type": "Feature", "properties": {"id": "dd_s_und_fernbahn2022.1802", "importid": 1802, "typ": "S- und Fernbahn"}, "geometry": {"type": "LineString", "coordinates": [[13.44307574, 52.46935663], [13.44307396, 52.46935636], [13.44193479, 52.46918486]]}}, {"type": "Feature", "properties": {"id": "dd_s_und_fernbahn2022.1964", "importid": 1964, "typ": "S- und Fernbahn"}, "geometry": {"type": "LineString", "coordinates": [[13.45546554, 52.47283864], [13.4554352, 52.4728053]]}}, {"type": "Feature", "properties": {"id": "dd_s_und_fernbahn2022.2011", "importid": 2011, "typ": "S- und Fernbahn"}, "geometry": {"type": "LineString", "coordinates": [[13.4670285, 52.46956033], [13.46702888, 52.46956038], [13.46704236, 52.4695622], [13.47275015, 52.47033087]]}}, {"type": "Feature", "properties": {"id": "dd_s_und_fernbahn2022.2032", "importid": 2032, "typ": "S- und Fernbahn"}, "geometry": {"type": "LineString", "coordinates": [[13.43106402, 52.4674635], [13.43102866, 52.46745817]]}}, {"type": "Feature", "properties": {"id": "dd_s_und_fernbahn2022.2123", "importid": 2123, "typ": "S- und Fernbahn"}, "geometry": {"type": "LineString", "coordinates": [[13.45557944, 52.47270891], [13.45556134, 52.472689], [13.45549769, 52.47262267], [13.45543203, 52.47255707], [13.45536438, 52.47249223], [13.45529477, 52.47242817], [13.45522323, 52.47236491], [13.45511233, 52.47227157], [13.4550648, 52.47223323], [13.45501452, 52.47219391]]}}, {"type": "Feature", "properties": {"id": "dd_s_und_fernbahn2022.2467", "importid": 2467, "typ": "S- und Fernbahn"}, "geometry": {"type": "LineString", "coordinates": [[13.46705409, 52.46937441], [13.4670731, 52.46937697], [13.46711812, 52.46938303]]}}, {"type": "Feature", "properties": {"id": "dd_s_und_fernbahn2022.2528", "importid": 2528, "typ": "S- und Fernbahn"}, "geometry": {"type": "LineString", "coordinates": [[13.453458, 52.47121834], [13.4533915, 52.47118502]]}}, {"type": "Feature", "properties": {"id": "dd_s_und_fernbahn2022.2557", "importid": 2557, "typ": "S- und Fernbahn"}, "geometry": {"type": "LineString", "coordinates": [[13.43092049, 52.46764787], [13.43060226, 52.46759994]]}}, {"type": "Feature", "properties": {"id": "dd_s_und_fernbahn2022.2561", "importid": 2561, "typ": "S- und Fernbahn"}, "geometry": {"type": "LineString", "coordinates": [[13.43096286, 52.46753188], [13.43064154, 52.46748354]]}}, {"type": "Feature", "properties": {"id": "dd_s_und_fernbahn2022.2574", "importid": 2574, "typ": "S- und Fernbahn"}, "geometry": {"type": "LineString", "coordinates": [[13.44489471, 52.46954767], [13.4420416, 52.46911812]]}}, {"type": "Feature", "properties": {"id": "dd_s_und_fernbahn2022.2604", "importid": 2604, "typ": "S- und Fernbahn"}, "geometry": {"type": "LineString", "coordinates": [[13.45368049, 52.47097835], [13.45368088, 52.47097835], [13.453754, 52.47097758], [13.45386368, 52.47097521], [13.45397326, 52.47097142], [13.45408269, 52.47096622], [13.45424643, 52.47095579], [13.45435525, 52.47094708], [13.45446375, 52.47093697], [13.45457188, 52.47092547], [13.45467958, 52.47091258], [13.45478682, 52.47089831], [13.45494669, 52.47087433], [13.45510525, 52.47084726], [13.45517563, 52.47083418], [13.45531946, 52.47080553], [13.45546208, 52.4707747], [13.45560356, 52.47074198], [13.455744, 52.47070763], [13.45588353, 52.47067193], [13.4560223, 52.47063511], [13.45616042, 52.47059743], [13.45629811, 52.47055915], [13.45648652, 52.47050601]]}}, {"type": "Feature", "properties": {"id": "dd_s_und_fernbahn2022.2611", "importid": 2611, "typ": "S- und Fernbahn"}, "geometry": {"type": "LineString", "coordinates": [[13.44797596, 52.47018119], [13.44986648, 52.47046374], [13.45022389, 52.47051925], [13.45052487, 52.47056887], [13.45087945, 52.47063075], [13.4514278, 52.47072924]]}}, {"type": "Feature", "properties": {"id": "dd_s_und_fernbahn2022.2630", "importid": 2630, "typ": "S- und Fernbahn"}, "geometry": {"type": "LineString", "coordinates": [[13.4448694, 52.46962664], [13.44307574, 52.46935663]]}}, {"type": "Feature", "properties": {"id": "dd_s_und_fernbahn2022.2673", "importid": 2673, "typ": "S- und Fernbahn"}, "geometry": {"type": "LineString", "coordinates": [[13.45561101, 52.47274364], [13.45557944, 52.47270891]]}}, {"type": "Feature", "properties": {"id": "dd_s_und_fernbahn2022.2756", "importid": 2756, "typ": "S- und Fernbahn"}, "geometry": {"type": "LineString", "coordinates": [[13.44805223, 52.47026316], [13.44718489, 52.47012341], [13.44595829, 52.46992307], [13.44535389, 52.46982737], [13.44482103, 52.46974581]]}}, {"type": "Feature", "properties": {"id": "dd_s_und_fernbahn2022.2757", "importid": 2757, "typ": "S- und Fernbahn"}, "geometry": {"type": "LineString", "coordinates": [[13.44482103, 52.46974581], [13.44445226, 52.46969029]]}}, {"type": "Feature", "properties": {"id": "dd_s_und_fernbahn2022.3089", "importid": 3089, "typ": "S- und Fernbahn"}, "geometry": {"type": "LineString", "coordinates": [[13.4554352, 52.4728053], [13.45543419, 52.47280419], [13.45537666, 52.47274258], [13.45530428, 52.47266781], [13.45522989, 52.47259378], [13.45515351, 52.47252051], [13.45507416, 52.47244707], [13.45499205, 52.4723734], [13.45486571, 52.47226424], [13.45477939, 52.47219239], [13.45471016, 52.47213686]]}}, {"type": "Feature", "properties": {"id": "dd_s_und_fernbahn2022.3255", "importid": 3255, "typ": "S- und Fernbahn"}, "geometry": {"type": "LineString", "coordinates": [[13.47178343, 52.47010497], [13.47283588, 52.47024676]]}}, {"type": "Feature", "properties": {"id": "dd_s_und_fernbahn2022.3586", "importid": 3586, "typ": "S- und Fernbahn"}, "geometry": {"type": "LineString", "coordinates": [[13.4595466, 52.46962133], [13.45984083, 52.46954275], [13.46011716, 52.46947111], [13.46025598, 52.46943623], [13.46039534, 52.46940216], [13.46053533, 52.46936909], [13.46067603, 52.46933716], [13.46081752, 52.46930653], [13.46095983, 52.46927736], [13.46110299, 52.46924982], [13.46129162, 52.4692165], [13.46146988, 52.46918817], [13.46158937, 52.46917087], [13.46176948, 52.4691473], [13.46189009, 52.4691332], [13.46201108, 52.46912038], [13.46203276, 52.46911832]]}}, {"type": "Feature", "properties": {"id": "dd_s_und_fernbahn2022.3587", "importid": 3587, "typ": "S- und Fernbahn"}, "geometry": {"type": "LineString", "coordinates": [[13.46637494, 52.46934635], [13.46702714, 52.46943423], [13.46705261, 52.46943766], [13.46707283, 52.46944039]]}}, {"type": "Feature", "properties": {"id": "dd_s_und_fernbahn2022.3619", "importid": 3619, "typ": "S- und Fernbahn"}, "geometry": {"type": "LineString", "coordinates": [[13.45751923, 52.47021477], [13.45810503, 52.47004955], [13.45838274, 52.46997293], [13.45866119, 52.46989732], [13.45942293, 52.46969363]]}}, {"type": "Feature", "properties": {"id": "dd_s_und_fernbahn2022.3620", "importid": 3620, "typ": "S- und Fernbahn"}, "geometry": {"type": "LineString", "coordinates": [[13.46621572, 52.46945085], [13.46697396, 52.46955298]]}}, {"type": "Feature", "properties": {"id": "dd_s_und_fernbahn2022.3674", "importid": 3674, "typ": "S- und Fernbahn"}, "geometry": {"type": "LineString", "coordinates": [[13.45863752, 52.48544886], [13.45729731, 52.47880406]]}}, {"type": "Feature", "properties": {"id": "dd_s_und_fernbahn2022.3675", "importid": 3675, "typ": "S- und Fernbahn"}, "geometry": {"type": "LineString", "coordinates": [[13.4570332, 52.47749434], [13.45702438, 52.47745061]]}}, {"type": "Feature", "properties": {"id": "dd_s_und_fernbahn2022.3718", "importid": 3718, "typ": "S- und Fernbahn"}, "geometry": {"type": "LineString", "coordinates": [[13.45670717, 52.47587741], [13.45651871, 52.47494267], [13.45647573, 52.47473765], [13.4564521, 52.47463532], [13.45642615, 52.4745332], [13.45640164, 52.47444612], [13.45637521, 52.47436077], [13.45634648, 52.47427571], [13.45631545, 52.47419094], [13.45628213, 52.4741065], [13.45624653, 52.47402241], [13.45619684, 52.47391409]]}}, {"type": "Feature", "properties": {"id": "dd_s_und_fernbahn2022.3719", "importid": 3719, "typ": "S- und Fernbahn"}, "geometry": {"type": "LineString", "coordinates": [[13.4560345, 52.47360763], [13.45598564, 52.47352643], [13.45593439, 52.47344541], [13.45588095, 52.47336491], [13.45579673, 52.47324521], [13.45570767, 52.47312682], [13.45561384, 52.47300981], [13.45554866, 52.47293261], [13.4554814, 52.47285608], [13.45546554, 52.47283864]]}}, {"type": "Feature", "properties": {"id": "dd_s_und_fernbahn2022.3779", "importid": 3779, "typ": "S- und Fernbahn"}, "geometry": {"type": "LineString", "coordinates": [[13.45630356, 52.47386039], [13.45626627, 52.47376528], [13.456214, 52.47364438], [13.45617933, 52.47357047], [13.45617896, 52.47356973]]}}, {"type": "Feature", "properties": {"id": "dd_s_und_fernbahn2022.3780", "importid": 3780, "typ": "S- und Fernbahn"}, "geometry": {"type": "LineString", "coordinates": [[13.45616592, 52.47354377], [13.45614242, 52.47349697], [13.45610327, 52.4734239], [13.4560619, 52.47335129], [13.45601834, 52.47327915], [13.45597258, 52.47320753], [13.45592464, 52.47313644], [13.45587456, 52.47306591], [13.45582233, 52.47299595], [13.45576798, 52.47292661], [13.45571153, 52.47285789], [13.455653, 52.47278982], [13.45561101, 52.47274364]]}}, {"type": "Feature", "properties": {"id": "dd_s_und_fernbahn2022.3817", "importid": 3817, "typ": "S- und Fernbahn"}, "geometry": {"type": "LineString", "coordinates": [[13.4567847, 52.47038217], [13.45749435, 52.47018186]]}}, {"type": "Feature", "properties": {"id": "dd_s_und_fernbahn2022.3818", "importid": 3818, "typ": "S- und Fernbahn"}, "geometry": {"type": "LineString", "coordinates": [[13.45941972, 52.46965521], [13.45950648, 52.46963204]]}}, {"type": "Feature", "properties": {"id": "dd_s_und_fernbahn2022.3826", "importid": 3826, "typ": "S- und Fernbahn"}, "geometry": {"type": "LineString", "coordinates": [[13.44153072, 52.4691244], [13.44050639, 52.4689738], [13.43262511, 52.46778674], [13.43234086, 52.46774348], [13.43163527, 52.46763341], [13.43145731, 52.46760627], [13.43096286, 52.46753188]]}}, {"type": "Feature", "properties": {"id": "dd_s_und_fernbahn2022.3844", "importid": 3844, "typ": "S- und Fernbahn"}, "geometry": {"type": "LineString", "coordinates": [[13.44149144, 52.4692161], [13.44098994, 52.46911224], [13.44076757, 52.46906847], [13.44063093, 52.46904299], [13.44048458, 52.46901704], [13.44032647, 52.46899049], [13.44019297, 52.46896908], [13.44005034, 52.46894697], [13.43798781, 52.46863609], [13.43673214, 52.46844254], [13.4343246, 52.46807978], [13.43406072, 52.46804029], [13.43386797, 52.46801235], [13.43371326, 52.46799093], [13.43346362, 52.4679586], [13.43328636, 52.46793734], [13.43312941, 52.46791962], [13.4329119, 52.46789674], [13.43231628, 52.46783819], [13.43215675, 52.46782152], [13.4319527, 52.4677979], [13.43182145, 52.4677811], [13.43168428, 52.46776218], [13.431484, 52.46773274], [13.43092049, 52.46764787]]}}, {"type": "Feature", "properties": {"id": "dd_s_und_fernbahn2022.3851", "importid": 3851, "typ": "S- und Fernbahn"}, "geometry": {"type": "LineString", "coordinates": [[13.45273586, 52.47069782], [13.45275511, 52.47070092], [13.45292238, 52.47072451], [13.45299446, 52.47073352], [13.4530935, 52.47074466], [13.45316135, 52.47075143], [13.45329269, 52.47076279], [13.45339275, 52.47076977], [13.45347184, 52.47077425], [13.4535935, 52.47077954], [13.45369468, 52.47078234]]}}, {"type": "Feature", "properties": {"id": "dd_s_und_fernbahn2022.3871", "importid": 3871, "typ": "S- und Fernbahn"}, "geometry": {"type": "LineString", "coordinates": [[13.45953304, 52.46947181], [13.45953411, 52.46947152], [13.45967718, 52.46943424], [13.45982098, 52.46939801], [13.45996559, 52.46936302], [13.46017058, 52.46931627], [13.46030763, 52.46928693], [13.46044545, 52.46925895], [13.46058399, 52.46923233], [13.46072322, 52.46920708], [13.4608631, 52.46918321], [13.46100359, 52.46916073], [13.46114466, 52.46913963], [13.46128627, 52.46911994], [13.46149962, 52.46909302], [13.46164241, 52.46907684], [13.46185737, 52.46905522], [13.46187728, 52.46905347]]}}, {"type": "Feature", "properties": {"id": "dd_s_und_fernbahn2022.3971", "importid": 3971, "typ": "S- und Fernbahn"}, "geometry": {"type": "LineString", "coordinates": [[13.44445226, 52.46969029], [13.44438735, 52.46968052]]}}, {"type": "Feature", "properties": {"id": "dd_s_und_fernbahn2022.3972", "importid": 3972, "typ": "S- und Fernbahn"}, "geometry": {"type": "LineString", "coordinates": [[13.44193495, 52.46930286], [13.44174735, 52.46926784], [13.44160309, 52.46923922], [13.44149144, 52.4692161]]}}, {"type": "Feature", "properties": {"id": "dd_s_und_fernbahn2022.4113", "importid": 4113, "typ": "S- und Fernbahn"}, "geometry": {"type": "LineString", "coordinates": [[13.45950648, 52.46963204], [13.4595466, 52.46962133]]}}, {"type": "Feature", "properties": {"id": "dd_s_und_fernbahn2022.4123", "importid": 4123, "typ": "S- und Fernbahn"}, "geometry": {"type": "LineString", "coordinates": [[13.4533915, 52.47118502], [13.45338281, 52.47118067], [13.45337378, 52.47117614], [13.4532414, 52.47111265], [13.45310675, 52.47105094], [13.45296958, 52.47099136], [13.45282961, 52.47093423], [13.45268669, 52.47087993], [13.45262325, 52.47085718], [13.45261237, 52.47085351]]}}, {"type": "Feature", "properties": {"id": "dd_s_und_fernbahn2022.4209", "importid": 4209, "typ": "S- und Fernbahn"}, "geometry": {"type": "LineString", "coordinates": [[13.44830303, 52.47030354], [13.44814124, 52.47027751]]}}, {"type": "Feature", "properties": {"id": "dd_s_und_fernbahn2022.4391", "importid": 4391, "typ": "S- und Fernbahn"}, "geometry": {"type": "LineString", "coordinates": [[13.43102866, 52.46745817], [13.42943282, 52.46721745], [13.42924844, 52.46719099], [13.42906359, 52.4671658], [13.42878547, 52.46713043], [13.42316268, 52.46644551], [13.42294643, 52.46641857], [13.42280073, 52.46639935], [13.42265356, 52.46637875], [13.42250683, 52.46635699], [13.42236058, 52.46633408], [13.42221666, 52.46631035], [13.42200426, 52.46627374], [13.42097994, 52.46609439], [13.42065839, 52.4660403], [13.42051004, 52.46601684], [13.42035529, 52.46599362], [13.42020007, 52.4659716], [13.4200444, 52.46595078], [13.41981012, 52.46592183], [13.41965345, 52.46590404], [13.41941656, 52.46587935], [13.41925188, 52.4658633], [13.416825391000856, 52.46563684458689]]}}, {"type": "Feature", "properties": {"id": "dd_s_und_fernbahn2022.4453", "importid": 4453, "typ": "S- und Fernbahn"}, "geometry": {"type": "LineString", "coordinates": [[13.45368083, 52.4709422], [13.45378686, 52.47094082], [13.45389568, 52.47093801], [13.45400438, 52.47093379], [13.45416709, 52.47092484], [13.45432925, 52.47091273], [13.4544907, 52.4708975], [13.45459786, 52.4708856], [13.45470458, 52.47087233], [13.45481082, 52.47085768], [13.45496917, 52.47083314], [13.455074, 52.47081508], [13.45514445, 52.47080213], [13.45528951, 52.47077345], [13.45543336, 52.47074255], [13.45557603, 52.4707097], [13.45571765, 52.47067518], [13.45585831, 52.47063926], [13.45599821, 52.4706022], [13.45613744, 52.47056426], [13.45627624, 52.47052569], [13.45649211, 52.47046476]]}}, {"type": "Feature", "properties": {"id": "dd_s_und_fernbahn2022.4736", "importid": 4736, "typ": "S- und Fernbahn"}, "geometry": {"type": "LineString", "coordinates": [[13.47283588, 52.47024676], [13.472841023720642, 52.47024745263119]]}}, {"type": "Feature", "properties": {"id": "dd_s_und_fernbahn2022.4778", "importid": 4778, "typ": "S- und Fernbahn"}, "geometry": {"type": "LineString", "coordinates": [[13.45208411, 52.47080675], [13.45221087, 52.47082663], [13.45238074, 52.47085159], [13.45253476, 52.47087208], [13.45268951, 52.47089041], [13.45284497, 52.47090627], [13.45291779, 52.47091274], [13.45302582, 52.47092116], [13.45313413, 52.47092818], [13.45329699, 52.47093608], [13.45331595, 52.47093669]]}}, {"type": "Feature", "properties": {"id": "dd_s_und_fernbahn2022.4833", "importid": 4833, "typ": "S- und Fernbahn"}, "geometry": {"type": "LineString", "coordinates": [[13.44715641, 52.46988813], [13.44489471, 52.46954767]]}}, {"type": "Feature", "properties": {"id": "dd_s_und_fernbahn2022.4858", "importid": 4858, "typ": "S- und Fernbahn"}, "geometry": {"type": "LineString", "coordinates": [[13.4568102, 52.47041473], [13.45751923, 52.47021477]]}}, {"type": "Feature", "properties": {"id": "dd_s_und_fernbahn2022.4859", "importid": 4859, "typ": "S- und Fernbahn"}, "geometry": {"type": "LineString", "coordinates": [[13.46208871, 52.46914957], [13.46216078, 52.46914284], [13.46228504, 52.46913263], [13.46235809, 52.46912728], [13.46256311, 52.4691151], [13.46268834, 52.46910995], [13.4627921, 52.46910709], [13.46282493, 52.46910659]]}}, {"type": "Feature", "properties": {"id": "dd_s_und_fernbahn2022.4860", "importid": 4860, "typ": "S- und Fernbahn"}, "geometry": {"type": "LineString", "coordinates": [[13.47275015, 52.47033087], [13.472752269170433, 52.47033115535424]]}}, {"type": "Feature", "properties": {"id": "dd_s_und_fernbahn2022.4893", "importid": 4893, "typ": "S- und Fernbahn"}, "geometry": {"type": "LineString", "coordinates": [[13.45331595, 52.47093669], [13.45340575, 52.47093959], [13.45354755, 52.47094202], [13.45368083, 52.4709422]]}}, {"type": "Feature", "properties": {"id": "dd_s_und_fernbahn2022.4894", "importid": 4894, "typ": "S- und Fernbahn"}, "geometry": {"type": "LineString", "coordinates": [[13.4627564, 52.46907026], [13.46283125, 52.46906753], [13.462992, 52.46906362], [13.46313425, 52.46906169], [13.46327167, 52.46906117], [13.46340908, 52.46906196], [13.46361512, 52.46906558], [13.46382096, 52.46907214], [13.46395803, 52.46907815], [13.46409492, 52.46908545], [13.46423161, 52.46909406], [13.46436807, 52.46910396], [13.46450426, 52.46911516], [13.46472372, 52.46913589], [13.46487006, 52.46915136], [13.46501607, 52.46916791], [13.46516181, 52.46918538], [13.46530728, 52.4692036], [13.46559772, 52.46924161], [13.46583221, 52.46927321]]}}, {"type": "Feature", "properties": {"id": "dd_s_und_fernbahn2022.4934", "importid": 4934, "typ": "S- und Fernbahn"}, "geometry": {"type": "LineString", "coordinates": [[13.45718796, 52.4782618], [13.4570332, 52.47749434]]}}, {"type": "Feature", "properties": {"id": "dd_s_und_fernbahn2022.5078", "importid": 5078, "typ": "S- und Fernbahn"}, "geometry": {"type": "LineString", "coordinates": [[13.45669301, 52.47026427], [13.4574898, 52.47004101]]}}, {"type": "Feature", "properties": {"id": "dd_s_und_fernbahn2022.5079", "importid": 5079, "typ": "S- und Fernbahn"}, "geometry": {"type": "LineString", "coordinates": [[13.46187728, 52.46905347], [13.46200112, 52.46904257], [13.46221733, 52.46902627], [13.4623618, 52.46901719], [13.46250649, 52.46900954], [13.46265137, 52.46900331], [13.46273503, 52.46900076]]}}, {"type": "Feature", "properties": {"id": "dd_s_und_fernbahn2022.5080", "importid": 5080, "typ": "S- und Fernbahn"}, "geometry": {"type": "LineString", "coordinates": [[13.46584241, 52.46921124], [13.4664883, 52.46929822]]}}, {"type": "Feature", "properties": {"id": "dd_s_und_fernbahn2022.5118", "importid": 5118, "typ": "S- und Fernbahn"}, "geometry": {"type": "LineString", "coordinates": [[13.45723907, 52.47823494], [13.45708892, 52.47749034]]}}, {"type": "Feature", "properties": {"id": "dd_s_und_fernbahn2022.5119", "importid": 5119, "typ": "S- und Fernbahn"}, "geometry": {"type": "LineString", "coordinates": [[13.45677289, 52.47592306], [13.45676291, 52.47587356]]}}, {"type": "Feature", "properties": {"id": "dd_s_und_fernbahn2022.5120", "importid": 5120, "typ": "S- und Fernbahn"}, "geometry": {"type": "LineString", "coordinates": [[13.45261237, 52.47085351], [13.45249106, 52.47081248], [13.45235648, 52.47077054], [13.45226549, 52.47074414], [13.45224969, 52.47073982]]}}, {"type": "Feature", "properties": {"id": "dd_s_und_fernbahn2022.5130", "importid": 5130, "typ": "S- und Fernbahn"}, "geometry": {"type": "LineString", "coordinates": [[13.44438735, 52.46968052], [13.44302474, 52.46947536]]}}, {"type": "Feature", "properties": {"id": "dd_s_und_fernbahn2022.5151", "importid": 5151, "typ": "S- und Fernbahn"}, "geometry": {"type": "LineString", "coordinates": [[13.44193479, 52.46918486], [13.44163675, 52.46913999], [13.44153072, 52.4691244]]}}, {"type": "Feature", "properties": {"id": "dd_s_und_fernbahn2022.5182", "importid": 5182, "typ": "S- und Fernbahn"}, "geometry": {"type": "LineString", "coordinates": [[13.44837533, 52.47014299], [13.44821103, 52.47012009]]}}, {"type": "Feature", "properties": {"id": "dd_s_und_fernbahn2022.5198", "importid": 5198, "typ": "S- und Fernbahn"}, "geometry": {"type": "LineString", "coordinates": [[13.45649211, 52.47046476], [13.45649663, 52.47046348], [13.4567847, 52.47038217]]}}, {"type": "Feature", "properties": {"id": "dd_s_und_fernbahn2022.5218", "importid": 5218, "typ": "S- und Fernbahn"}, "geometry": {"type": "LineString", "coordinates": [[13.45501452, 52.47219391], [13.45493348, 52.47213053], [13.45486425, 52.47207825], [13.4547392, 52.47198652], [13.45463938, 52.47191589], [13.45448637, 52.47181171], [13.45438221, 52.47174346], [13.45422281, 52.47164292], [13.45411446, 52.47157714], [13.45400449, 52.47151238], [13.45386526, 52.47143322], [13.45377974, 52.47138598], [13.45364235, 52.47131246], [13.45354878, 52.47126382], [13.453458, 52.47121834]]}}, {"type": "Feature", "properties": {"id": "dd_s_und_fernbahn2022.5232", "importid": 5232, "typ": "S- und Fernbahn"}, "geometry": {"type": "LineString", "coordinates": [[13.45471016, 52.47213686], [13.4547013, 52.47212975], [13.45464643, 52.47208574], [13.45454956, 52.47201108], [13.45445045, 52.47193752], [13.4543489, 52.47186522], [13.45424468, 52.47179434], [13.45413761, 52.47172507], [13.45402751, 52.4716576], [13.45393547, 52.47160407], [13.4538562, 52.47156004], [13.45377544, 52.47151703], [13.45369324, 52.47147505], [13.45360962, 52.47143413], [13.45352463, 52.47139428], [13.4534383, 52.47135551], [13.45334772, 52.47131664]]}}, {"type": "Feature", "properties": {"id": "dd_s_und_fernbahn2022.5261", "importid": 5261, "typ": "S- und Fernbahn"}, "geometry": {"type": "LineString", "coordinates": [[13.45622498, 52.4703954], [13.45669301, 52.47026427]]}}, {"type": "Feature", "properties": {"id": "dd_s_und_fernbahn2022.5304", "importid": 5304, "typ": "S- und Fernbahn"}, "geometry": {"type": "LineString", "coordinates": [[13.44799043, 52.4701463], [13.44983359, 52.47042185], [13.45019988, 52.47047823], [13.4505064, 52.47052819], [13.45071008, 52.47056299], [13.45096444, 52.47060808], [13.45139175, 52.47068559]]}}, {"type": "Feature", "properties": {"id": "dd_s_und_fernbahn2022.5386", "importid": 5386, "typ": "S- und Fernbahn"}, "geometry": {"type": "LineString", "coordinates": [[13.44803025, 52.47009451], [13.44761718, 52.47003608], [13.44713548, 52.46996634], [13.44665429, 52.46989529], [13.4448694, 52.46962664]]}}, {"type": "Feature", "properties": {"id": "dd_s_und_fernbahn2022.5411", "importid": 5411, "typ": "S- und Fernbahn"}, "geometry": {"type": "LineString", "coordinates": [[13.45334772, 52.47131664], [13.45334664, 52.47131618], [13.45326177, 52.47128131], [13.45317165, 52.47124591], [13.45303024, 52.47119356], [13.45294124, 52.47116249], [13.45284714, 52.47113118], [13.4527576, 52.47110283], [13.45265585, 52.4710722], [13.45255873, 52.47104454], [13.4524607, 52.47101812], [13.45235374, 52.47099105]]}}, {"type": "Feature", "properties": {"id": "dd_s_und_fernbahn2022.5460", "importid": 5460, "typ": "S- und Fernbahn"}, "geometry": {"type": "LineString", "coordinates": [[13.45369468, 52.47078234], [13.45379478, 52.47078371], [13.45394583, 52.47078316], [13.45409676, 52.47077945], [13.45419723, 52.47077522], [13.45429751, 52.4707696], [13.45444747, 52.47075855], [13.45459673, 52.47074437], [13.45469575, 52.47073319], [13.45479433, 52.47072063], [13.45494126, 52.47069922], [13.45508691, 52.47067476], [13.45520533, 52.47065244], [13.45534463, 52.47062349], [13.4554826, 52.47059225], [13.45561936, 52.47055909], [13.45575508, 52.47052437], [13.45588996, 52.47048844], [13.45602422, 52.47045166], [13.45622498, 52.4703954]]}}, {"type": "Feature", "properties": {"id": "dd_s_und_fernbahn2022.5514", "importid": 5514, "typ": "S- und Fernbahn"}, "geometry": {"type": "LineString", "coordinates": [[13.44302474, 52.46947536], [13.44302168, 52.4694749], [13.44254341, 52.46940289], [13.44234362, 52.46937223], [13.44219696, 52.46934859], [13.44197145, 52.46930967], [13.44193495, 52.46930286]]}}, {"type": "Feature", "properties": {"id": "dd_s_und_fernbahn2022.5580", "importid": 5580, "typ": "S- und Fernbahn"}, "geometry": {"type": "LineString", "coordinates": [[13.4420416, 52.46911812], [13.44194822, 52.46910405]]}}, {"type": "Feature", "properties": {"id": "dd_s_und_fernbahn2022.5635", "importid": 5635, "typ": "S- und Fernbahn"}, "geometry": {"type": "LineString", "coordinates": [[13.46707283, 52.46944039], [13.46707294, 52.4694404], [13.46847847, 52.46962978], [13.468694, 52.46965943], [13.46887086, 52.46968511], [13.46913515, 52.46972612], [13.46930646, 52.46975442], [13.46958927, 52.46980412], [13.47042544, 52.46995758], [13.47058354, 52.46998557], [13.47084695, 52.47002962], [13.47111165, 52.47007067], [13.47120016, 52.47008369], [13.47150413, 52.47012599], [13.47278304, 52.47029824]]}}, {"type": "Feature", "properties": {"id": "dd_s_und_fernbahn2022.5641", "importid": 5641, "typ": "S- und Fernbahn"}, "geometry": {"type": "LineString", "coordinates": [[13.45954983, 52.46965969], [13.45960405, 52.46964519], [13.46000919, 52.46953815], [13.46028088, 52.46946907], [13.46041749, 52.46943567], [13.46055471, 52.46940321], [13.46069262, 52.46937187], [13.46083127, 52.46934178], [13.46097072, 52.46931311], [13.46111103, 52.46928601], [13.46124171, 52.46926246], [13.46142328, 52.46923251], [13.46160611, 52.46920556], [13.46172862, 52.46918926], [13.46191324, 52.46916734], [13.46203683, 52.46915441], [13.46208871, 52.46914957]]}}, {"type": "Feature", "properties": {"id": "dd_s_und_fernbahn2022.5686", "importid": 5686, "typ": "S- und Fernbahn"}, "geometry": {"type": "LineString", "coordinates": [[13.44483957, 52.4697486], [13.44508975, 52.46978468], [13.44534104, 52.46981778], [13.44559334, 52.46984789], [13.44596822, 52.46988963], [13.44619931, 52.46991843], [13.44635641, 52.4699398], [13.44664252, 52.46998188], [13.44797596, 52.47018119]]}}, {"type": "Feature", "properties": {"id": "dd_s_und_fernbahn2022.5868", "importid": 5868, "typ": "S- und Fernbahn"}, "geometry": {"type": "LineString", "coordinates": [[13.43064154, 52.46748354], [13.42906018, 52.46724562], [13.42876025, 52.46720318], [13.42845919, 52.46716382], [13.42835861, 52.46715139], [13.42336912, 52.46654351], [13.42316063, 52.46651775], [13.42295251, 52.46649084], [13.42272832, 52.46645953], [13.42257643, 52.4664367], [13.42242952, 52.46641338], [13.42228755, 52.46638978], [13.42200455, 52.46634054], [13.42129824, 52.46621483], [13.42101473, 52.46616669], [13.42087253, 52.46614357], [13.42062341, 52.46610516], [13.42051143, 52.46608885], [13.42026602, 52.46605494], [13.42001447, 52.46602298], [13.41986944, 52.46600578], [13.41957874, 52.46597353], [13.41943313, 52.46595832], [13.4191415, 52.46592927], [13.41884957, 52.46590147], [13.416808826582999, 52.46571133663959]]}}, {"type": "Feature", "properties": {"id": "dd_s_und_fernbahn2022.5895", "importid": 5895, "typ": "S- und Fernbahn"}, "geometry": {"type": "LineString", "coordinates": [[13.43060226, 52.46759994], [13.42957173, 52.46744471], [13.42929383, 52.46740354], [13.42887604, 52.46734427], [13.42859689, 52.46730642], [13.42831728, 52.46726988], [13.42803721, 52.46723468], [13.42775669, 52.4672008], [13.42676935, 52.46708563], [13.42477888, 52.46684328], [13.42449106, 52.4668081], [13.42417985, 52.46676873], [13.4240246, 52.46674804], [13.4238697, 52.46672638], [13.42372236, 52.46670463], [13.42357118, 52.46668103], [13.42342482, 52.46665695], [13.4232832, 52.46663253], [13.42314202, 52.46660725], [13.42286065, 52.46655459], [13.42173972, 52.46633517], [13.42145843, 52.46628237], [13.42117605, 52.4662318], [13.42103435, 52.46620759], [13.42087517, 52.46618143], [13.42067029, 52.4661495], [13.42052098, 52.46612737], [13.42038118, 52.46610764], [13.4201647, 52.46607869], [13.42000321, 52.46605849], [13.41971411, 52.46602495], [13.41942421, 52.46599405], [13.41913379, 52.46596511], [13.41884304, 52.4659374], [13.416800889770252, 52.46574702938041]]}}, {"type": "Feature", "properties": {"id": "dd_s_und_fernbahn2022.5905", "importid": 5905, "typ": "S- und Fernbahn"}, "geometry": {"type": "LineString", "coordinates": [[13.44488791, 52.46962949], [13.44504249, 52.46965347], [13.44519649, 52.4696788], [13.44542635, 52.46971931], [13.44557877, 52.46974797], [13.44612049, 52.46985421], [13.4462624, 52.46988037], [13.44637388, 52.4699], [13.44654785, 52.46992922], [13.44680019, 52.46996833], [13.44799043, 52.4701463]]}}]}