{
"type": "FeatureCollection",
"name": "de_strassen_oberirdischeubahn2022_neukoelln",
"crs": { "type": "name", "properties": { "name": "urn:ogc:def:crs:OGC:1.3:CRS84" } },
"features": [
{ "type": "Feature", "properties": { "id": "de_strassen_oberirdischeubahn2022.196", "importid": 196, "name": "Track_6035", "gruppe_txt": "U-Bahn" }, "geometry": { "type": "LineString", "coordinates": [ [ 13.4494761, 52.43508368 ], [ 13.44980654, 52.43454086 ], [ 13.4498554, 52.43425785 ], [ 13.44976118, 52.4339565 ], [ 13.44957488, 52.43371983 ], [ 13.44922028, 52.43350107 ], [ 13.44865026, 52.43336366 ], [ 13.44813489, 52.4333752 ], [ 13.44749206, 52.43352048 ], [ 13.44484158, 52.43462117 ], [ 13.44390503, 52.43485631 ], [ 13.44210267, 52.43518106 ], [ 13.44244667, 52.43558321 ], [ 13.44120246, 52.43604039 ], [ 13.44151077, 52.43635382 ], [ 13.44327864, 52.43570421 ], [ 13.44439458, 52.43501328 ], [ 13.44489878, 52.43465941 ], [ 13.44688431, 52.43386019 ], [ 13.44749629, 52.43375533 ], [ 13.44807318, 52.43377184 ], [ 13.44854322, 52.4339165 ], [ 13.44894281, 52.43419427 ], [ 13.449091, 52.43455363 ], [ 13.44911098, 52.43481749 ], [ 13.44895403, 52.4351237 ] ] } }
]
}
