{"type": "FeatureCollection", "name": "df_laermschutzeinrichtung2022_neukoelln", "features": [{"type": "Feature", "properties": {"id": "df_laermschutzeinrichtung2022.405", "importid": 405, "typ": "Lärmschutzeinrichtung"}, "geometry": {"type": "MultiLineString", "coordinates": [[[13.523384589258432, 52.41176523378659], [13.52338089, 52.41173938], [13.52336264, 52.41162254], [13.52334452, 52.41151612], [13.523343959902581, 52.41151295022156]], [[13.523196564929382, 52.41082216166925], [13.52319188, 52.41080307], [13.523168913199973, 52.41071357479059]]]}}, {"type": "Feature", "properties": {"id": "df_laermschutzeinrichtung2022.419", "importid": 419, "typ": "Lärmschutzeinrichtung"}, "geometry": {"type": "LineString", "coordinates": [[13.44132843, 52.46301241], [13.44130505, 52.46300995], [13.44120094, 52.46300832]]}}, {"type": "Feature", "properties": {"id": "df_laermschutzeinrichtung2022.420", "importid": 420, "typ": "Lärmschutzeinrichtung"}, "geometry": {"type": "LineString", "coordinates": [[13.4411998, 52.46301087], [13.44122294, 52.46258116]]}}, {"type": "Feature", "properties": {"id": "df_laermschutzeinrichtung2022.421", "importid": 421, "typ": "Lärmschutzeinrichtung"}, "geometry": {"type": "LineString", "coordinates": [[13.44122897, 52.46258505], [13.44130715, 52.46257208], [13.4413387, 52.4625691]]}}, {"type": "Feature", "properties": {"id": "df_laermschutzeinrichtung2022.422", "importid": 422, "typ": "Lärmschutzeinrichtung"}, "geometry": {"type": "LineString", "coordinates": [[13.44168854, 52.46281841], [13.44166132, 52.46281864], [13.44121067, 52.46280702]]}}, {"type": "Feature", "properties": {"id": "df_laermschutzeinrichtung2022.424", "importid": 424, "typ": "Lärmschutzeinrichtung"}, "geometry": {"type": "LineString", "coordinates": [[13.44875691, 52.46348519], [13.44885836, 52.4635025], [13.44900216, 52.46352725], [13.4491042, 52.46354475], [13.44921491, 52.46356406], [13.4492846, 52.46357593], [13.44949765, 52.46361292], [13.44979832, 52.46366549], [13.44993889, 52.46368952], [13.45022163, 52.46373838], [13.45043408, 52.46377554], [13.45053774, 52.46379322], [13.45071713, 52.46382224], [13.45088799, 52.46384892]]}}, {"type": "Feature", "properties": {"id": "df_laermschutzeinrichtung2022.425", "importid": 425, "typ": "Lärmschutzeinrichtung"}, "geometry": {"type": "LineString", "coordinates": [[13.44494885, 52.46319524], [13.44498445, 52.46319808], [13.44504871, 52.46320555], [13.44522564, 52.46322406], [13.44557359, 52.46326306], [13.44579315, 52.46328973], [13.44607593, 52.46332745], [13.44628811, 52.46335743], [13.44657544, 52.46339948], [13.44707803, 52.4634742], [13.44732468, 52.46349113]]}}, {"type": "Feature", "properties": {"id": "df_laermschutzeinrichtung2022.426", "importid": 426, "typ": "Lärmschutzeinrichtung"}, "geometry": {"type": "LineString", "coordinates": [[13.45183748, 52.46421222], [13.45172758, 52.46420774], [13.45162638, 52.46420211], [13.45152327, 52.46419477], [13.45141398, 52.46418508], [13.45132339, 52.46417524], [13.4511153, 52.46414806], [13.450904, 52.46411593], [13.45069315, 52.46408075], [13.45058831, 52.46406289], [13.45056273, 52.46405791]]}}, {"type": "Feature", "properties": {"id": "df_laermschutzeinrichtung2022.427", "importid": 427, "typ": "Lärmschutzeinrichtung"}, "geometry": {"type": "LineString", "coordinates": [[13.45088799, 52.46384892], [13.45088636, 52.46385359], [13.45102796, 52.46387393], [13.45103019, 52.46386908], [13.45113975, 52.46388362], [13.45121122, 52.46389226], [13.45128196, 52.46390054], [13.45128359, 52.46389677], [13.45142964, 52.46390993], [13.45142904, 52.46391406], [13.4515598, 52.46392387], [13.45165085, 52.46392958], [13.45172691, 52.46393185], [13.45188846, 52.46393397]]}}, {"type": "Feature", "properties": {"id": "df_laermschutzeinrichtung2022.428", "importid": 428, "typ": "Lärmschutzeinrichtung"}, "geometry": {"type": "LineString", "coordinates": [[13.44744434, 52.46297878], [13.44738817, 52.46296971], [13.44731745, 52.46295711], [13.44726937, 52.46295039], [13.44719746, 52.46294237], [13.44712421, 52.46293651], [13.44705067, 52.46293083], [13.44697668, 52.46292604], [13.44690447, 52.46291775], [13.44682669, 52.46290559], [13.44668936, 52.46288454], [13.44654688, 52.46286266], [13.44640321, 52.46284222], [13.44625999, 52.46282205], [13.44611809, 52.4628027], [13.44597516, 52.46278405], [13.44561324, 52.46274189], [13.44550074, 52.4627304], [13.44543985, 52.46272419]]}}, {"type": "Feature", "properties": {"id": "df_laermschutzeinrichtung2022.429", "importid": 429, "typ": "Lärmschutzeinrichtung"}, "geometry": {"type": "LineString", "coordinates": [[13.44816283, 52.46364891], [13.44821576, 52.4636648], [13.4485132, 52.46371784], [13.44876256, 52.46376342], [13.44897368, 52.46380355], [13.4492214, 52.46385209], [13.44942942, 52.463895], [13.44969168, 52.46395156], [13.44991365, 52.46400213], [13.45038814, 52.46411669], [13.45063774, 52.46417674], [13.45076489, 52.46420496], [13.45087016, 52.46422633], [13.45100278, 52.46424863], [13.45113924, 52.46427067], [13.45123983, 52.46428269], [13.45134572, 52.46429345], [13.45144765, 52.46430196], [13.45155783, 52.46430886], [13.4517023, 52.4643124], [13.45176645, 52.46431258], [13.45183767, 52.46431161]]}}, {"type": "Feature", "properties": {"id": "df_laermschutzeinrichtung2022.430", "importid": 430, "typ": "Lärmschutzeinrichtung"}, "geometry": {"type": "LineString", "coordinates": [[13.45183767, 52.46431161], [13.45189565, 52.46431053], [13.45194406, 52.46431015], [13.45200498, 52.46430745], [13.45209313, 52.46430372], [13.45216745, 52.46429897], [13.45226547, 52.46429058], [13.45236439, 52.46428084], [13.45244079, 52.46427197], [13.45254811, 52.46425487]]}}, {"type": "Feature", "properties": {"id": "df_laermschutzeinrichtung2022.431", "importid": 431, "typ": "Lärmschutzeinrichtung"}, "geometry": {"type": "LineString", "coordinates": [[13.45188846, 52.46393397], [13.45196408, 52.46393391], [13.45205148, 52.46393287], [13.45211491, 52.46393017], [13.45217878, 52.46392757], [13.45226811, 52.46392123], [13.45235082, 52.46391533], [13.45242781, 52.46390709], [13.45252039, 52.46389698], [13.45261844, 52.46388311], [13.45271649, 52.46386716], [13.45283502, 52.46384487], [13.4529459, 52.46382293]]}}, {"type": "Feature", "properties": {"id": "df_laermschutzeinrichtung2022.432", "importid": 432, "typ": "Lärmschutzeinrichtung"}, "geometry": {"type": "LineString", "coordinates": [[13.45358134, 52.46375403], [13.45354509, 52.46376944]]}}, {"type": "Feature", "properties": {"id": "df_laermschutzeinrichtung2022.433", "importid": 433, "typ": "Lärmschutzeinrichtung"}, "geometry": {"type": "LineString", "coordinates": [[13.45328112, 52.46371597], [13.45336587, 52.46368502], [13.45339249, 52.46367434], [13.45344901, 52.46365304]]}}, {"type": "Feature", "properties": {"id": "df_laermschutzeinrichtung2022.434", "importid": 434, "typ": "Lärmschutzeinrichtung"}, "geometry": {"type": "LineString", "coordinates": [[13.45382305, 52.46421262], [13.45386546, 52.46424179], [13.45390538, 52.46426764], [13.45395675, 52.46429944], [13.45401211, 52.46432927], [13.45406996, 52.4643591], [13.45412885, 52.46438758], [13.45419084, 52.46441436], [13.45424768, 52.46443835], [13.45431115, 52.46446253], [13.45437433, 52.464485], [13.45444046, 52.46450594], [13.4545088, 52.46452644], [13.45457377, 52.46454406], [13.45464565, 52.46456106], [13.4547143, 52.46457581], [13.45478237, 52.46458948], [13.45488178, 52.46460508]]}}, {"type": "Feature", "properties": {"id": "df_laermschutzeinrichtung2022.435", "importid": 435, "typ": "Lärmschutzeinrichtung"}, "geometry": {"type": "LineString", "coordinates": [[13.45336755, 52.46323042], [13.45335825, 52.46327633], [13.45335293, 52.46332018], [13.45335049, 52.46334255], [13.45334849, 52.46336574], [13.45334825, 52.46338793], [13.45334887, 52.46340296]]}}, {"type": "Feature", "properties": {"id": "df_laermschutzeinrichtung2022.436", "importid": 436, "typ": "Lärmschutzeinrichtung"}, "geometry": {"type": "LineString", "coordinates": [[13.45367334, 52.46408245], [13.45364052, 52.46404825], [13.45360961, 52.46401298], [13.45357858, 52.46397043]]}}, {"type": "Feature", "properties": {"id": "df_laermschutzeinrichtung2022.437", "importid": 437, "typ": "Lärmschutzeinrichtung"}, "geometry": {"type": "LineString", "coordinates": [[13.45336593, 52.46356931], [13.45335564, 52.46352859], [13.45335031, 52.4635009]]}}, {"type": "Feature", "properties": {"id": "df_laermschutzeinrichtung2022.438", "importid": 438, "typ": "Lärmschutzeinrichtung"}, "geometry": {"type": "LineString", "coordinates": [[13.4413424, 52.46256915], [13.44143141, 52.46256241], [13.4415314, 52.46255921], [13.44165349, 52.46255856], [13.44175895, 52.46255768]]}}, {"type": "Feature", "properties": {"id": "df_laermschutzeinrichtung2022.439", "importid": 439, "typ": "Lärmschutzeinrichtung"}, "geometry": {"type": "LineString", "coordinates": [[13.44132843, 52.46301241], [13.44137079, 52.46301679], [13.44142211, 52.46302172], [13.44151346, 52.46302771], [13.44173394, 52.4630427]]}}, {"type": "Feature", "properties": {"id": "df_laermschutzeinrichtung2022.440", "importid": 440, "typ": "Lärmschutzeinrichtung"}, "geometry": {"type": "LineString", "coordinates": [[13.44173394, 52.4630427], [13.44181955, 52.46304787], [13.44190252, 52.46305123], [13.44198078, 52.46305387], [13.44207229, 52.46305653], [13.44216512, 52.4630582], [13.44226737, 52.4630598], [13.44245466, 52.46306063], [13.44259855, 52.46306103], [13.44273964, 52.46306251], [13.44291781, 52.46306467], [13.44308288, 52.46306655], [13.44327708, 52.46306973], [13.44343053, 52.46307248], [13.44353984, 52.46307516], [13.44376845, 52.46308271], [13.44393218, 52.46308907], [13.44398572, 52.46309131], [13.44408381, 52.46310261], [13.44412618, 52.46310474], [13.44424357, 52.46310968]]}}, {"type": "Feature", "properties": {"id": "df_laermschutzeinrichtung2022.441", "importid": 441, "typ": "Lärmschutzeinrichtung"}, "geometry": {"type": "LineString", "coordinates": [[13.44175891, 52.46255881], [13.44191062, 52.46255742], [13.4420696, 52.46255952], [13.4422304, 52.46256276], [13.44239123, 52.46256488], [13.44258916, 52.4625641], [13.44275423, 52.46257489], [13.4429774, 52.46257928], [13.44308495, 52.46258133], [13.44318455, 52.46258149], [13.44329697, 52.46257923], [13.44345986, 52.46257355], [13.44356948, 52.46257184], [13.44370336, 52.46257303], [13.44383988, 52.46257693], [13.44395933, 52.4625817], [13.44411055, 52.46258885], [13.44423367, 52.46259524], [13.44430064, 52.46260159], [13.44434429, 52.46260044], [13.44444726, 52.46260635], [13.44450417, 52.46261246], [13.44451785, 52.46261437]]}}, {"type": "Feature", "properties": {"id": "df_laermschutzeinrichtung2022.442", "importid": 442, "typ": "Lärmschutzeinrichtung"}, "geometry": {"type": "LineString", "coordinates": [[13.45413864, 52.46240909], [13.45417181, 52.4623917], [13.45422311, 52.4623668], [13.45425908, 52.46235004], [13.45432777, 52.4623159], [13.45440368, 52.46228034], [13.45446029, 52.46225166]]}}, {"type": "Feature", "properties": {"id": "df_laermschutzeinrichtung2022.443", "importid": 443, "typ": "Lärmschutzeinrichtung"}, "geometry": {"type": "LineString", "coordinates": [[13.45446029, 52.46225166], [13.45451203, 52.46222649], [13.45458118, 52.46218866], [13.45466169, 52.46214412], [13.45472613, 52.46210575], [13.4548158, 52.46204998], [13.45488439, 52.46200461], [13.45496081, 52.46195071], [13.45508946, 52.46185923], [13.4551867, 52.46178622], [13.4552354, 52.46174864], [13.45533356, 52.46166547], [13.4553966, 52.4616094]]}}, {"type": "Feature", "properties": {"id": "df_laermschutzeinrichtung2022.444", "importid": 444, "typ": "Lärmschutzeinrichtung"}, "geometry": {"type": "LineString", "coordinates": [[13.4553966, 52.4616094], [13.45547015, 52.46153761], [13.45550974, 52.46149606], [13.45553678, 52.46146599], [13.45556961, 52.46138224]]}}, {"type": "Feature", "properties": {"id": "df_laermschutzeinrichtung2022.503", "importid": 503, "typ": "Lärmschutzeinrichtung"}, "geometry": {"type": "LineString", "coordinates": [[13.45711689, 52.47825159], [13.45712947, 52.47830885]]}}, {"type": "Feature", "properties": {"id": "df_laermschutzeinrichtung2022.504", "importid": 504, "typ": "Lärmschutzeinrichtung"}, "geometry": {"type": "LineString", "coordinates": [[13.45754616, 52.47811282], [13.45754665, 52.47806141]]}}, {"type": "Feature", "properties": {"id": "df_laermschutzeinrichtung2022.505", "importid": 505, "typ": "Lärmschutzeinrichtung"}, "geometry": {"type": "LineString", "coordinates": [[13.45767271, 52.47873299], [13.45765836, 52.47863861]]}}, {"type": "Feature", "properties": {"id": "df_laermschutzeinrichtung2022.506", "importid": 506, "typ": "Lärmschutzeinrichtung"}, "geometry": {"type": "LineString", "coordinates": [[13.45724784, 52.47891391], [13.45723254, 52.47883579]]}}, {"type": "Feature", "properties": {"id": "df_laermschutzeinrichtung2022.507", "importid": 507, "typ": "Lärmschutzeinrichtung"}, "geometry": {"type": "LineString", "coordinates": [[13.45681194, 52.47706769], [13.45685927, 52.47729774], [13.45697678, 52.477908], [13.45702241, 52.47821281]]}}, {"type": "Feature", "properties": {"id": "df_laermschutzeinrichtung2022.508", "importid": 508, "typ": "Lärmschutzeinrichtung"}, "geometry": {"type": "LineString", "coordinates": [[13.45600195, 52.47365708], [13.45596908, 52.47359377]]}}, {"type": "Feature", "properties": {"id": "df_laermschutzeinrichtung2022.509", "importid": 509, "typ": "Lärmschutzeinrichtung"}, "geometry": {"type": "LineString", "coordinates": [[13.45619857, 52.47403669], [13.45616201, 52.47393904]]}}, {"type": "Feature", "properties": {"id": "df_laermschutzeinrichtung2022.510", "importid": 510, "typ": "Lärmschutzeinrichtung"}, "geometry": {"type": "LineString", "coordinates": [[13.47029685, 52.47018371], [13.46982897, 52.470121], [13.46907707, 52.47002348], [13.46843933, 52.46993447], [13.46768084, 52.46982948], [13.46699894, 52.46974517]]}}, {"type": "Feature", "properties": {"id": "df_laermschutzeinrichtung2022.562", "importid": 562, "typ": "Lärmschutzeinrichtung"}, "geometry": {"type": "LineString", "coordinates": [[13.45188205, 52.46376699], [13.45156, 52.46376193], [13.45144274, 52.46376077], [13.45118159, 52.46375769], [13.451107, 52.46375614], [13.45107169, 52.46375537]]}}, {"type": "Feature", "properties": {"id": "df_laermschutzeinrichtung2022.564", "importid": 564, "typ": "Lärmschutzeinrichtung"}, "geometry": {"type": "LineString", "coordinates": [[13.43424822, 52.46237018], [13.43388071, 52.4623328], [13.43351228, 52.46230272], [13.43318075, 52.46228142], [13.4329682, 52.46227074], [13.43277897, 52.46226057]]}}, {"type": "Feature", "properties": {"id": "df_laermschutzeinrichtung2022.565", "importid": 565, "typ": "Lärmschutzeinrichtung"}, "geometry": {"type": "LineString", "coordinates": [[13.43415744, 52.46227312], [13.43389918, 52.46224728], [13.43353606, 52.46221532], [13.43320452, 52.46219546], [13.4329771, 52.46218583], [13.43279871, 52.46217898]]}}, {"type": "Feature", "properties": {"id": "df_laermschutzeinrichtung2022.566", "importid": 566, "typ": "Lärmschutzeinrichtung"}, "geometry": {"type": "LineString", "coordinates": [[13.43230839, 52.46186717], [13.43285482, 52.46188979], [13.43348391, 52.46192712], [13.43403367, 52.46197304], [13.43441106, 52.46201047]]}}, {"type": "Feature", "properties": {"id": "df_laermschutzeinrichtung2022.579", "importid": 579, "typ": "Lärmschutzeinrichtung"}, "geometry": {"type": "LineString", "coordinates": [[13.43230832, 52.46178384], [13.43279003, 52.46180134], [13.4331159, 52.46180359], [13.4335266, 52.46182151], [13.43403623, 52.46185973], [13.43437507, 52.46189377]]}}]}