{
"type": "FeatureCollection",
"name": "fgue_neukoelln",
"crs": { "type": "name", "properties": { "name": "urn:ogc:def:crs:OGC:1.3:CRS84" } },
"features": [
{ "type": "Feature", "properties": { "id": "fgue.2", "gid": 2, "kennz": "FGUE-804", "bezirk": "Nk", "plz": "12051", "strasse": "Silbersteinstraße", "hausnr": "42", "jahr": 2002, "lage": "westlich Hertastraße", "grund": "Schulwegsicherung", "besond": null, "kosten": 10500.0, "fahrbahn": "10", "breite": "4", "fg": "k.A.", "kfz": "k.A." }, "geometry": { "type": "Point", "coordinates": [ 13.43447734, 52.4667283 ] } },
{ "type": "Feature", "properties": { "id": "fgue.222", "gid": 222, "kennz": "FGUE-801", "bezirk": "Nk", "plz": "12355", "strasse": "Zittauer Straße", "hausnr": "132", "jahr": 2001, "lage": "Groß Ziethener Chaussee", "grund": "Schulwegsicherung", "besond": null, "kosten": 10200.0, "fahrbahn": "6", "breite": "4", "fg": "k. A.", "kfz": "k.A." }, "geometry": { "type": "Point", "coordinates": [ 13.48818499, 52.41338149 ] } },
{ "type": "Feature", "properties": { "id": "fgue.223", "gid": 223, "kennz": "FGUE-802", "bezirk": "Nk", "plz": "12355", "strasse": "Groß Ziethener Chaussee", "hausnr": "145", "jahr": 2001, "lage": "vor Kita", "grund": "Kita", "besond": null, "kosten": 10500.0, "fahrbahn": "2 x 2,6 Fb; 2,5 MI", "breite": "5", "fg": "k. A.", "kfz": "ca. 600" }, "geometry": { "type": "Point", "coordinates": [ 13.47614151, 52.40937664 ] } },
{ "type": "Feature", "properties": { "id": "fgue.224", "gid": 224, "kennz": "FGUE-803", "bezirk": "Nk", "plz": "12353", "strasse": "Ringslebenstraße", "hausnr": "81", "jahr": 2002, "lage": "westlich Reinowzeile", "grund": "Seniorenheim", "besond": null, "kosten": 12000.0, "fahrbahn": "7 Fb; 2 x 2,5 GWV", "breite": "5", "fg": "k.A.", "kfz": "k.A." }, "geometry": { "type": "Point", "coordinates": [ 13.44506282, 52.41761767 ] } },
{ "type": "Feature", "properties": { "id": "fgue.225", "gid": 225, "kennz": "FGUE-805", "bezirk": "Nk", "plz": "12359", "strasse": "Ortolanweg", "hausnr": "94", "jahr": 2003, "lage": "i. H. Hochspannungsweg", "grund": "Schulwegsicherung", "besond": null, "kosten": 17500.0, "fahrbahn": "2 x 3,25 Fb; 2,5 MI", "breite": "4", "fg": "ca. 60", "kfz": "< 400" }, "geometry": { "type": "Point", "coordinates": [ 13.46882652, 52.44003978 ] } },
{ "type": "Feature", "properties": { "id": "fgue.226", "gid": 226, "kennz": "FGUE-806", "bezirk": "Nk", "plz": "12355", "strasse": "Köpenicker Str.", "hausnr": "148", "jahr": 2003, "lage": "westlich Selgenauer Weg", "grund": "Schulwegsicherung", "besond": null, "kosten": 16000.0, "fahrbahn": "6", "breite": "4", "fg": "ca. 70", "kfz": "< 400" }, "geometry": { "type": "Point", "coordinates": [ 13.50154315, 52.42038567 ] } },
{ "type": "Feature", "properties": { "id": "fgue.227", "gid": 227, "kennz": "FGUE-807", "bezirk": "Nk", "plz": "12359", "strasse": "Fritz-Reuter-Allee", "hausnr": "150", "jahr": 2003, "lage": null, "grund": "Schulwegsicherung", "besond": null, "kosten": 24000.0, "fahrbahn": "2 x 3 Fb; 3 MI", "breite": "4", "fg": "ca. 80", "kfz": "ca. 500" }, "geometry": { "type": "Point", "coordinates": [ 13.44670086, 52.44000801 ] } },
{ "type": "Feature", "properties": { "id": "fgue.228", "gid": 228, "kennz": "FGUE-808", "bezirk": "Nk", "plz": "12051", "strasse": "Silbersteinstraße", "hausnr": "110", "jahr": 2003, "lage": null, "grund": "Schulwegsicherung", "besond": null, "kosten": 27000.0, "fahrbahn": "10", "breite": "4", "fg": "ca. 70", "kfz": "< 900" }, "geometry": { "type": "Point", "coordinates": [ 13.42636676, 52.46577564 ] } },
{ "type": "Feature", "properties": { "id": "fgue.229", "gid": 229, "kennz": "FGUE-809", "bezirk": "Nk", "plz": "12059", "strasse": "Harzer Straße", "hausnr": "39", "jahr": 2004, "lage": "westlich Brockenstraße", "grund": "Schulwegsicherung", "besond": "lange Mittelinsel, Vorbeifahren an haltendem Bus nicht möglich", "kosten": 30700.0, "fahrbahn": "2 x 4,25 Fb; 3,5 MI", "breite": "5", "fg": "ca. 100", "kfz": "< 600" }, "geometry": { "type": "Point", "coordinates": [ 13.45125614, 52.48387088 ] } },
{ "type": "Feature", "properties": { "id": "fgue.230", "gid": 230, "kennz": "FGUE-810", "bezirk": "Nk", "plz": "12055", "strasse": "Saalestraße", "hausnr": "47", "jahr": 2006, "lage": "am S-Bf Sonnenallee", "grund": "ÖPNV-Umsteigpunkt", "besond": "Zugang S-Bf", "kosten": 63300.0, "fahrbahn": "2 x 3,5 Fb, 2,5 MI", "breite": "5", "fg": "> 100", "kfz": "ca. 850" }, "geometry": { "type": "Point", "coordinates": [ 13.45514869, 52.47288281 ] } },
{ "type": "Feature", "properties": { "id": "fgue.231", "gid": 231, "kennz": "FGUE-811", "bezirk": "Nk", "plz": "12347", "strasse": "Hannemannstraße", "hausnr": "38", "jahr": 2006, "lage": "Pintschallee / Riesestraße", "grund": "Schulwegsicherung", "besond": null, "kosten": 13200.0, "fahrbahn": "2 x 3,5 Fb, 2,5 MI", "breite": "4", "fg": "ca. 80", "kfz": "< 600" }, "geometry": { "type": "Point", "coordinates": [ 13.44407378, 52.45490517 ] } },
{ "type": "Feature", "properties": { "id": "fgue.232", "gid": 232, "kennz": "FGUE-812", "bezirk": "Nk", "plz": "12353", "strasse": "Wildhüterweg", "hausnr": "8", "jahr": 2006, "lage": "Am Buschfeld", "grund": "Schulwegsicherung", "besond": "Kita", "kosten": 12400.0, "fahrbahn": "5,5 Fb; 2 x 1,5 GWV", "breite": "4", "fg": "ca. 50", "kfz": "< 600" }, "geometry": { "type": "Point", "coordinates": [ 13.4558924, 52.42190376 ] } },
{ "type": "Feature", "properties": { "id": "fgue.233", "gid": 233, "kennz": "FGUE-813", "bezirk": "Nk", "plz": "12053", "strasse": "Morusstraße", "hausnr": "32", "jahr": 2007, "lage": null, "grund": "Schulwegsicherung", "besond": "T-30-Zone", "kosten": 0.0, "fahrbahn": "6 Fb + 2 x 2,5 GWV", "breite": "4", "fg": "140", "kfz": "148" }, "geometry": { "type": "Point", "coordinates": [ 13.43356645, 52.47584094 ] } },
{ "type": "Feature", "properties": { "id": "fgue.234", "gid": 234, "kennz": "FGUE-814", "bezirk": "Nk", "plz": "12359", "strasse": "Fulhamer Allee", "hausnr": "34", "jahr": 2008, "lage": null, "grund": "Schulwegsicherung", "besond": null, "kosten": 0.0, "fahrbahn": "6 Fb", "breite": "4", "fg": "43", "kfz": "575" }, "geometry": { "type": "Point", "coordinates": [ 13.44010008, 52.44782192 ] } },
{ "type": "Feature", "properties": { "id": "fgue.235", "gid": 235, "kennz": "FGUE-815", "bezirk": "Nk", "plz": "12059", "strasse": "Treptower Straße", "hausnr": "10", "jahr": 2008, "lage": "Stuttgarter Straße", "grund": "Schulwegsicherung", "besond": null, "kosten": 0.0, "fahrbahn": "6 Fb, 2 x 2,5 GWV", "breite": "3", "fg": "175", "kfz": "492" }, "geometry": { "type": "Point", "coordinates": [ 13.44871061, 52.47855742 ] } },
{ "type": "Feature", "properties": { "id": "fgue.236", "gid": 236, "kennz": "FGUE-816", "bezirk": "Nk", "plz": "12051", "strasse": "Mariendorfer Weg", "hausnr": "69/70", "jahr": 2009, "lage": null, "grund": "Schulwegsicherung", "besond": null, "kosten": 0.0, "fahrbahn": "7 Fb, 2 x 2 GWV", "breite": "4", "fg": "317", "kfz": "854" }, "geometry": { "type": "Point", "coordinates": [ 13.43049449, 52.46433825 ] } },
{ "type": "Feature", "properties": { "id": "fgue.237", "gid": 237, "kennz": "FGUE-817", "bezirk": "Nk", "plz": "12053", "strasse": "Reuterstraße", "hausnr": "9", "jahr": 2009, "lage": "Sasarsteig", "grund": "Schulwegsicherung", "besond": "Tempo-30-Zone", "kosten": 0.0, "fahrbahn": "6 Fb, 2 x 2,5 GWV", "breite": "4", "fg": "169", "kfz": "336" }, "geometry": { "type": "Point", "coordinates": [ 13.42897528, 52.48255433 ] } },
{ "type": "Feature", "properties": { "id": "fgue.238", "gid": 238, "kennz": "FGUE-818", "bezirk": "Nk", "plz": "12347", "strasse": "Mohriner Allee", "hausnr": "82", "jahr": 2009, "lage": "Am Kienpfuhl", "grund": "Zugang Britzer Park", "besond": "Aufweitung für MI", "kosten": 0.0, "fahrbahn": "2 x 3 Fb, 2,5 MI", "breite": "4", "fg": "25", "kfz": "1155" }, "geometry": { "type": "Point", "coordinates": [ 13.42201326, 52.44119278 ] } },
{ "type": "Feature", "properties": { "id": "fgue.413", "gid": 413, "kennz": "FGUE-12205", "bezirk": "Nk", "plz": "12055", "strasse": "Saalestraße", "hausnr": "72", "jahr": 2012, "lage": "Wipperstraße", "grund": "Zugang zum S-Bf Neukölln", "besond": "\\N", "kosten": 45000.0, "fahrbahn": "6,5 m", "breite": "4 m", "fg": "200", "kfz": "600" }, "geometry": { "type": "Point", "coordinates": [ 13.44475373, 52.47007936 ] } },
{ "type": "Feature", "properties": { "id": "fgue.430", "gid": 430, "kennz": "FGUE-12219", "bezirk": "Nk", "plz": "12047", "strasse": "Reuterstraße", "hausnr": "56 + 57", "jahr": 2013, "lage": "Weserstraße", "grund": "Spielplatz, zentraler Kietzplatz", "besond": "2 FGÜ", "kosten": 59000.0, "fahrbahn": "6 m + 4 (4,5) m + 2 (2,5) m MI", "breite": "je 4 m", "fg": "290 / 130", "kfz": "365" }, "geometry": { "type": "Point", "coordinates": [ 13.42899923, 52.48830297 ] } },
{ "type": "Feature", "properties": { "id": "fgue.432", "gid": 432, "kennz": "FGUE-12217", "bezirk": "Nk", "plz": "12359", "strasse": "Ballinstraße", "hausnr": "12", "jahr": 2013, "lage": "Woermannkehre", "grund": "Querungshilfe erforderlich", "besond": "\\N", "kosten": 47500.0, "fahrbahn": "8 m + 2 x 2 m GWV", "breite": "4 m", "fg": "130", "kfz": "300" }, "geometry": { "type": "Point", "coordinates": [ 13.44927704, 52.46188483 ] } },
{ "type": "Feature", "properties": { "id": "fgue.433", "gid": 433, "kennz": "FGUE-12216", "bezirk": "Nk", "plz": "12049", "strasse": "Karlsgartenstraße", "hausnr": "12", "jahr": 2013, "lage": "Fontanestraße", "grund": "Schulwegsicherung", "besond": "FGÜ kombiniert mit markierten GWV", "kosten": 57500.0, "fahrbahn": "5,5 m + 2 x 2,75 m GWV", "breite": "4 m", "fg": "100", "kfz": "130" }, "geometry": { "type": "Point", "coordinates": [ 13.42137773, 52.48192633 ] } },
{ "type": "Feature", "properties": { "id": "fgue.515", "gid": 515, "kennz": "FGUE-12245", "bezirk": "Nk", "plz": "12059", "strasse": "Treptower Straße", "hausnr": "69", "jahr": 2014, "lage": "Harzer Straße", "grund": "Zugang Spielplatz", "besond": "\\N", "kosten": 31700.0, "fahrbahn": "6 m", "breite": "4 m", "fg": "200", "kfz": "440" }, "geometry": { "type": "Point", "coordinates": [ 13.45409641, 52.48263889 ] } },
{ "type": "Feature", "properties": { "id": "fgue.554", "gid": 554, "kennz": "FGUE-12290", "bezirk": "Nk", "plz": "12051", "strasse": "Thomasstraße", "hausnr": "32", "jahr": 2015, "lage": "Selkestraße", "grund": "Schulwegsicherung", "besond": "\\N", "kosten": 72500.0, "fahrbahn": "3,5 m", "breite": "6 m", "fg": "ca. 90", "kfz": "ca. 300" }, "geometry": { "type": "Point", "coordinates": [ 13.43593448, 52.47276807 ] } },
{ "type": "Feature", "properties": { "id": "fgue.1494826", "gid": 1494826, "kennz": "FGUE-12311", "bezirk": "Nk", "plz": "12349", "strasse": "Alt-Buckow", "hausnr": "41", "jahr": 2016, "lage": "\\N", "grund": "Kita, Gemeindezentrum", "besond": "\\N", "kosten": 43000.0, "fahrbahn": "9 m", "breite": "4 m", "fg": "26", "kfz": "1160" }, "geometry": { "type": "Point", "coordinates": [ 13.43023548, 52.42151247 ] } },
{ "type": "Feature", "properties": { "id": "fgue.1494843", "gid": 1494843, "kennz": "FGUE-12331", "bezirk": "Nk", "plz": "12047", "strasse": "Friedelstraße", "hausnr": "23", "jahr": 2017, "lage": "Pflügerstraße", "grund": "Schulwegsicherung", "besond": "\\N", "kosten": 68700.0, "fahrbahn": "6,5 m", "breite": "4 m", "fg": "ca. 80", "kfz": "ca. 300" }, "geometry": { "type": "Point", "coordinates": [ 13.42790467, 52.49158817 ] } },
{ "type": "Feature", "properties": { "id": "fgue.1494852", "gid": 1494852, "kennz": "FGUE-12340", "bezirk": "Nk", "plz": "12351", "strasse": "Lipschitzallee", "hausnr": "25", "jahr": 2017, "lage": "Efeuweg", "grund": "Schulweg, Zugang Bus-Haltestelle, Wohnstätten-Werk", "besond": "\\N", "kosten": 44000.0, "fahrbahn": "2 x 4,2 m", "breite": "5 m", "fg": "190", "kfz": "540" }, "geometry": { "type": "Point", "coordinates": [ 13.47158376, 52.43010971 ] } }
]
}
