{
"type": "FeatureCollection",
"name": "kuehle_raeume_neukoelln",
"crs": { "type": "name", "properties": { "name": "urn:ogc:def:crs:OGC:1.3:CRS84" } },
"features": [
{ "type": "Feature", "properties": { "id": 11, "kuehle_raeume": "Nachbarschaftstreff Waschhaus-Café", "adresse": "Eugen-Bolz-Kehre 12, 12351 Berlin", "bezirk": "Neukölln", "link": "https://www.berlin.de/hitzeschutz/bezirksaktivitaeten/neukoelln/", "oeffnungszeiten": "Mo, Di, Do: 10:00 - 17:00 Uhr; \nMi, Fr: 10:00 - 15:00 Uhr", "barrierefreiheit": "barrierearm", "hinweis": "Es erfolgt keine medizinische Betreuung." }, "geometry": { "type": "Point", "coordinates": [ 13.468894, 52.42977704 ] } },
{ "type": "Feature", "properties": { "id": 12, "kuehle_raeume": "Bürgerzentrum Neukölln", "adresse": "Werbellinstraße 42, 12053 Berlin", "bezirk": "Neukölln", "link": "https://www.berlin.de/hitzeschutz/bezirksaktivitaeten/neukoelln/", "oeffnungszeiten": "Di, Mi: 9:00 - 15.00 Uhr; \nDo: 9:00 - 17:00 Uhr; \nFr: 9:00 - 14:00 Uhr", "barrierefreiheit": "barrierefrei", "hinweis": "Es erfolgt keine medizinische Betreuung." }, "geometry": { "type": "Point", "coordinates": [ 13.432212, 52.47849604 ] } },
{ "type": "Feature", "properties": { "id": 13, "kuehle_raeume": "Nachbarschaftshaus am Körnerpark", "adresse": "Schierker Str. 53a, 12051 Berlin", "bezirk": "Neukölln", "link": "https://www.berlin.de/hitzeschutz/bezirksaktivitaeten/neukoelln/", "oeffnungszeiten": "Mo - Fr: 9:00 - 18:00 Uhr", "barrierefreiheit": "barrierearm", "hinweis": "Es erfolgt keine medizinische Betreuung." }, "geometry": { "type": "Point", "coordinates": [ 13.441167, 52.47119204 ] } },
{ "type": "Feature", "properties": { "id": 14, "kuehle_raeume": "Nachbarschaftstreff Schillerkiez", "adresse": "Mahlower Str. 27, 12049 Berlin", "bezirk": "Neukölln", "link": "https://www.berlin.de/hitzeschutz/bezirksaktivitaeten/neukoelln/", "oeffnungszeiten": "Mo – Fr: 11:00 – 14:30 Uhr", "barrierefreiheit": "barrierefrei", "hinweis": "Es erfolgt keine medizinische Betreuung." }, "geometry": { "type": "Point", "coordinates": [ 13.423747, 52.47978804 ] } },
{ "type": "Feature", "properties": { "id": 15, "kuehle_raeume": "Quartiersmanagement Gropiusstadt Nord", "adresse": "Martin-Luther-King-Weg 6, 12353 Berlin", "bezirk": "Neukölln", "link": "https://www.berlin.de/hitzeschutz/bezirksaktivitaeten/neukoelln/", "oeffnungszeiten": "Mo - Do: 09:00 - 16:00 Uhr", "barrierefreiheit": "barrierefrei", "hinweis": "Es erfolgt keine medizinische Betreuung." }, "geometry": { "type": "Point", "coordinates": [ 13.455759, 52.42845604 ] } },
{ "type": "Feature", "properties": { "id": 16, "kuehle_raeume": "Seniorenfreizeitstätte Alt-Rudow 60a", "adresse": "Alt-Rudow 60a, 12355 Berlin", "bezirk": "Neukölln", "link": "https://www.berlin.de/hitzeschutz/bezirksaktivitaeten/neukoelln/", "oeffnungszeiten": "Mo-Do: 9 - 16:00 Uhr; \nFr: 9:00 - 12:00 Uhr", "barrierefreiheit": "barrierefrei", "hinweis": "Es erfolgt keine medizinische Betreuung." }, "geometry": { "type": "Point", "coordinates": [ 13.49684, 52.41670404 ] } },
{ "type": "Feature", "properties": { "id": 17, "kuehle_raeume": "Seniorenfreizeitstätte Gemeinschaftshaus Gropiusstadt", "adresse": "Bat-Yam-Platz 1, 12353 Berlin", "bezirk": "Neukölln", "link": "https://www.berlin.de/hitzeschutz/bezirksaktivitaeten/neukoelln/", "oeffnungszeiten": "Mo: 10:00 -14:00 Uhr; \nDi-Fr: 10:00 - 16:00 Uhr", "barrierefreiheit": "barrierefrei", "hinweis": "Es erfolgt keine medizinische Betreuung." }, "geometry": { "type": "Point", "coordinates": [ 13.462298, 52.42554504 ] } },
{ "type": "Feature", "properties": { "id": 18, "kuehle_raeume": "Stadtteilzentrum Köllnische Heide \"Mittendrin\"", "adresse": "Sonnenallee 319, 12057 Berlin", "bezirk": "Neukölln", "link": "https://www.berlin.de/hitzeschutz/bezirksaktivitaeten/neukoelln/", "oeffnungszeiten": "Mo: 13:00 - 16:00 Uhr;\nDi: 09:30 - 16:30 Uhr; \nMi: 9:30 – 18.00 Uhr; \nDo: 09:00 - 16:30 Uhr", "barrierefreiheit": "nicht barrierefrei", "hinweis": "Es erfolgt keine medizinische Betreuung." }, "geometry": { "type": "Point", "coordinates": [ 13.472858, 52.46544104 ] } },
{ "type": "Feature", "properties": { "id": 19, "kuehle_raeume": "Tee- und Wärmestube Neukölln", "adresse": "Weisestraße 34, 12049 Berlin", "bezirk": "Neukölln", "link": "https://www.berlin.de/hitzeschutz/bezirksaktivitaeten/neukoelln/", "oeffnungszeiten": "Mo, Mi, So:  15:00 - 19:00 Uhr; \nDi (Öffnungstag für Frauen): 10:00 - 15:00 Uhr; \nDo: 9:00 – 14:00 Uhr", "barrierefreiheit": "nicht barrierefrei", "hinweis": "Es erfolgt keine medizinische Betreuung." }, "geometry": { "type": "Point", "coordinates": [ 13.425172, 52.47393504 ] } },
{ "type": "Feature", "properties": { "id": 20, "kuehle_raeume": "Gertrud-Junge-Bibliothek", "adresse": "Bat-Yam-Platz 1, 12353 Berlin", "bezirk": "Neukölln", "link": "https://www.berlin.de/hitzeschutz/bezirksaktivitaeten/neukoelln/", "oeffnungszeiten": "Mo: 11:00 - 15:00 Uhr; \nDi-Do: 13:00 - 19:00 Uhr; \nFr: 11:00 - 15:00 Uhr", "barrierefreiheit": "barrierearm", "hinweis": "Es erfolgt keine medizinische Betreuung." }, "geometry": { "type": "Point", "coordinates": [ 13.462298, 52.42554504 ] } }
]
}
