{
"type": "FeatureCollection",
"name": "radfernwege_neukoelln",
"crs": { "type": "name", "properties": { "name": "urn:ogc:def:crs:OGC:1.3:CRS84" } },
"features": [
{ "type": "Feature", "properties": { "id": "radfernwege.52", "gisid": 52, "t_routen": "R1" }, "geometry": { "type": "MultiLineString", "coordinates": [ [ [ 13.47932461, 52.48451898 ], [ 13.47951565, 52.48448754 ], [ 13.48043952, 52.48345925 ], [ 13.48124878, 52.48256151 ] ] ] } },
{ "type": "Feature", "properties": { "id": "radfernwege.65", "gisid": 65, "t_routen": "B-DD,R1" }, "geometry": { "type": "MultiLineString", "coordinates": [ [ [ 13.46100338, 52.49233787 ], [ 13.4625844, 52.49186758 ], [ 13.46363296, 52.4915547 ], [ 13.46515989, 52.49110171 ], [ 13.46668691, 52.49064515 ], [ 13.46864522, 52.49005676 ], [ 13.47102278, 52.4893453 ], [ 13.47365416, 52.48856036 ], [ 13.47617942, 52.48779896 ], [ 13.47631273, 52.48774715 ], [ 13.47643156, 52.48769159 ] ] ] } },
{ "type": "Feature", "properties": { "id": "radfernwege.90", "gisid": 90, "t_routen": "B-DD" }, "geometry": { "type": "MultiLineString", "coordinates": [ [ [ 13.48055359, 52.48497958 ], [ 13.4812662, 52.48502619 ], [ 13.48324227, 52.48485658 ], [ 13.485602, 52.48470507 ], [ 13.4858635, 52.48465555 ], [ 13.48650688, 52.484677 ], [ 13.4867914, 52.48459512 ], [ 13.48716345, 52.48462922 ], [ 13.48781586, 52.48454504 ], [ 13.49031679, 52.48437872 ], [ 13.49088893, 52.48426706 ], [ 13.49103107, 52.48422591 ], [ 13.49116489, 52.48407986 ] ] ] } },
{ "type": "Feature", "properties": { "id": "radfernwege.107", "gisid": 107, "t_routen": "R1" }, "geometry": { "type": "MultiLineString", "coordinates": [ [ [ 13.48124878, 52.48256151 ], [ 13.48186277, 52.48187357 ], [ 13.48266526, 52.4809694 ], [ 13.48346254, 52.48008744 ] ] ] } },
{ "type": "Feature", "properties": { "id": "radfernwege.117", "gisid": 117, "t_routen": "B-DD,R1" }, "geometry": { "type": "MultiLineString", "coordinates": [ [ [ 13.49373182, 52.47630931 ], [ 13.49379728, 52.47607753 ], [ 13.4939828, 52.47457516 ] ] ] } },
{ "type": "Feature", "properties": { "id": "radfernwege.118", "gisid": 118, "t_routen": "B-DD,R1" }, "geometry": { "type": "MultiLineString", "coordinates": [ [ [ 13.4939828, 52.47457516 ], [ 13.49403753, 52.47399019 ] ] ] } },
{ "type": "Feature", "properties": { "id": "radfernwege.119", "gisid": 119, "t_routen": "B-DD,R1" }, "geometry": { "type": "MultiLineString", "coordinates": [ [ [ 13.49116489, 52.48407986 ], [ 13.49136108, 52.48394259 ], [ 13.49155314, 52.48371455 ], [ 13.491726, 52.48350356 ], [ 13.49191914, 52.48292054 ] ] ] } },
{ "type": "Feature", "properties": { "id": "radfernwege.122", "gisid": 122, "t_routen": "B-DD,R1" }, "geometry": { "type": "MultiLineString", "coordinates": [ [ [ 13.49237468, 52.48122977 ], [ 13.4925502, 52.48062517 ] ] ] } },
{ "type": "Feature", "properties": { "id": "radfernwege.123", "gisid": 123, "t_routen": "B-DD,R1" }, "geometry": { "type": "MultiLineString", "coordinates": [ [ [ 13.49312778, 52.47847172 ], [ 13.49373182, 52.47630931 ] ] ] } },
{ "type": "Feature", "properties": { "id": "radfernwege.124", "gisid": 124, "t_routen": "B-DD,R1" }, "geometry": { "type": "MultiLineString", "coordinates": [ [ [ 13.4925502, 52.48062517 ], [ 13.49312778, 52.47847172 ] ] ] } },
{ "type": "Feature", "properties": { "id": "radfernwege.129", "gisid": 129, "t_routen": "B-DD" }, "geometry": { "type": "MultiLineString", "coordinates": [ [ [ 13.47932461, 52.48451898 ], [ 13.47967709, 52.4845619 ], [ 13.48055359, 52.48497958 ] ] ] } },
{ "type": "Feature", "properties": { "id": "radfernwege.134", "gisid": 134, "t_routen": "B-DD,R1" }, "geometry": { "type": "MultiLineString", "coordinates": [ [ [ 13.49191914, 52.48292054 ], [ 13.4919518, 52.48282712 ], [ 13.49237468, 52.48122977 ] ] ] } },
{ "type": "Feature", "properties": { "id": "radfernwege.169", "gisid": 169, "t_routen": "B-DD,R1" }, "geometry": { "type": "MultiLineString", "coordinates": [ [ [ 13.47643156, 52.48769159 ], [ 13.47656554, 52.48762017 ], [ 13.47669443, 52.48752727 ], [ 13.47687879, 52.48735123 ], [ 13.47739538, 52.48677981 ], [ 13.47798434, 52.48614331 ], [ 13.47899771, 52.48502553 ], [ 13.4792762, 52.48470048 ], [ 13.47933073, 52.48459578 ], [ 13.47932461, 52.48451898 ] ] ] } }
]
}
