{
"type": "FeatureCollection",
"name": "stadtgruen_neukoelln",
"crs": { "type": "name", "properties": { "name": "urn:ogc:def:crs:OGC:1.3:CRS84" } },
"features": [
{ "type": "Feature", "properties": { "id": "stadtgruen.41", "gisid": 41, "verlauf_stadtgruen": "Radvorrangnetz" }, "geometry": { "type": "LineString", "coordinates": [ [ 13.45422685, 52.4286792 ], [ 13.45431064, 52.42856647 ], [ 13.45444152, 52.42838779 ], [ 13.45489259, 52.42806699 ], [ 13.45493862, 52.42803468 ], [ 13.45545976, 52.4277132 ] ] } },
{ "type": "Feature", "properties": { "id": "stadtgruen.43", "gisid": 43, "verlauf_stadtgruen": "Radvorrangnetz" }, "geometry": { "type": "LineString", "coordinates": [ [ 13.45496862, 52.44279829 ], [ 13.45502613, 52.44276428 ], [ 13.4554433, 52.44269502 ], [ 13.45590247, 52.44260941 ], [ 13.4559178, 52.44260714 ] ] } },
{ "type": "Feature", "properties": { "id": "stadtgruen.69", "gisid": 69, "verlauf_stadtgruen": "Radvorrangnetz" }, "geometry": { "type": "LineString", "coordinates": [ [ 13.41734236, 52.47561988 ], [ 13.41774187, 52.47563838 ], [ 13.41805588, 52.47577558 ], [ 13.41837647, 52.47594611 ], [ 13.41834872, 52.47606923 ], [ 13.41822454, 52.47649506 ], [ 13.4183969, 52.47667786 ] ] } },
{ "type": "Feature", "properties": { "id": "stadtgruen.74", "gisid": 74, "verlauf_stadtgruen": "Radvorrangnetz" }, "geometry": { "type": "LineString", "coordinates": [ [ 13.4511712, 52.43227497 ], [ 13.45107955, 52.43158809 ], [ 13.45109694, 52.43153546 ], [ 13.45112826, 52.43144492 ], [ 13.45116544, 52.43136527 ], [ 13.45120563, 52.43129532 ], [ 13.45127679, 52.43121581 ], [ 13.45133098, 52.43115684 ], [ 13.45137696, 52.43111996 ], [ 13.45143039, 52.43107711 ], [ 13.45150147, 52.4310283 ], [ 13.45159564, 52.4309724 ], [ 13.45173118, 52.43090402 ], [ 13.45177252, 52.4308849 ], [ 13.45195457, 52.43080069 ], [ 13.45210483, 52.43073119 ], [ 13.45245426, 52.43055652 ], [ 13.452762, 52.43040026 ], [ 13.45279511, 52.43037721 ], [ 13.45282292, 52.43035785 ], [ 13.45283597, 52.43030775 ], [ 13.45283836, 52.43023731 ], [ 13.45283463, 52.43017791 ], [ 13.45282241, 52.43011672 ], [ 13.45279301, 52.43005603 ], [ 13.4527495, 52.4299838 ], [ 13.4526986, 52.42990378 ], [ 13.45261647, 52.42978615 ], [ 13.45263211, 52.42977355 ], [ 13.45268531, 52.42972776 ] ] } },
{ "type": "Feature", "properties": { "id": "stadtgruen.75", "gisid": 75, "verlauf_stadtgruen": "Radvorrangnetz" }, "geometry": { "type": "LineString", "coordinates": [ [ 13.49736143, 52.4040287 ], [ 13.49735867, 52.4039664 ] ] } },
{ "type": "Feature", "properties": { "id": "stadtgruen.151", "gisid": 151, "verlauf_stadtgruen": "Radvorrangnetz" }, "geometry": { "type": "LineString", "coordinates": [ [ 13.414071911124324, 52.488053359399771 ], [ 13.41408563, 52.48755796 ] ] } },
{ "type": "Feature", "properties": { "id": "stadtgruen.153", "gisid": 153, "verlauf_stadtgruen": "Radvorrangnetz" }, "geometry": { "type": "LineString", "coordinates": [ [ 13.41567113, 52.48292458 ], [ 13.41593579, 52.48205873 ], [ 13.4160026, 52.48162929 ], [ 13.4160302, 52.48139748 ], [ 13.41594042, 52.48108818 ], [ 13.41576294, 52.48075193 ] ] } },
{ "type": "Feature", "properties": { "id": "stadtgruen.155", "gisid": 155, "verlauf_stadtgruen": "Radvorrangnetz" }, "geometry": { "type": "LineString", "coordinates": [ [ 13.41408563, 52.48755796 ], [ 13.41426985, 52.48720871 ], [ 13.41454402, 52.48682727 ], [ 13.41475519, 52.48638191 ], [ 13.41498257, 52.48531739 ], [ 13.41516782, 52.48444242 ], [ 13.41547266, 52.48348858 ], [ 13.41567113, 52.48292458 ] ] } },
{ "type": "Feature", "properties": { "id": "stadtgruen.162", "gisid": 162, "verlauf_stadtgruen": "Radvorrangnetz" }, "geometry": { "type": "MultiLineString", "coordinates": [ [ [ 13.42055838, 52.47101396 ], [ 13.42051976, 52.47098701 ] ], [ [ 13.42046318, 52.47094751 ], [ 13.42034093, 52.47086218 ], [ 13.42031738, 52.47074705 ] ] ] } },
{ "type": "Feature", "properties": { "id": "stadtgruen.163", "gisid": 163, "verlauf_stadtgruen": "Radvorrangnetz" }, "geometry": { "type": "LineString", "coordinates": [ [ 13.42031738, 52.47074705 ], [ 13.42032043, 52.47065791 ], [ 13.42033244, 52.47060079 ] ] } },
{ "type": "Feature", "properties": { "id": "stadtgruen.164", "gisid": 164, "verlauf_stadtgruen": "Radvorrangnetz" }, "geometry": { "type": "MultiLineString", "coordinates": [ [ [ 13.4202037, 52.4719235 ], [ 13.42023561, 52.47190668 ] ], [ [ 13.42055651, 52.47102011 ], [ 13.42055838, 52.47101396 ] ] ] } },
{ "type": "Feature", "properties": { "id": "stadtgruen.175", "gisid": 175, "verlauf_stadtgruen": "Radvorrangnetz" }, "geometry": { "type": "LineString", "coordinates": [ [ 13.4417661, 52.44137143 ], [ 13.44207044, 52.44174126 ], [ 13.44248782, 52.44207597 ] ] } },
{ "type": "Feature", "properties": { "id": "stadtgruen.181", "gisid": 181, "verlauf_stadtgruen": "Radvorrangnetz" }, "geometry": { "type": "LineString", "coordinates": [ [ 13.4417661, 52.44137143 ], [ 13.44367531, 52.44056379 ] ] } },
{ "type": "Feature", "properties": { "id": "stadtgruen.184", "gisid": 184, "verlauf_stadtgruen": "Radvorrangnetz" }, "geometry": { "type": "LineString", "coordinates": [ [ 13.45545976, 52.4277132 ], [ 13.45555436, 52.42770821 ], [ 13.45615632, 52.4277357 ], [ 13.45617347, 52.42773648 ], [ 13.45673234, 52.42776553 ], [ 13.4568621, 52.42775657 ], [ 13.45703541, 52.42770812 ], [ 13.45755747, 52.42742163 ], [ 13.45759488, 52.42735393 ], [ 13.45759946, 52.42734563 ], [ 13.45792762, 52.42716743 ], [ 13.45806918, 52.42709056 ], [ 13.4587515, 52.42672261 ], [ 13.45878557, 52.42670424 ], [ 13.45887104, 52.42666989 ], [ 13.45913937, 52.42656203 ], [ 13.45943388, 52.42644365 ], [ 13.45946562, 52.42641117 ], [ 13.45946982, 52.42639421 ], [ 13.4594815, 52.42590202 ] ] } },
{ "type": "Feature", "properties": { "id": "stadtgruen.185", "gisid": 185, "verlauf_stadtgruen": "Radvorrangnetz" }, "geometry": { "type": "LineString", "coordinates": [ [ 13.42108008, 52.42442437 ], [ 13.42127605, 52.42432495 ], [ 13.42128219, 52.4243198 ] ] } },
{ "type": "Feature", "properties": { "id": "stadtgruen.189", "gisid": 189, "verlauf_stadtgruen": "Radvorrangnetz" }, "geometry": { "type": "MultiLineString", "coordinates": [ [ [ 13.41513378, 52.4230016 ], [ 13.41533202, 52.42294044 ], [ 13.41731127, 52.42345145 ] ], [ [ 13.41764817, 52.42353843 ], [ 13.41810514, 52.4236564 ] ], [ [ 13.41882735, 52.42384284 ], [ 13.42108008, 52.42442437 ] ] ] } },
{ "type": "Feature", "properties": { "id": "stadtgruen.194", "gisid": 194, "verlauf_stadtgruen": "Radvorrangnetz" }, "geometry": { "type": "LineString", "coordinates": [ [ 13.44367531, 52.44056379 ], [ 13.44385669, 52.44044185 ], [ 13.44442132, 52.43974355 ], [ 13.4444228, 52.43974176 ] ] } },
{ "type": "Feature", "properties": { "id": "stadtgruen.197", "gisid": 197, "verlauf_stadtgruen": "Radvorrangnetz" }, "geometry": { "type": "LineString", "coordinates": [ [ 13.44550722, 52.43685718 ], [ 13.44546748, 52.43671573 ], [ 13.44549645, 52.43646145 ], [ 13.44559388, 52.43636814 ], [ 13.4470972, 52.43586896 ], [ 13.44844678, 52.43556455 ], [ 13.44940635, 52.43534581 ], [ 13.45061961, 52.43455768 ] ] } },
{ "type": "Feature", "properties": { "id": "stadtgruen.200", "gisid": 200, "verlauf_stadtgruen": "Radvorrangnetz" }, "geometry": { "type": "LineString", "coordinates": [ [ 13.45061961, 52.43455768 ], [ 13.45035998, 52.43329107 ] ] } },
{ "type": "Feature", "properties": { "id": "stadtgruen.201", "gisid": 201, "verlauf_stadtgruen": "Radvorrangnetz" }, "geometry": { "type": "LineString", "coordinates": [ [ 13.49622802, 52.40405525 ], [ 13.49736143, 52.4040287 ] ] } },
{ "type": "Feature", "properties": { "id": "stadtgruen.203", "gisid": 203, "verlauf_stadtgruen": "Radvorrangnetz" }, "geometry": { "type": "LineString", "coordinates": [ [ 13.45965378, 52.42578958 ], [ 13.45979488, 52.42570036 ], [ 13.46016367, 52.42552101 ], [ 13.46039304, 52.42543221 ], [ 13.46071628, 52.42535091 ], [ 13.46086109, 52.42531015 ], [ 13.46089442, 52.42530077 ], [ 13.46120253, 52.42521405 ], [ 13.4613439, 52.42516874 ], [ 13.46142666, 52.42509089 ], [ 13.46150722, 52.42503161 ], [ 13.46152262, 52.4250236 ] ] } },
{ "type": "Feature", "properties": { "id": "stadtgruen.204", "gisid": 204, "verlauf_stadtgruen": "Radvorrangnetz" }, "geometry": { "type": "LineString", "coordinates": [ [ 13.4444228, 52.43974176 ], [ 13.44454301, 52.43947414 ], [ 13.44466983, 52.43795378 ], [ 13.44493091, 52.43775827 ], [ 13.44519315, 52.43763555 ], [ 13.44539338, 52.43757475 ], [ 13.44546435, 52.4374805 ], [ 13.4455351, 52.43703163 ] ] } },
{ "type": "Feature", "properties": { "id": "stadtgruen.222", "gisid": 222, "verlauf_stadtgruen": "Radvorrangnetz" }, "geometry": { "type": "LineString", "coordinates": [ [ 13.4183969, 52.47667786 ], [ 13.4182413, 52.47686815 ], [ 13.41805921, 52.477594 ] ] } },
{ "type": "Feature", "properties": { "id": "stadtgruen.233", "gisid": 233, "verlauf_stadtgruen": "Radvorrangnetz" }, "geometry": { "type": "MultiLineString", "coordinates": [ [ [ 13.46415049, 52.42115764 ], [ 13.46421955, 52.42113122 ], [ 13.46429424, 52.42111253 ], [ 13.46435474, 52.42110156 ], [ 13.46439992, 52.42108951 ], [ 13.46443953, 52.42107536 ], [ 13.46449542, 52.42104694 ], [ 13.46479916, 52.42089579 ], [ 13.46497984, 52.4208034 ], [ 13.46504225, 52.42077253 ], [ 13.46509255, 52.42075254 ], [ 13.46515283, 52.42073292 ], [ 13.46521319, 52.42071572 ], [ 13.46525945, 52.42070574 ], [ 13.46558316, 52.42063662 ], [ 13.46594372, 52.42055788 ], [ 13.46607531, 52.42052472 ], [ 13.46644015, 52.42044461 ], [ 13.46652162, 52.42042614 ], [ 13.46658519, 52.42041098 ], [ 13.46663734, 52.42039453 ], [ 13.46668189, 52.42037412 ], [ 13.46672363, 52.42034584 ], [ 13.466743901869286, 52.420328019513434 ] ], [ [ 13.467941923142108, 52.420050249729258 ], [ 13.46797406, 52.42004854 ], [ 13.46803939, 52.42005056 ], [ 13.46808855, 52.42004951 ], [ 13.46812925, 52.42006337 ], [ 13.46821232, 52.42015813 ], [ 13.46822769, 52.42017604 ] ] ] } },
{ "type": "Feature", "properties": { "id": "stadtgruen.258", "gisid": 258, "verlauf_stadtgruen": "Radvorrangnetz" }, "geometry": { "type": "MultiLineString", "coordinates": [ [ [ 13.46844967, 52.41920154 ], [ 13.46844802, 52.41920828 ], [ 13.46841844, 52.41926126 ], [ 13.4682863, 52.41958229 ] ], [ [ 13.46814968, 52.41999548 ], [ 13.46816572, 52.42005715 ], [ 13.46822769, 52.42017604 ] ] ] } },
{ "type": "Feature", "properties": { "id": "stadtgruen.259", "gisid": 259, "verlauf_stadtgruen": "Radvorrangnetz" }, "geometry": { "type": "LineString", "coordinates": [ [ 13.49736143, 52.4040287 ], [ 13.49739627, 52.40410833 ], [ 13.4977986, 52.40409942 ], [ 13.49867536, 52.40407153 ], [ 13.49905943, 52.40406008 ], [ 13.49915512, 52.40404242 ], [ 13.49925481, 52.40398043 ], [ 13.49932821, 52.40395586 ], [ 13.49956728, 52.40394052 ], [ 13.49996285, 52.40393432 ], [ 13.50002372, 52.40395958 ], [ 13.50009511, 52.40399416 ], [ 13.50019666, 52.40400688 ] ] } },
{ "type": "Feature", "properties": { "id": "stadtgruen.274", "gisid": 274, "verlauf_stadtgruen": "Radvorrangnetz" }, "geometry": { "type": "LineString", "coordinates": [ [ 13.45035998, 52.43329107 ], [ 13.4511712, 52.43227497 ] ] } },
{ "type": "Feature", "properties": { "id": "stadtgruen.299", "gisid": 299, "verlauf_stadtgruen": "Radvorrangnetz" }, "geometry": { "type": "LineString", "coordinates": [ [ 13.4183969, 52.47667786 ], [ 13.41846567, 52.47668227 ] ] } },
{ "type": "Feature", "properties": { "id": "stadtgruen.340", "gisid": 340, "verlauf_stadtgruen": "Radvorrangnetz" }, "geometry": { "type": "LineString", "coordinates": [ [ 13.414368889286116, 52.475482119138114 ], [ 13.41734236, 52.47561988 ] ] } },
{ "type": "Feature", "properties": { "id": "stadtgruen.378", "gisid": 378, "verlauf_stadtgruen": "Ergänzungsnetz" }, "geometry": { "type": "LineString", "coordinates": [ [ 13.51535816, 52.40167125 ], [ 13.515308, 52.40165819 ], [ 13.51409601, 52.40129266 ] ] } },
{ "type": "Feature", "properties": { "id": "stadtgruen.382", "gisid": 382, "verlauf_stadtgruen": "Ergänzungsnetz" }, "geometry": { "type": "LineString", "coordinates": [ [ 13.46352672, 52.42439954 ], [ 13.46392081, 52.42429225 ], [ 13.4647845, 52.42413045 ], [ 13.46488368, 52.42411895 ], [ 13.46510805, 52.42408904 ], [ 13.46524506, 52.42406884 ], [ 13.46543396, 52.42403897 ], [ 13.46552649, 52.42402197 ], [ 13.46561328, 52.42400603 ], [ 13.46578133, 52.42397435 ], [ 13.46595318, 52.42393719 ], [ 13.46614469, 52.42390356 ], [ 13.46633725, 52.42387076 ], [ 13.46651233, 52.42385537 ], [ 13.46676222, 52.42383052 ], [ 13.46712792, 52.42380345 ], [ 13.46726085, 52.42378869 ], [ 13.46731876, 52.42379611 ], [ 13.46738365, 52.4237992 ], [ 13.46746336, 52.42379754 ], [ 13.46755511, 52.42378928 ], [ 13.46766108, 52.42377973 ], [ 13.46769475, 52.42377669 ], [ 13.46777541, 52.42376921 ], [ 13.4678712, 52.42376032 ], [ 13.46802458, 52.42374567 ], [ 13.46818963, 52.42372879 ], [ 13.46856638, 52.4233341 ] ] } },
{ "type": "Feature", "properties": { "id": "stadtgruen.383", "gisid": 383, "verlauf_stadtgruen": "Ergänzungsnetz" }, "geometry": { "type": "MultiLineString", "coordinates": [ [ [ 13.44834612, 52.45918371 ], [ 13.44835684, 52.45919611 ], [ 13.44960633, 52.4593243 ], [ 13.45073172, 52.45932716 ], [ 13.4515331, 52.45935193 ], [ 13.45291228, 52.45922486 ], [ 13.45442196, 52.4588731 ] ], [ [ 13.45495243, 52.45868965 ], [ 13.4553079, 52.45856534 ] ] ] } },
{ "type": "Feature", "properties": { "id": "stadtgruen.389", "gisid": 389, "verlauf_stadtgruen": "Ergänzungsnetz" }, "geometry": { "type": "MultiLineString", "coordinates": [ [ [ 13.47754239, 52.41878954 ], [ 13.4775882, 52.41877315 ] ], [ [ 13.47990505, 52.4179442 ], [ 13.48021983, 52.41783157 ] ] ] } },
{ "type": "Feature", "properties": { "id": "stadtgruen.411", "gisid": 411, "verlauf_stadtgruen": "Ergänzungsnetz" }, "geometry": { "type": "LineString", "coordinates": [ [ 13.46740016, 52.42288879 ], [ 13.46742953, 52.42290306 ] ] } },
{ "type": "Feature", "properties": { "id": "stadtgruen.449", "gisid": 449, "verlauf_stadtgruen": "Ergänzungsnetz" }, "geometry": { "type": "LineString", "coordinates": [ [ 13.44172001, 52.45829464 ], [ 13.44243113, 52.45840692 ], [ 13.44621249, 52.45896099 ], [ 13.44671698, 52.45893002 ], [ 13.44721455, 52.45900984 ], [ 13.44734829, 52.45900089 ] ] } },
{ "type": "Feature", "properties": { "id": "stadtgruen.453", "gisid": 453, "verlauf_stadtgruen": "Ergänzungsnetz" }, "geometry": { "type": "MultiLineString", "coordinates": [ [ [ 13.43706438, 52.44143321 ], [ 13.43746091, 52.44190205 ], [ 13.43784178, 52.44224955 ], [ 13.43814659, 52.44250256 ], [ 13.43840598, 52.44271775 ], [ 13.43863647, 52.44281158 ], [ 13.4389418, 52.44294327 ], [ 13.43928981, 52.44305206 ] ], [ [ 13.43935715, 52.44307312 ], [ 13.43947053, 52.44310856 ] ] ] } },
{ "type": "Feature", "properties": { "id": "stadtgruen.460", "gisid": 460, "verlauf_stadtgruen": "Ergänzungsnetz" }, "geometry": { "type": "LineString", "coordinates": [ [ 13.522199605852419, 52.417009366898007 ], [ 13.52188257, 52.41705265 ] ] } },
{ "type": "Feature", "properties": { "id": "stadtgruen.461", "gisid": 461, "verlauf_stadtgruen": "Ergänzungsnetz" }, "geometry": { "type": "LineString", "coordinates": [ [ 13.47385695, 52.4196406 ], [ 13.47402816, 52.4196001 ], [ 13.47413341, 52.41959605 ], [ 13.47431267, 52.41957077 ], [ 13.47435199, 52.41956315 ], [ 13.47439584, 52.41955989 ], [ 13.47445479, 52.41956065 ], [ 13.47458241, 52.41956709 ], [ 13.47472115, 52.41957557 ], [ 13.4748168, 52.41957681 ], [ 13.47491486, 52.41957311 ], [ 13.47499802, 52.41956272 ], [ 13.47512769, 52.41954071 ], [ 13.47526269, 52.41951067 ], [ 13.47538415, 52.41947669 ], [ 13.47545799, 52.41945631 ], [ 13.47558799, 52.41943248 ], [ 13.47570351, 52.41941222 ], [ 13.47588214, 52.41937553 ], [ 13.47603371, 52.41933157 ], [ 13.47614238, 52.41929116 ], [ 13.47633507, 52.41921335 ], [ 13.47647582, 52.41915754 ], [ 13.47662602, 52.41911187 ], [ 13.47684468, 52.41904382 ], [ 13.47704526, 52.41896506 ], [ 13.47711795, 52.4189384 ], [ 13.47729952, 52.41888553 ], [ 13.47744549, 52.41884434 ], [ 13.47754239, 52.41878954 ] ] } },
{ "type": "Feature", "properties": { "id": "stadtgruen.462", "gisid": 462, "verlauf_stadtgruen": "Ergänzungsnetz" }, "geometry": { "type": "MultiLineString", "coordinates": [ [ [ 13.48021983, 52.41783157 ], [ 13.48030011, 52.41780249 ], [ 13.4803666, 52.41777705 ], [ 13.48046856, 52.41774789 ], [ 13.48062637, 52.41771312 ], [ 13.480742, 52.41768073 ], [ 13.48099082, 52.41758932 ], [ 13.48120821, 52.41749211 ], [ 13.48146529, 52.41736995 ], [ 13.48150355, 52.41736825 ], [ 13.48155472, 52.41737671 ], [ 13.48175082, 52.41741508 ], [ 13.48203005, 52.41746279 ], [ 13.48206156, 52.41746101 ], [ 13.4821132, 52.41745986 ], [ 13.48212302, 52.41745936 ] ], [ [ 13.48342251, 52.41698034 ], [ 13.48346888, 52.41693978 ], [ 13.48366767, 52.41673106 ] ] ] } },
{ "type": "Feature", "properties": { "id": "stadtgruen.463", "gisid": 463, "verlauf_stadtgruen": "Ergänzungsnetz" }, "geometry": { "type": "LineString", "coordinates": [ [ 13.46856638, 52.4233341 ], [ 13.46862827, 52.42333807 ] ] } },
{ "type": "Feature", "properties": { "id": "stadtgruen.470", "gisid": 470, "verlauf_stadtgruen": "Ergänzungsnetz" }, "geometry": { "type": "MultiLineString", "coordinates": [ [ [ 13.43694454, 52.42854875 ], [ 13.43744272, 52.42867802 ] ], [ [ 13.43773917, 52.42875495 ], [ 13.43841161, 52.42892943 ] ] ] } },
{ "type": "Feature", "properties": { "id": "stadtgruen.529", "gisid": 529, "verlauf_stadtgruen": "Ergänzungsnetz" }, "geometry": { "type": "LineString", "coordinates": [ [ 13.45603991, 52.45820166 ], [ 13.45624619, 52.45810777 ] ] } },
{ "type": "Feature", "properties": { "id": "stadtgruen.700", "gisid": 700, "verlauf_stadtgruen": "Ergänzungsnetz" }, "geometry": { "type": "MultiLineString", "coordinates": [ [ [ 13.406544696306826, 52.479455016760916 ], [ 13.40777172, 52.47908952 ], [ 13.40910353, 52.47846038 ], [ 13.410098490821284, 52.477812072503106 ] ], [ [ 13.414022955617707, 52.476749471545219 ], [ 13.41560755, 52.47657795 ], [ 13.41690345, 52.47650966 ], [ 13.41716292, 52.47622767 ], [ 13.41734236, 52.47561988 ] ] ] } },
{ "type": "Feature", "properties": { "id": "stadtgruen.753", "gisid": 753, "verlauf_stadtgruen": "Ergänzungsnetz" }, "geometry": { "type": "LineString", "coordinates": [ [ 13.44784602, 52.4314001 ], [ 13.4487566, 52.43163863 ] ] } },
{ "type": "Feature", "properties": { "id": "stadtgruen.754", "gisid": 754, "verlauf_stadtgruen": "Ergänzungsnetz" }, "geometry": { "type": "LineString", "coordinates": [ [ 13.422077122913826, 52.462073252930523 ], [ 13.42207752, 52.46207238 ] ] } },
{ "type": "Feature", "properties": { "id": "stadtgruen.759", "gisid": 759, "verlauf_stadtgruen": "Ergänzungsnetz" }, "geometry": { "type": "LineString", "coordinates": [ [ 13.45043003, 52.43527185 ], [ 13.45053926, 52.43555238 ] ] } },
{ "type": "Feature", "properties": { "id": "stadtgruen.763", "gisid": 763, "verlauf_stadtgruen": "Ergänzungsnetz" }, "geometry": { "type": "LineString", "coordinates": [ [ 13.43947053, 52.44310856 ], [ 13.43951639, 52.4437413 ], [ 13.43953373, 52.44486017 ], [ 13.4399317, 52.44500009 ], [ 13.44006222, 52.44508926 ], [ 13.44038618, 52.44515807 ] ] } },
{ "type": "Feature", "properties": { "id": "stadtgruen.764", "gisid": 764, "verlauf_stadtgruen": "Ergänzungsnetz" }, "geometry": { "type": "LineString", "coordinates": [ [ 13.45852810428028, 52.459201843457542 ], [ 13.45864085, 52.45921773 ], [ 13.45875292, 52.45922689 ], [ 13.45882551, 52.45922902 ], [ 13.45917065, 52.45922227 ], [ 13.45941598, 52.459216 ], [ 13.45954118, 52.45920993 ], [ 13.45962098, 52.45919973 ], [ 13.45968924, 52.45918701 ], [ 13.45973356875068, 52.459174648483305 ] ] } },
{ "type": "Feature", "properties": { "id": "stadtgruen.766", "gisid": 766, "verlauf_stadtgruen": "Ergänzungsnetz" }, "geometry": { "type": "LineString", "coordinates": [ [ 13.44141913, 52.42989983 ], [ 13.44153377, 52.42974764 ] ] } },
{ "type": "Feature", "properties": { "id": "stadtgruen.781", "gisid": 781, "verlauf_stadtgruen": "Ergänzungsnetz" }, "geometry": { "type": "LineString", "coordinates": [ [ 13.4599615, 52.45401733 ], [ 13.46001245, 52.45402888 ] ] } },
{ "type": "Feature", "properties": { "id": "stadtgruen.784", "gisid": 784, "verlauf_stadtgruen": "Ergänzungsnetz" }, "geometry": { "type": "LineString", "coordinates": [ [ 13.43488839, 52.44154193 ], [ 13.43498151, 52.44155208 ], [ 13.4352388, 52.44156868 ], [ 13.43568275, 52.44160714 ], [ 13.43617256, 52.44158366 ], [ 13.43658902, 52.44151693 ], [ 13.43706438, 52.44143321 ] ] } },
{ "type": "Feature", "properties": { "id": "stadtgruen.787", "gisid": 787, "verlauf_stadtgruen": "Ergänzungsnetz" }, "geometry": { "type": "LineString", "coordinates": [ [ 13.43294212, 52.42217866 ], [ 13.43304027, 52.42208202 ] ] } },
{ "type": "Feature", "properties": { "id": "stadtgruen.789", "gisid": 789, "verlauf_stadtgruen": "Ergänzungsnetz" }, "geometry": { "type": "LineString", "coordinates": [ [ 13.44214013, 52.43749523 ], [ 13.44213403, 52.43741875 ], [ 13.44240951, 52.43729696 ], [ 13.44276288, 52.43718607 ], [ 13.44362103, 52.43697171 ], [ 13.44400369, 52.43688783 ], [ 13.4446011, 52.4367863 ], [ 13.44536727, 52.4367686 ], [ 13.44546532, 52.43685897 ] ] } },
{ "type": "Feature", "properties": { "id": "stadtgruen.790", "gisid": 790, "verlauf_stadtgruen": "Ergänzungsnetz" }, "geometry": { "type": "LineString", "coordinates": [ [ 13.44269252, 52.43004601 ], [ 13.4433711, 52.43022292 ] ] } },
{ "type": "Feature", "properties": { "id": "stadtgruen.791", "gisid": 791, "verlauf_stadtgruen": "Ergänzungsnetz" }, "geometry": { "type": "MultiLineString", "coordinates": [ [ [ 13.48980149, 52.41410697 ], [ 13.48985281, 52.4140672 ] ], [ [ 13.48992423, 52.41401183 ], [ 13.48996976, 52.41397655 ], [ 13.49000037, 52.4139464 ], [ 13.49008225, 52.41384594 ], [ 13.49017442, 52.41373473 ], [ 13.49024242, 52.41364097 ], [ 13.49027651, 52.41356334 ], [ 13.49029095, 52.4135164 ] ] ] } },
{ "type": "Feature", "properties": { "id": "stadtgruen.798", "gisid": 798, "verlauf_stadtgruen": "Ergänzungsnetz" }, "geometry": { "type": "MultiLineString", "coordinates": [ [ [ 13.42790299, 52.45621529 ], [ 13.42852734, 52.45629316 ], [ 13.42887703, 52.4563899 ], [ 13.42932093, 52.45647152 ], [ 13.42999381, 52.45667034 ], [ 13.43030678, 52.45675264 ], [ 13.43073118, 52.45685291 ] ], [ [ 13.43130157, 52.45694405 ], [ 13.4313151, 52.45694572 ], [ 13.43156791, 52.45699736 ], [ 13.43207325, 52.45715995 ], [ 13.43217034, 52.45718466 ] ], [ [ 13.43218887, 52.45718938 ], [ 13.43242152, 52.45724859 ], [ 13.43292559, 52.45736624 ], [ 13.43339813, 52.45746863 ] ], [ [ 13.434027, 52.4575719 ], [ 13.434128, 52.45758837 ], [ 13.43421257, 52.45759647 ] ], [ [ 13.43438177, 52.45761267 ], [ 13.43492061, 52.45766425 ], [ 13.43531179, 52.45769633 ] ] ] } },
{ "type": "Feature", "properties": { "id": "stadtgruen.801", "gisid": 801, "verlauf_stadtgruen": "Ergänzungsnetz" }, "geometry": { "type": "LineString", "coordinates": [ [ 13.44592205, 52.43089482 ], [ 13.44761103, 52.43133773 ], [ 13.44765494, 52.43138723 ], [ 13.44776965, 52.43137931 ], [ 13.44784602, 52.4314001 ] ] } },
{ "type": "Feature", "properties": { "id": "stadtgruen.802", "gisid": 802, "verlauf_stadtgruen": "Ergänzungsnetz" }, "geometry": { "type": "LineString", "coordinates": [ [ 13.44351454, 52.43026052 ], [ 13.44564741, 52.43082251 ], [ 13.44570894, 52.43087652 ], [ 13.44582805, 52.43086952 ], [ 13.44592205, 52.43089482 ] ] } },
{ "type": "Feature", "properties": { "id": "stadtgruen.804", "gisid": 804, "verlauf_stadtgruen": "Ergänzungsnetz" }, "geometry": { "type": "LineString", "coordinates": [ [ 13.51678038, 52.41054197 ], [ 13.51682251, 52.41050521 ] ] } },
{ "type": "Feature", "properties": { "id": "stadtgruen.806", "gisid": 806, "verlauf_stadtgruen": "Ergänzungsnetz" }, "geometry": { "type": "LineString", "coordinates": [ [ 13.40764442, 52.43089863 ], [ 13.40776005, 52.43100399 ], [ 13.407671291671848, 52.431329175782757 ] ] } },
{ "type": "Feature", "properties": { "id": "stadtgruen.811", "gisid": 811, "verlauf_stadtgruen": "Ergänzungsnetz" }, "geometry": { "type": "LineString", "coordinates": [ [ 13.44153377, 52.42974764 ], [ 13.44203453, 52.42988592 ] ] } },
{ "type": "Feature", "properties": { "id": "stadtgruen.813", "gisid": 813, "verlauf_stadtgruen": "Ergänzungsnetz" }, "geometry": { "type": "LineString", "coordinates": [ [ 13.45994677, 52.45401385 ], [ 13.4599615, 52.45401733 ] ] } },
{ "type": "Feature", "properties": { "id": "stadtgruen.817", "gisid": 817, "verlauf_stadtgruen": "Ergänzungsnetz" }, "geometry": { "type": "LineString", "coordinates": [ [ 13.48936565, 52.41437158 ], [ 13.4893996, 52.41432219 ], [ 13.48949373, 52.41429893 ], [ 13.48980149, 52.41410697 ] ] } },
{ "type": "Feature", "properties": { "id": "stadtgruen.822", "gisid": 822, "verlauf_stadtgruen": "Ergänzungsnetz" }, "geometry": { "type": "MultiLineString", "coordinates": [ [ [ 13.44203453, 52.42988592 ], [ 13.44227239, 52.42994379 ] ], [ [ 13.44238465, 52.4299711 ], [ 13.44269252, 52.43004601 ] ] ] } },
{ "type": "Feature", "properties": { "id": "stadtgruen.829", "gisid": 829, "verlauf_stadtgruen": "Ergänzungsnetz" }, "geometry": { "type": "LineString", "coordinates": [ [ 13.50954048, 52.40805033 ], [ 13.51015266, 52.40747131 ], [ 13.5102373, 52.4074607 ] ] } },
{ "type": "Feature", "properties": { "id": "stadtgruen.832", "gisid": 832, "verlauf_stadtgruen": "Ergänzungsnetz" }, "geometry": { "type": "LineString", "coordinates": [ [ 13.42868972, 52.47189934 ], [ 13.42837545, 52.47188386 ], [ 13.42570655, 52.47159952 ], [ 13.42095367, 52.47105708 ], [ 13.42072847, 52.47101346 ], [ 13.42059269, 52.47100421 ], [ 13.42055838, 52.47101396 ] ] } },
{ "type": "Feature", "properties": { "id": "stadtgruen.834", "gisid": 834, "verlauf_stadtgruen": "Ergänzungsnetz" }, "geometry": { "type": "LineString", "coordinates": [ [ 13.43665072, 52.45783527 ], [ 13.43673142, 52.45783396 ], [ 13.4369354, 52.45783238 ], [ 13.43694278, 52.45783232 ], [ 13.4370321, 52.45783547 ], [ 13.43756128, 52.45788808 ], [ 13.43818893, 52.45796275 ], [ 13.43855815, 52.45799462 ], [ 13.43932095, 52.45804446 ], [ 13.43990006, 52.45807786 ], [ 13.44029425, 52.45809052 ], [ 13.4407614, 52.45811744 ], [ 13.44147849, 52.4581501 ], [ 13.44148007, 52.45815134 ] ] } },
{ "type": "Feature", "properties": { "id": "stadtgruen.867", "gisid": 867, "verlauf_stadtgruen": "Ergänzungsnetz" }, "geometry": { "type": "LineString", "coordinates": [ [ 13.48923945, 52.41430763 ], [ 13.48936565, 52.41437158 ] ] } },
{ "type": "Feature", "properties": { "id": "stadtgruen.870", "gisid": 870, "verlauf_stadtgruen": "Ergänzungsnetz" }, "geometry": { "type": "LineString", "coordinates": [ [ 13.46742953, 52.42290306 ], [ 13.46774277, 52.42305955 ], [ 13.46821781, 52.42327505 ], [ 13.46856638, 52.4233341 ] ] } },
{ "type": "Feature", "properties": { "id": "stadtgruen.879", "gisid": 879, "verlauf_stadtgruen": "Ergänzungsnetz" }, "geometry": { "type": "LineString", "coordinates": [ [ 13.5102373, 52.4074607 ], [ 13.51025604, 52.40740472 ] ] } },
{ "type": "Feature", "properties": { "id": "stadtgruen.886", "gisid": 886, "verlauf_stadtgruen": "Ergänzungsnetz" }, "geometry": { "type": "LineString", "coordinates": [ [ 13.43531179, 52.45769633 ], [ 13.43554709, 52.45771558 ], [ 13.4357148, 52.45771585 ], [ 13.43595615, 52.45769467 ], [ 13.43610654, 52.45770086 ] ] } },
{ "type": "Feature", "properties": { "id": "stadtgruen.892", "gisid": 892, "verlauf_stadtgruen": "Ergänzungsnetz" }, "geometry": { "type": "MultiLineString", "coordinates": [ [ [ 13.523270254517415, 52.411428178087995 ], [ 13.52327026, 52.41142821 ] ], [ [ 13.523361639379559, 52.412365731842911 ], [ 13.52336164, 52.41236577 ] ] ] } },
{ "type": "Feature", "properties": { "id": "stadtgruen.911", "gisid": 911, "verlauf_stadtgruen": "Ergänzungsnetz" }, "geometry": { "type": "LineString", "coordinates": [ [ 13.43830578, 52.42908286 ], [ 13.43841161, 52.42892943 ] ] } },
{ "type": "Feature", "properties": { "id": "stadtgruen.917", "gisid": 917, "verlauf_stadtgruen": "Ergänzungsnetz" }, "geometry": { "type": "LineString", "coordinates": [ [ 13.40770348, 52.43084841 ], [ 13.40764442, 52.43089863 ] ] } },
{ "type": "Feature", "properties": { "id": "stadtgruen.919", "gisid": 919, "verlauf_stadtgruen": "Ergänzungsnetz" }, "geometry": { "type": "LineString", "coordinates": [ [ 13.51902298, 52.41672898 ], [ 13.51923315, 52.41674368 ], [ 13.51943203, 52.4167791 ], [ 13.51988093, 52.41686651 ], [ 13.52005973, 52.41690346 ], [ 13.520168, 52.41692583 ], [ 13.52055056, 52.41701181 ], [ 13.52073008, 52.41704531 ], [ 13.52104825, 52.41707729 ], [ 13.52130084, 52.41708325 ], [ 13.52153501, 52.41708115 ], [ 13.52177746, 52.41706566 ], [ 13.52188257, 52.41705265 ] ] } },
{ "type": "Feature", "properties": { "id": "stadtgruen.921", "gisid": 921, "verlauf_stadtgruen": "Ergänzungsnetz" }, "geometry": { "type": "LineString", "coordinates": [ [ 13.45043003, 52.43527185 ], [ 13.45064704, 52.43468534 ], [ 13.45061961, 52.43455768 ] ] } },
{ "type": "Feature", "properties": { "id": "stadtgruen.922", "gisid": 922, "verlauf_stadtgruen": "Ergänzungsnetz" }, "geometry": { "type": "LineString", "coordinates": [ [ 13.4492101, 52.43175802 ], [ 13.4511712, 52.43227497 ] ] } },
{ "type": "Feature", "properties": { "id": "stadtgruen.923", "gisid": 923, "verlauf_stadtgruen": "Ergänzungsnetz" }, "geometry": { "type": "LineString", "coordinates": [ [ 13.43841161, 52.42892943 ], [ 13.43845301, 52.42882825 ] ] } },
{ "type": "Feature", "properties": { "id": "stadtgruen.933", "gisid": 933, "verlauf_stadtgruen": "Ergänzungsnetz" }, "geometry": { "type": "LineString", "coordinates": [ [ 13.50951892, 52.40807048 ], [ 13.50954048, 52.40805033 ] ] } },
{ "type": "Feature", "properties": { "id": "stadtgruen.936", "gisid": 936, "verlauf_stadtgruen": "Ergänzungsnetz" }, "geometry": { "type": "MultiLineString", "coordinates": [ [ [ 13.41734236, 52.47561988 ], [ 13.41841174, 52.47225734 ], [ 13.41867423, 52.47188974 ], [ 13.4190566, 52.4714381 ], [ 13.4197458, 52.47133788 ], [ 13.41993882, 52.47116918 ], [ 13.4204404, 52.47104352 ] ], [ [ 13.42055158, 52.47101566 ], [ 13.42055838, 52.47101396 ] ] ] } },
{ "type": "Feature", "properties": { "id": "stadtgruen.1005", "gisid": 1005, "verlauf_stadtgruen": "Ergänzungsnetz" }, "geometry": { "type": "LineString", "coordinates": [ [ 13.407162378302122, 52.430577200307226 ], [ 13.40721367, 52.43059588 ], [ 13.4075362, 52.4307816 ] ] } },
{ "type": "Feature", "properties": { "id": "stadtgruen.1007", "gisid": 1007, "verlauf_stadtgruen": "Ergänzungsnetz" }, "geometry": { "type": "LineString", "coordinates": [ [ 13.4075362, 52.4307816 ], [ 13.40770348, 52.43084841 ] ] } },
{ "type": "Feature", "properties": { "id": "stadtgruen.1011", "gisid": 1011, "verlauf_stadtgruen": "Ergänzungsnetz" }, "geometry": { "type": "LineString", "coordinates": [ [ 13.48380791, 52.41659663 ], [ 13.48386857, 52.41656835 ], [ 13.48394996, 52.41654616 ], [ 13.48405014, 52.41649749 ], [ 13.48413706, 52.41645369 ], [ 13.4842212, 52.41639458 ], [ 13.48429319, 52.41635641 ], [ 13.48439197, 52.41631551 ], [ 13.4844707, 52.41629286 ], [ 13.48456293, 52.41627379 ], [ 13.4846934, 52.41623984 ], [ 13.48490451, 52.41616692 ], [ 13.48530955, 52.41600639 ], [ 13.48543795, 52.41594981 ], [ 13.48564693, 52.41586089 ], [ 13.48588053, 52.41579895 ], [ 13.48604907, 52.41575383 ], [ 13.48617716, 52.41571446 ], [ 13.48631882, 52.41565954 ], [ 13.48651177, 52.41557344 ], [ 13.48678077, 52.41544374 ], [ 13.48692905, 52.4153788 ], [ 13.48706906, 52.41532232 ], [ 13.48721501, 52.41527178 ], [ 13.48734476, 52.41523085 ], [ 13.48754607, 52.41516946 ], [ 13.48784402, 52.41508736 ], [ 13.48802196, 52.41503072 ], [ 13.48812558, 52.41498583 ], [ 13.48822629, 52.41493791 ], [ 13.48833159, 52.41488357 ], [ 13.4885163, 52.41477253 ], [ 13.48882902, 52.41455861 ], [ 13.48905924, 52.41439681 ], [ 13.48912902, 52.41435744 ], [ 13.48923945, 52.41430763 ] ] } },
{ "type": "Feature", "properties": { "id": "stadtgruen.1017", "gisid": 1017, "verlauf_stadtgruen": "Ergänzungsnetz" }, "geometry": { "type": "LineString", "coordinates": [ [ 13.4399712, 52.42934079 ], [ 13.44153377, 52.42974764 ] ] } },
{ "type": "Feature", "properties": { "id": "stadtgruen.1018", "gisid": 1018, "verlauf_stadtgruen": "Ergänzungsnetz" }, "geometry": { "type": "LineString", "coordinates": [ [ 13.4352847, 52.42809495 ], [ 13.43694454, 52.42854875 ] ] } },
{ "type": "Feature", "properties": { "id": "stadtgruen.1019", "gisid": 1019, "verlauf_stadtgruen": "Ergänzungsnetz" }, "geometry": { "type": "LineString", "coordinates": [ [ 13.43841161, 52.42892943 ], [ 13.4399712, 52.42934079 ] ] } },
{ "type": "Feature", "properties": { "id": "stadtgruen.1020", "gisid": 1020, "verlauf_stadtgruen": "Ergänzungsnetz" }, "geometry": { "type": "MultiLineString", "coordinates": [ [ [ 13.42108008, 52.42442437 ], [ 13.42149885, 52.4245325 ] ], [ [ 13.42156683, 52.42455005 ], [ 13.42444047, 52.42529199 ] ], [ [ 13.42469782, 52.42535842 ], [ 13.43476109, 52.42795585 ] ] ] } }
]
}
