{"type": "FeatureCollection", "name": "ta_kak_luftaustausch_2022_neukoelln", "features": [{"type": "Feature", "properties": {"id": 15, "richtung": 10, "prozess": "Kaltluftleitbahn, vorwiegend thermisch induziert"}, "geometry": {"type": "Point", "coordinates": [13.493786949059437, 52.40034667232793]}}, {"type": "Feature", "properties": {"id": 16, "richtung": 5, "prozess": "Kaltluftleitbahn, vorwiegend thermisch induziert"}, "geometry": {"type": "Point", "coordinates": [13.495012084025811, 52.40753094604989]}}, {"type": "Feature", "properties": {"id": 90, "richtung": 335, "prozess": "Kaltluftleitbahn, vorwiegend thermisch induziert"}, "geometry": {"type": "Point", "coordinates": [13.489733788905776, 52.41397604916892]}}, {"type": "Feature", "properties": {"id": 93, "richtung": 0, "prozess": null}, "geometry": {"type": "Point", "coordinates": [13.518175662451904, 52.40725939158048]}}]}