{
"type": "FeatureCollection",
"name": "tb_kak_laermschutz_2022_neukoelln",
"crs": { "type": "name", "properties": { "name": "urn:ogc:def:crs:OGC:1.3:CRS84" } },
"features": [
{ "type": "Feature", "properties": { "id": 309, "art": "Lärmschutzeinrichtung" }, "geometry": { "type": "LineString", "coordinates": [ [ 13.457247837805955, 52.478913870907114, 38.36 ], [ 13.457232536546089, 52.478835754795753, 38.44 ] ] } },
{ "type": "Feature", "properties": { "id": 321, "art": "Lärmschutzeinrichtung" }, "geometry": { "type": "LineString", "coordinates": [ [ 13.456001947838731, 52.473657043367844, 38.96 ], [ 13.45596908075318, 52.473593730177036, 39.03 ] ] } },
{ "type": "Feature", "properties": { "id": 347, "art": "Lärmschutzeinrichtung" }, "geometry": { "type": "LineString", "coordinates": [ [ 13.457116886525311, 52.47825154693443, 38.33 ], [ 13.457129471730671, 52.478308810043167, 38.39 ] ] } },
{ "type": "Feature", "properties": { "id": 348, "art": "Lärmschutzeinrichtung" }, "geometry": { "type": "LineString", "coordinates": [ [ 13.457546157556282, 52.478112778365038, 38.48 ], [ 13.45754664914228, 52.478061375490725, 38.48 ] ] } },
{ "type": "Feature", "properties": { "id": 501, "art": "Lärmschutzeinrichtung" }, "geometry": { "type": "LineString", "coordinates": [ [ 13.456811936057091, 52.477067656426925, 38.0976 ], [ 13.456859269034261, 52.477297696128737, 38.2471 ], [ 13.45697678036546, 52.477907965598916, 38.4276 ], [ 13.457022412109099, 52.478212768397043, 38.1676 ] ] } },
{ "type": "Feature", "properties": { "id": 502, "art": "Lärmschutzeinrichtung" }, "geometry": { "type": "LineString", "coordinates": [ [ 13.470296848655268, 52.4701836751874, 38.88 ], [ 13.469828974188523, 52.470120958014398, 38.82 ], [ 13.469077070054828, 52.470023442708055, 38.84 ], [ 13.468439330416391, 52.469934432924468, 38.84 ], [ 13.467680838744858, 52.469829441131161, 38.85 ], [ 13.466998941392005, 52.469745126698157, 38.63 ] ] } },
{ "type": "Feature", "properties": { "id": 579, "art": "Lärmschutzeinrichtung" }, "geometry": { "type": "LineString", "coordinates": [ [ 13.457672713367465, 52.478732948337296, 38.34 ], [ 13.457658356346361, 52.478638567343943, 38.41 ] ] } },
{ "type": "Feature", "properties": { "id": 588, "art": "Lärmschutzeinrichtung" }, "geometry": { "type": "LineString", "coordinates": [ [ 13.440930277849638, 52.469158928014984, 40.8393 ], [ 13.440611342244038, 52.46912812330352, 40.8282 ], [ 13.440292405227476, 52.469097299793773, 40.8052 ] ] } },
{ "type": "Feature", "properties": { "id": 720, "art": "Lärmschutzeinrichtung" }, "geometry": { "type": "LineString", "coordinates": [ [ 13.456198566841358, 52.474036653756521, 38.75 ], [ 13.456162005931603, 52.473939006087342, 38.78 ] ] } },
{ "type": "Feature", "properties": { "id": 757, "art": "Lärmschutzeinrichtung" }, "geometry": { "type": "LineString", "coordinates": [ [ 13.440292345750516, 52.46909726514199, 40.8052 ], [ 13.440151130371625, 52.469083778059805, 40.7926 ], [ 13.440056325555013, 52.469072431380077, 40.784 ], [ 13.439985819488573, 52.469059791168043, 40.7775 ], [ 13.439775890199275, 52.469023190706658, 40.7593 ], [ 13.439719711356227, 52.469013530386938, 40.7544 ], [ 13.439663011954135, 52.469003660186374, 40.7495 ], [ 13.439606671237918, 52.46899395731554, 40.7446 ], [ 13.439546274552907, 52.468983565691396, 40.7394 ], [ 13.439290233243867, 52.468937297903686, 40.7172 ] ] } }
]
}
