{
"type": "FeatureCollection",
"name": "tf_kak_windfeldveraenderung_2022_neukoelln",
"crs": { "type": "name", "properties": { "name": "urn:ogc:def:crs:OGC:1.3:CRS84" } },
"features": [
{ "type": "Feature", "properties": { "id": "tf_kak_windfeldveraenderung_2022.1400750291000000", "schl5": "1400750291000000", "typklar": "Großsiedlung und Punkthochhäuser (1960er - 1990er), 4 - 11-geschossig und mehr", "art": "Windfeldveränderung" }, "geometry": { "type": "Polygon", "coordinates": [ [ [ 13.444016775396786, 52.487456711284189 ], [ 13.442537555472903, 52.486340083151838 ], [ 13.441751231201255, 52.486747745966063 ], [ 13.441224266947076, 52.487087512418576 ], [ 13.44086801400314, 52.487438328910635 ], [ 13.442166822165657, 52.488395634230102 ], [ 13.444016775396786, 52.487456711284189 ] ] ] } },
{ "type": "Feature", "properties": { "id": "tf_kak_windfeldveraenderung_2022.1400761871000000", "schl5": "1400761871000000", "typklar": "Heterogene, innerstädtische Mischbebauung, Lückenschluss nach 1945", "art": "Windfeldveränderung" }, "geometry": { "type": "Polygon", "coordinates": [ [ [ 13.445178927218199, 52.475140590677455 ], [ 13.445332457076567, 52.47502490019226 ], [ 13.44567476375788, 52.475171006653099 ], [ 13.445650690204126, 52.47529857944641 ], [ 13.445364132793975, 52.475356956184413 ], [ 13.445027330521405, 52.475561584184511 ], [ 13.445221824572078, 52.475802070096471 ], [ 13.44516903501966, 52.475887666288649 ], [ 13.445558444140076, 52.47639142438581 ], [ 13.446312026345684, 52.476245879490179 ], [ 13.447380355875726, 52.476051515956755 ], [ 13.447021640824277, 52.474742604802842 ], [ 13.445216267255228, 52.474292316105121 ], [ 13.4447265325161, 52.474925117540991 ], [ 13.445178927218199, 52.475140590677455 ] ] ] } },
{ "type": "Feature", "properties": { "id": "tf_kak_windfeldveraenderung_2022.1400776211000000", "schl5": "1400776211000000", "typklar": "Heterogene, innerstädtische Mischbebauung, Lückenschluss nach 1945", "art": "Windfeldveränderung" }, "geometry": { "type": "Polygon", "coordinates": [ [ [ 13.454035064976846, 52.482419504575354 ], [ 13.455822471208997, 52.482298085232706 ], [ 13.455385830338299, 52.479889950024351 ], [ 13.455200547891977, 52.47984564645234 ], [ 13.453650496204103, 52.480644093370543 ], [ 13.454218353649576, 52.481093353451051 ], [ 13.454565601775922, 52.481501850224944 ], [ 13.454017347474984, 52.481680782190701 ], [ 13.453409854818116, 52.481952187039546 ], [ 13.454035064976846, 52.482419504575354 ] ] ] } },
{ "type": "Feature", "properties": { "id": "tf_kak_windfeldveraenderung_2022.1400776271000200", "schl5": "1400776271000200", "typklar": "Großsiedlung und Punkthochhäuser (1960er - 1990er), 4 - 11-geschossig und mehr", "art": "Windfeldveränderung" }, "geometry": { "type": "Polygon", "coordinates": [ [ [ 13.469931122391731, 52.46433373532593 ], [ 13.470206021460433, 52.464191898585639 ], [ 13.470937201837213, 52.464570005783976 ], [ 13.470890177825678, 52.46452723690264 ], [ 13.470815601917721, 52.46439593275813 ], [ 13.470799704917768, 52.464314135056568 ], [ 13.470819240207467, 52.464199132014834 ], [ 13.470770764468428, 52.46417660208958 ], [ 13.470767880436128, 52.462911283764328 ], [ 13.470743037499734, 52.462863621845997 ], [ 13.470700528803912, 52.462819532021719 ], [ 13.470564083057459, 52.462710612900253 ], [ 13.470420893422498, 52.462698886205622 ], [ 13.46869605469314, 52.463677893874141 ], [ 13.469931122391731, 52.46433373532593 ] ] ] } },
{ "type": "Feature", "properties": { "id": "tf_kak_windfeldveraenderung_2022.1400776291000000", "schl5": "1400776291000000", "typklar": "Großsiedlung und Punkthochhäuser (1960er - 1990er), 4 - 11-geschossig und mehr", "art": "Windfeldveränderung" }, "geometry": { "type": "Polygon", "coordinates": [ [ [ 13.473841162766954, 52.464544217796572 ], [ 13.473838596198858, 52.46457062470639 ], [ 13.473888443334788, 52.464621912799274 ], [ 13.473936527319912, 52.464757673457591 ], [ 13.473924854530585, 52.4655799319777 ], [ 13.473983239508501, 52.465715705923934 ], [ 13.474109331702794, 52.465844375610878 ], [ 13.474351808120767, 52.465931859632718 ], [ 13.474568000478595, 52.46596089491166 ], [ 13.475188979866378, 52.465946414894475 ], [ 13.475190875242113, 52.465822402225193 ], [ 13.475110403650216, 52.465690195907349 ], [ 13.475118231655719, 52.46384076384566 ], [ 13.475080919749294, 52.463708683237243 ], [ 13.475014085736106, 52.463701792077075 ], [ 13.473891624478215, 52.464452403021248 ], [ 13.473841162766954, 52.464544217796572 ] ] ] } },
{ "type": "Feature", "properties": { "id": "tf_kak_windfeldveraenderung_2022.1400776301000000", "schl5": "1400776301000000", "typklar": "Großsiedlung und Punkthochhäuser (1960er - 1990er), 4 - 11-geschossig und mehr", "art": "Windfeldveränderung" }, "geometry": { "type": "Polygon", "coordinates": [ [ [ 13.475376869053015, 52.463503197484677 ], [ 13.475502863527392, 52.463659726894541 ], [ 13.475565529929529, 52.463835045832909 ], [ 13.475559218833354, 52.465677291043768 ], [ 13.475491020840268, 52.465828176642425 ], [ 13.475490657015332, 52.465934219734613 ], [ 13.476634012884901, 52.465908715065574 ], [ 13.476604638208389, 52.462910930174615 ], [ 13.476576908092266, 52.462873462362481 ], [ 13.476515774559392, 52.462829145538301 ], [ 13.476426633305142, 52.462829032103897 ], [ 13.475404960687072, 52.463447069641461 ], [ 13.475376869053015, 52.463503197484677 ] ] ] } },
{ "type": "Feature", "properties": { "id": "tf_kak_windfeldveraenderung_2022.1400776311000000", "schl5": "1400776311000000", "typklar": "Großsiedlung und Punkthochhäuser (1960er - 1990er), 4 - 11-geschossig und mehr", "art": "Windfeldveränderung" }, "geometry": { "type": "Polygon", "coordinates": [ [ [ 13.470696661328063, 52.462598784459132 ], [ 13.470962374928526, 52.462831560708651 ], [ 13.471020858418704, 52.462935880459021 ], [ 13.47103882712771, 52.463680895306304 ], [ 13.471094588168762, 52.463723205251995 ], [ 13.472073023189063, 52.463719994860831 ], [ 13.472137790789608, 52.463711093346276 ], [ 13.472146748907877, 52.463674258476544 ], [ 13.472137415634656, 52.461888066246686 ], [ 13.472049627810055, 52.461834213860051 ], [ 13.471942525405657, 52.461834073578103 ], [ 13.47071219228787, 52.462533384621253 ], [ 13.470696661328063, 52.462598784459132 ] ] ] } },
{ "type": "Feature", "properties": { "id": "tf_kak_windfeldveraenderung_2022.1400776321000000", "schl5": "1400776321000000", "typklar": "Großsiedlung und Punkthochhäuser (1960er - 1990er), 4 - 11-geschossig und mehr", "art": "Windfeldveränderung" }, "geometry": { "type": "Polygon", "coordinates": [ [ [ 13.47372267670295, 52.464055543820798 ], [ 13.473768543402523, 52.463981911766581 ], [ 13.473706969446873, 52.463917129532028 ], [ 13.473648515857757, 52.463802024074248 ], [ 13.473643132100609, 52.461961561049499 ], [ 13.473584392407487, 52.461930033702124 ], [ 13.472619255727823, 52.461927880647366 ], [ 13.472572027374939, 52.461970055615915 ], [ 13.472556838071934, 52.463790722824278 ], [ 13.472527308085446, 52.463820338349215 ], [ 13.472462537212493, 52.46383014003716 ], [ 13.471076546341902, 52.463832817724253 ], [ 13.471033735239757, 52.463873201521757 ], [ 13.471039383922543, 52.464356687501443 ], [ 13.471071447231701, 52.464442999979823 ], [ 13.471124242796098, 52.464492495890958 ], [ 13.471266629701256, 52.464587042446375 ], [ 13.472149301818334, 52.465045618171679 ], [ 13.472261163203076, 52.465034980969961 ], [ 13.47372267670295, 52.464055543820798 ] ] ] } },
{ "type": "Feature", "properties": { "id": "tf_kak_windfeldveraenderung_2022.1400776331000000", "schl5": "1400776331000000", "typklar": "Großsiedlung und Punkthochhäuser (1960er - 1990er), 4 - 11-geschossig und mehr", "art": "Windfeldveränderung" }, "geometry": { "type": "Polygon", "coordinates": [ [ [ 13.475057277692862, 52.463167587336969 ], [ 13.476411530768484, 52.462356000974118 ], [ 13.476319744663414, 52.462276831792771 ], [ 13.476346497408112, 52.462196883526843 ], [ 13.476095564493898, 52.462006048269451 ], [ 13.476004486180916, 52.461965492896447 ], [ 13.47589571559247, 52.461934801031944 ], [ 13.475742765124059, 52.461917529779903 ], [ 13.475632421260253, 52.461917388823132 ], [ 13.475576393234313, 52.461952366593863 ], [ 13.475573675760062, 52.462745877780023 ], [ 13.475558738788994, 52.462811462092759 ], [ 13.475496815536179, 52.462849125894969 ], [ 13.475429045852941, 52.462875101440993 ], [ 13.475292210096622, 52.462876723484314 ], [ 13.475217236024811, 52.462859554100376 ], [ 13.475180561528273, 52.462828053998308 ], [ 13.47514833382893, 52.462787572492985 ], [ 13.475141128409605, 52.462743527658539 ], [ 13.475142354001866, 52.461958100855391 ], [ 13.475089504355305, 52.461923883654187 ], [ 13.474127286227729, 52.461929836537522 ], [ 13.474066842955823, 52.461963906977708 ], [ 13.474027956129582, 52.463697119685136 ], [ 13.47413360137778, 52.463758509783702 ], [ 13.475057277692862, 52.463167587336969 ] ] ] } },
{ "type": "Feature", "properties": { "id": "tf_kak_windfeldveraenderung_2022.1400776361000000", "schl5": "1400776361000000", "typklar": "Großsiedlung und Punkthochhäuser (1960er - 1990er), 4 - 11-geschossig und mehr", "art": "Windfeldveränderung" }, "geometry": { "type": "Polygon", "coordinates": [ [ [ 13.46378236761216, 52.471232445915206 ], [ 13.463902225140703, 52.471851788685505 ], [ 13.464149542125266, 52.471826966224207 ], [ 13.464312595403502, 52.473105084543356 ], [ 13.464402280683542, 52.473128571052484 ], [ 13.464519063324436, 52.472985845311243 ], [ 13.464780316888362, 52.47277411905403 ], [ 13.466576006725406, 52.471471711035008 ], [ 13.464667919576174, 52.47052192479574 ], [ 13.464277250141237, 52.470714600686641 ], [ 13.463404940666376, 52.471026133392414 ], [ 13.46378236761216, 52.471232445915206 ] ] ] } },
{ "type": "Feature", "properties": { "id": "tf_kak_windfeldveraenderung_2022.1400776511000000", "schl5": "1400776511000000", "typklar": "Großsiedlung und Punkthochhäuser (1960er - 1990er), 4 - 11-geschossig und mehr", "art": "Windfeldveränderung" }, "geometry": { "type": "Polygon", "coordinates": [ [ [ 13.465245897866842, 52.472624680519409 ], [ 13.46595521522033, 52.473028245562105 ], [ 13.466593135968553, 52.473644693508824 ], [ 13.466897553242125, 52.47370351746607 ], [ 13.467079556774657, 52.473835866427819 ], [ 13.46721837841592, 52.474108347628224 ], [ 13.467118286227411, 52.474114503203239 ], [ 13.467002911183705, 52.473869013030836 ], [ 13.466842926647889, 52.473751970729772 ], [ 13.46655617774368, 52.473690476076619 ], [ 13.465894700772154, 52.473076690361253 ], [ 13.465185391235593, 52.472671328646435 ], [ 13.464915395398176, 52.472859676152723 ], [ 13.464744138699636, 52.473008620141577 ], [ 13.464584482704527, 52.473204309767979 ], [ 13.464467340207213, 52.4734449903384 ], [ 13.464404335398731, 52.473770218914346 ], [ 13.464520898208306, 52.474888310599987 ], [ 13.464622457349831, 52.475685559908499 ], [ 13.464936388355481, 52.477166982352109 ], [ 13.465033364301663, 52.477210249757832 ], [ 13.46524097922358, 52.477184472694624 ], [ 13.465472248159546, 52.477129070004686 ], [ 13.465737498917385, 52.477037768496722 ], [ 13.466032346282786, 52.476901573056423 ], [ 13.466300704966068, 52.476764441823036 ], [ 13.467084014620399, 52.476264950365156 ], [ 13.467000558651792, 52.476145314493877 ], [ 13.467416272932404, 52.475140275778628 ], [ 13.467385480350822, 52.474700788568967 ], [ 13.467140202613626, 52.474158568292076 ], [ 13.467238832087826, 52.474150611721896 ], [ 13.467523761719383, 52.474717151155261 ], [ 13.467550099965683, 52.475166516625833 ], [ 13.467211749670811, 52.475941604169556 ], [ 13.467174482138349, 52.476072759295889 ], [ 13.467216777729977, 52.476179756110682 ], [ 13.46816358890929, 52.475634644484629 ], [ 13.46760571419617, 52.475252863481295 ], [ 13.46752062864458, 52.473614439859112 ], [ 13.465453956796923, 52.472471294275266 ], [ 13.465245897866842, 52.472624680519409 ] ] ] } },
{ "type": "Feature", "properties": { "id": "tf_kak_windfeldveraenderung_2022.1400781091000000", "schl5": "1400781091000000", "typklar": "Kerngebiet", "art": "Windfeldveränderung" }, "geometry": { "type": "Polygon", "coordinates": [ [ [ 13.43906566470541, 52.480339096281213 ], [ 13.439286482460151, 52.480200948948266 ], [ 13.439653084442764, 52.479441809632455 ], [ 13.437962853665002, 52.479121670635955 ], [ 13.4372628738501, 52.47962355277501 ], [ 13.436851840924449, 52.4799784798793 ], [ 13.43906566470541, 52.480339096281213 ] ] ] } },
{ "type": "Feature", "properties": { "id": "tf_kak_windfeldveraenderung_2022.1400781171000000", "schl5": "1400781171000000", "typklar": "Heterogene, innerstädtische Mischbebauung, Lückenschluss nach 1945", "art": "Windfeldveränderung" }, "geometry": { "type": "Polygon", "coordinates": [ [ [ 13.42802804657854, 52.479976568671049 ], [ 13.428480588071904, 52.47858091067296 ], [ 13.426100266843239, 52.478280243796227 ], [ 13.425647877598578, 52.479691269051152 ], [ 13.42802804657854, 52.479976568671049 ] ] ] } },
{ "type": "Feature", "properties": { "id": "tf_kak_windfeldveraenderung_2022.1400781761000000", "schl5": "1400781761000000", "typklar": "Großsiedlung und Punkthochhäuser (1960er - 1990er), 4 - 11-geschossig und mehr", "art": "Windfeldveränderung" }, "geometry": { "type": "Polygon", "coordinates": [ [ [ 13.431048918038565, 52.475954802081915 ], [ 13.431243724987167, 52.475351418382836 ], [ 13.430981539332853, 52.475317439340529 ], [ 13.429737335456394, 52.475589478652516 ], [ 13.429668792209728, 52.475778981260326 ], [ 13.431048918038565, 52.475954802081915 ] ] ] } },
{ "type": "Feature", "properties": { "id": "tf_kak_windfeldveraenderung_2022.1400782641000000", "schl5": "1400782641000000", "typklar": "Heterogene, innerstädtische Mischbebauung, Lückenschluss nach 1945", "art": "Windfeldveränderung" }, "geometry": { "type": "Polygon", "coordinates": [ [ [ 13.436077099451252, 52.46750474033 ], [ 13.436127717679851, 52.467368225192573 ], [ 13.435626339051954, 52.466940552871733 ], [ 13.432114376888798, 52.466532227153458 ], [ 13.431881406076849, 52.46697578171807 ], [ 13.436077099451252, 52.46750474033 ] ] ] } },
{ "type": "Feature", "properties": { "id": "tf_kak_windfeldveraenderung_2022.1400786031000000", "schl5": "1400786031000000", "typklar": "Heterogene, innerstädtische Mischbebauung, Lückenschluss nach 1945", "art": "Windfeldveränderung" }, "geometry": { "type": "Polygon", "coordinates": [ [ [ 13.431327546745909, 52.478939718792702 ], [ 13.431377652844805, 52.478789096463423 ], [ 13.432362641105065, 52.478912307217939 ], [ 13.432449206631897, 52.478877312057548 ], [ 13.432557359976828, 52.478548751567438 ], [ 13.432499750949635, 52.478495644713625 ], [ 13.431066344090089, 52.478316531727899 ], [ 13.43086342780442, 52.478881877539969 ], [ 13.431327546745909, 52.478939718792702 ] ] ] } },
{ "type": "Feature", "properties": { "id": "tf_kak_windfeldveraenderung_2022.1400790671000100", "schl5": "1400790671000100", "typklar": "Kerngebiet", "art": "Windfeldveränderung" }, "geometry": { "type": "Polygon", "coordinates": [ [ [ 13.420775782164924, 52.485358816767423 ], [ 13.420912845952348, 52.485592743533921 ], [ 13.421008586170506, 52.485942135111316 ], [ 13.421088990017548, 52.487105784351492 ], [ 13.421194929096147, 52.487079498674873 ], [ 13.423050789225307, 52.486541717661154 ], [ 13.42300912957079, 52.484788971126427 ], [ 13.422567918321038, 52.484792793321247 ], [ 13.422568801761861, 52.484834043650046 ], [ 13.420828496513087, 52.484816470052841 ], [ 13.420775782164924, 52.485358816767423 ] ] ] } },
{ "type": "Feature", "properties": { "id": "tf_kak_windfeldveraenderung_2022.1400816201001400", "schl5": "1400816201001400", "typklar": "Großsiedlung und Punkthochhäuser (1960er - 1990er), 4 - 11-geschossig und mehr", "art": "Windfeldveränderung" }, "geometry": { "type": "Polygon", "coordinates": [ [ [ 13.432435934837269, 52.418207071282112 ], [ 13.432763866831593, 52.418171662913231 ], [ 13.433250547756559, 52.418136513571788 ], [ 13.433885411559876, 52.418154611965065 ], [ 13.434963754427324, 52.418262416121721 ], [ 13.435030194155198, 52.418201428302581 ], [ 13.435082369171367, 52.418024460577662 ], [ 13.435270332292646, 52.417721921226864 ], [ 13.435524380932399, 52.417444622250031 ], [ 13.435782653436469, 52.417198833348621 ], [ 13.435441208616798, 52.416962822741162 ], [ 13.435038106564321, 52.41671324542245 ], [ 13.434170513244075, 52.416072940929226 ], [ 13.433687797689029, 52.415784250967697 ], [ 13.433357152624783, 52.416009726359505 ], [ 13.432106568525693, 52.416007674378264 ], [ 13.43208539487102, 52.41590986441809 ], [ 13.431941710538783, 52.415930835769814 ], [ 13.432435934837269, 52.418207071282112 ] ] ] } },
{ "type": "Feature", "properties": { "id": "tf_kak_windfeldveraenderung_2022.1400816251000300", "schl5": "1400816251000300", "typklar": "Großsiedlung und Punkthochhäuser (1960er - 1990er), 4 - 11-geschossig und mehr", "art": "Windfeldveränderung" }, "geometry": { "type": "Polygon", "coordinates": [ [ [ 13.458643517133918, 52.42108108351345 ], [ 13.458909713256507, 52.421507340786704 ], [ 13.459145658171922, 52.421885025888919 ], [ 13.461226404172178, 52.42139936038555 ], [ 13.461113950644783, 52.421247499130338 ], [ 13.460971760934841, 52.421104150982615 ], [ 13.460882152702714, 52.421034610380623 ], [ 13.460798604900063, 52.420983486045102 ], [ 13.460591137522657, 52.420893422286724 ], [ 13.460441772562307, 52.420850790533791 ], [ 13.460249224149386, 52.420809989612167 ], [ 13.458855034478026, 52.420578139530974 ], [ 13.458643517133918, 52.42108108351345 ] ] ] } },
{ "type": "Feature", "properties": { "id": "tf_kak_windfeldveraenderung_2022.1400816531000000", "schl5": "1400816531000000", "typklar": "Großsiedlung und Punkthochhäuser (1960er - 1990er), 4 - 11-geschossig und mehr", "art": "Windfeldveränderung" }, "geometry": { "type": "Polygon", "coordinates": [ [ [ 13.443151770922761, 52.420173701639996 ], [ 13.443401653736968, 52.420185843892661 ], [ 13.445338530614542, 52.420212338649264 ], [ 13.446461689474475, 52.420236499212564 ], [ 13.446608966379388, 52.420161842407673 ], [ 13.446798727132974, 52.419679559364617 ], [ 13.446913477592043, 52.41957157169815 ], [ 13.446973468097577, 52.419543374095198 ], [ 13.447109686576077, 52.419510300269771 ], [ 13.447199542131472, 52.419500451988199 ], [ 13.448671856828295, 52.419527637957188 ], [ 13.448767309605424, 52.419479524540868 ], [ 13.449319388155633, 52.417889419906729 ], [ 13.449185816347033, 52.417844285407277 ], [ 13.448893487014375, 52.417805203049269 ], [ 13.448774465180923, 52.41779693662744 ], [ 13.443626310442269, 52.417674050590044 ], [ 13.443574261623498, 52.418883576987085 ], [ 13.44355483747845, 52.418959934063103 ], [ 13.443501523091225, 52.419056906731775 ], [ 13.443365745820113, 52.419190598731568 ], [ 13.443225799332156, 52.419265869537533 ], [ 13.442913740786187, 52.419374124144767 ], [ 13.442394510487258, 52.419464979429357 ], [ 13.442171002779226, 52.419486198136795 ], [ 13.441671160683031, 52.419508783176163 ], [ 13.441022995697177, 52.419501477392849 ], [ 13.440480692219149, 52.419484448815162 ], [ 13.440395557890088, 52.419540529310858 ], [ 13.440340235068899, 52.420122287641576 ], [ 13.443151770922761, 52.420173701639996 ] ] ] } },
{ "type": "Feature", "properties": { "id": "tf_kak_windfeldveraenderung_2022.1400816641000000", "schl5": "1400816641000000", "typklar": "Großsiedlung und Punkthochhäuser (1960er - 1990er), 4 - 11-geschossig und mehr", "art": "Windfeldveränderung" }, "geometry": { "type": "Polygon", "coordinates": [ [ [ 13.43213750759662, 52.4202312865472 ], [ 13.433921342770903, 52.420702414189826 ], [ 13.434163920963298, 52.420354124734082 ], [ 13.434344601934377, 52.420042581973647 ], [ 13.43478549177583, 52.419043082971797 ], [ 13.43490602061013, 52.418703582372196 ], [ 13.434967496369756, 52.418418776319093 ], [ 13.434926606094754, 52.418363020188281 ], [ 13.434394834613963, 52.41828936421674 ], [ 13.433879100938849, 52.418245381492952 ], [ 13.433258899668763, 52.418235381538167 ], [ 13.432791348513277, 52.418267858795787 ], [ 13.432460482251711, 52.41830417510684 ], [ 13.431742768683558, 52.418416225930258 ], [ 13.43213750759662, 52.4202312865472 ] ] ] } },
{ "type": "Feature", "properties": { "id": "tf_kak_windfeldveraenderung_2022.1400816651000300", "schl5": "1400816651000300", "typklar": "Großsiedlung und Punkthochhäuser (1960er - 1990er), 4 - 11-geschossig und mehr", "art": "Windfeldveränderung" }, "geometry": { "type": "Polygon", "coordinates": [ [ [ 13.438062281495924, 52.418583688125317 ], [ 13.438032674434433, 52.417588873445666 ], [ 13.437268458915309, 52.417569663777208 ], [ 13.43666784079093, 52.417440182599854 ], [ 13.436112951317464, 52.417291921929063 ], [ 13.435993900009349, 52.417291736975059 ], [ 13.435616006586205, 52.417658661271794 ], [ 13.435360193334134, 52.418024911048803 ], [ 13.435256245611274, 52.418306521632047 ], [ 13.438062281495924, 52.418583688125317 ] ] ] } },
{ "type": "Feature", "properties": { "id": "tf_kak_windfeldveraenderung_2022.1400820041000000", "schl5": "1400820041000000", "typklar": "Großsiedlung und Punkthochhäuser (1960er - 1990er), 4 - 11-geschossig und mehr", "art": "Windfeldveränderung" }, "geometry": { "type": "Polygon", "coordinates": [ [ [ 13.468714769040492, 52.433050463178979 ], [ 13.46891674789523, 52.432946316553 ], [ 13.469599548426391, 52.433439352306543 ], [ 13.469987830846822, 52.433284650292649 ], [ 13.470056742521022, 52.433247707405691 ], [ 13.470065410908658, 52.433253749213506 ], [ 13.470265493097964, 52.433173762750464 ], [ 13.47038649607825, 52.433257678742613 ], [ 13.470587470643144, 52.433145530378155 ], [ 13.470355244923768, 52.432989574793559 ], [ 13.470552788004964, 52.432883074374473 ], [ 13.470607955595181, 52.432919992509589 ], [ 13.471331766160928, 52.432501250878836 ], [ 13.471954638575076, 52.432903150029816 ], [ 13.472105440397764, 52.432831562342685 ], [ 13.472035542332101, 52.432787247273623 ], [ 13.471816172638189, 52.43264567206311 ], [ 13.471870081755025, 52.432613750861783 ], [ 13.471719440809816, 52.432516416181635 ], [ 13.471755831892311, 52.432494905085044 ], [ 13.47156130300788, 52.432372610921256 ], [ 13.471774629729477, 52.432245370406093 ], [ 13.471929287043057, 52.432341900981704 ], [ 13.472150411989336, 52.43221278253538 ], [ 13.472046246067674, 52.432148921222129 ], [ 13.472244882225866, 52.432026153714801 ], [ 13.472929890138703, 52.432440172216737 ], [ 13.473003010594569, 52.432404473305397 ], [ 13.473064842480774, 52.432323071493137 ], [ 13.472925626668403, 52.432060129338709 ], [ 13.472616709584571, 52.431558452139399 ], [ 13.472504259159917, 52.43150958927167 ], [ 13.472252909881202, 52.431576112807903 ], [ 13.472010064967284, 52.431648506320634 ], [ 13.471897592119074, 52.431690407888141 ], [ 13.471689176799957, 52.431793041382839 ], [ 13.470938333890857, 52.432247318221179 ], [ 13.470787782264294, 52.432329527962665 ], [ 13.470636707692565, 52.432393133532301 ], [ 13.470506755621908, 52.432433222559837 ], [ 13.470368291307873, 52.432460718055644 ], [ 13.470096806188433, 52.432485261356092 ], [ 13.468567559622834, 52.432484925015608 ], [ 13.468567661968017, 52.432291891543514 ], [ 13.468546425576088, 52.432190942932024 ], [ 13.468487059011801, 52.432095785203821 ], [ 13.468397420553195, 52.432004720078169 ], [ 13.468247567999038, 52.431890739571791 ], [ 13.46811872132109, 52.431868477903414 ], [ 13.467849125160349, 52.432051353427319 ], [ 13.467598944846028, 52.432243232843504 ], [ 13.468714769040492, 52.433050463178979 ] ] ] } },
{ "type": "Feature", "properties": { "id": "tf_kak_windfeldveraenderung_2022.1400820511000000", "schl5": "1400820511000000", "typklar": "Großsiedlung und Punkthochhäuser (1960er - 1990er), 4 - 11-geschossig und mehr", "art": "Windfeldveränderung" }, "geometry": { "type": "Polygon", "coordinates": [ [ [ 13.459252472232233, 52.434154758843448 ], [ 13.459376291102135, 52.434193315901638 ], [ 13.460540200642134, 52.433764937509778 ], [ 13.460857532439974, 52.433637521483327 ], [ 13.46115771490461, 52.433495314889804 ], [ 13.461550249082979, 52.433269759408191 ], [ 13.461698695354885, 52.433169945503622 ], [ 13.461822441327676, 52.433073331905156 ], [ 13.46197840537552, 52.43291405735431 ], [ 13.462056156265756, 52.432806655553847 ], [ 13.462015200756955, 52.432745677286412 ], [ 13.460742621633706, 52.432366458931163 ], [ 13.460269321160421, 52.432190229967873 ], [ 13.460065577414094, 52.43216779961454 ], [ 13.459231792685488, 52.432981710278646 ], [ 13.458814437643605, 52.43331362509786 ], [ 13.458566539921948, 52.4334471018051 ], [ 13.459252472232233, 52.434154758843448 ] ] ] } },
{ "type": "Feature", "properties": { "id": "tf_kak_windfeldveraenderung_2022.1400826041000100", "schl5": "1400826041000100", "typklar": "Großsiedlung und Punkthochhäuser (1960er - 1990er), 4 - 11-geschossig und mehr", "art": "Windfeldveränderung" }, "geometry": { "type": "Polygon", "coordinates": [ [ [ 13.449252689091708, 52.432413756395405 ], [ 13.449342051477526, 52.432457745131934 ], [ 13.449875316739849, 52.432458903432625 ], [ 13.449873846968579, 52.432863031290239 ], [ 13.449850005902229, 52.432927757002744 ], [ 13.449800193774712, 52.432970940205976 ], [ 13.44972022539824, 52.433003398069509 ], [ 13.449622845820288, 52.433015069333749 ], [ 13.449884787664065, 52.433033780650128 ], [ 13.450318313313991, 52.432183298761117 ], [ 13.45044359522786, 52.43197573046875 ], [ 13.449607163358849, 52.431755925452265 ], [ 13.449015373459472, 52.431758991862438 ], [ 13.449252689091708, 52.432413756395405 ] ] ] } },
{ "type": "Feature", "properties": { "id": "tf_kak_windfeldveraenderung_2022.1400826071000000", "schl5": "1400826071000000", "typklar": "Großsiedlung und Punkthochhäuser (1960er - 1990er), 4 - 11-geschossig und mehr", "art": "Windfeldveränderung" }, "geometry": { "type": "Polygon", "coordinates": [ [ [ 13.458335373986788, 52.433212126682882 ], [ 13.458565399989673, 52.433073327591948 ], [ 13.458984305733924, 52.43271984705617 ], [ 13.459300084441024, 52.432420141364418 ], [ 13.459378448229034, 52.432303426373167 ], [ 13.459707504453558, 52.431990257567328 ], [ 13.459687939131015, 52.431944521056685 ], [ 13.458894100711806, 52.431695240880529 ], [ 13.457311861875398, 52.43122313866553 ], [ 13.457113402758251, 52.431362064049083 ], [ 13.456748113471942, 52.431522293788078 ], [ 13.456724668425712, 52.431583657935292 ], [ 13.458335373986788, 52.433212126682882 ] ] ] } },
{ "type": "Feature", "properties": { "id": "tf_kak_windfeldveraenderung_2022.1400826081000000", "schl5": "1400826081000000", "typklar": "Großsiedlung und Punkthochhäuser (1960er - 1990er), 4 - 11-geschossig und mehr", "art": "Windfeldveränderung" }, "geometry": { "type": "Polygon", "coordinates": [ [ [ 13.453765827699357, 52.430423152428318 ], [ 13.453618492875126, 52.430422937405979 ], [ 13.453610174833331, 52.43134424830108 ], [ 13.453818173822935, 52.431355772690303 ], [ 13.4540382146768, 52.431417806320916 ], [ 13.454254939199178, 52.431545287601999 ], [ 13.454588168723943, 52.431961346772525 ], [ 13.454680597969599, 52.431988224547297 ], [ 13.456613119482785, 52.431420488264173 ], [ 13.45689670234985, 52.43130872113921 ], [ 13.457125015156487, 52.431162381391474 ], [ 13.45619826419788, 52.430852797254033 ], [ 13.454046001524025, 52.429988884923411 ], [ 13.453772870433891, 52.430281450715555 ], [ 13.453765827699357, 52.430423152428318 ] ] ] } },
{ "type": "Feature", "properties": { "id": "tf_kak_windfeldveraenderung_2022.1400826131000100", "schl5": "1400826131000100", "typklar": "Großsiedlung und Punkthochhäuser (1960er - 1990er), 4 - 11-geschossig und mehr", "art": "Windfeldveränderung" }, "geometry": { "type": "Polygon", "coordinates": [ [ [ 13.465650434726321, 52.429934267079915 ], [ 13.46860259451531, 52.431983615089685 ], [ 13.468948559732134, 52.432186366826791 ], [ 13.469064809655531, 52.432245016065274 ], [ 13.469190651206294, 52.432290197503832 ], [ 13.469329197316309, 52.432318249763604 ], [ 13.469628444087919, 52.432338157306148 ], [ 13.470159228820807, 52.432333190422511 ], [ 13.470379150982561, 52.432304373578674 ], [ 13.470511462984666, 52.432266175483072 ], [ 13.470638552517524, 52.432212603210935 ], [ 13.471290925431861, 52.431823423054617 ], [ 13.471322399393728, 52.431740895044342 ], [ 13.470088164942274, 52.430982679978776 ], [ 13.470080317265996, 52.430707679491178 ], [ 13.470087655446568, 52.430213228757054 ], [ 13.470050180871908, 52.430213179004319 ], [ 13.470051135807106, 52.429981064041613 ], [ 13.470731276252613, 52.429556448156617 ], [ 13.47026065306261, 52.429189173165987 ], [ 13.469688648345628, 52.428806482380487 ], [ 13.468848051108271, 52.428302110629289 ], [ 13.468160362379724, 52.427909366169736 ], [ 13.466322506392618, 52.429071564513578 ], [ 13.46773351223387, 52.429985616237651 ], [ 13.467867064669155, 52.430050498821558 ], [ 13.468075788525999, 52.430062462480272 ], [ 13.468083755511609, 52.430300619127138 ], [ 13.467963171716717, 52.430308545010831 ], [ 13.467814751658564, 52.430288574737617 ], [ 13.467725239316026, 52.430241724519661 ], [ 13.467669737473654, 52.430140100553366 ], [ 13.46615454830356, 52.429170189659317 ], [ 13.465285546722475, 52.42960935275152 ], [ 13.465650434726321, 52.429934267079915 ] ] ] } },
{ "type": "Feature", "properties": { "id": "tf_kak_windfeldveraenderung_2022.1400826171000000", "schl5": "1400826171000000", "typklar": "Großsiedlung und Punkthochhäuser (1960er - 1990er), 4 - 11-geschossig und mehr", "art": "Windfeldveränderung" }, "geometry": { "type": "Polygon", "coordinates": [ [ [ 13.460978687767653, 52.429515821751636 ], [ 13.462746544283313, 52.428440690197796 ], [ 13.462968085030717, 52.428573148862419 ], [ 13.464036814004565, 52.427924580511586 ], [ 13.462931971346466, 52.42728193973111 ], [ 13.461758496909118, 52.427514604684454 ], [ 13.46147275971283, 52.427622902719079 ], [ 13.46080966686487, 52.428009996878686 ], [ 13.460301920943493, 52.428362284652444 ], [ 13.460289399718786, 52.429515761059534 ], [ 13.460978687767653, 52.429515821751636 ] ] ] } },
{ "type": "Feature", "properties": { "id": "tf_kak_windfeldveraenderung_2022.1400826251000100", "schl5": "1400826251000100", "typklar": "Großsiedlung und Punkthochhäuser (1960er - 1990er), 4 - 11-geschossig und mehr", "art": "Windfeldveränderung" }, "geometry": { "type": "Polygon", "coordinates": [ [ [ 13.462196924014986, 52.422341604092999 ], [ 13.462538028207026, 52.422275435835722 ], [ 13.462889430783365, 52.422231495321824 ], [ 13.463110955282467, 52.422216992755381 ], [ 13.463354913223021, 52.4222183881772 ], [ 13.463690500630808, 52.422240008096701 ], [ 13.466639103980777, 52.422579303402401 ], [ 13.467087930133744, 52.422706442975766 ], [ 13.467365432266012, 52.422795786521036 ], [ 13.466930762533316, 52.422268579599468 ], [ 13.467189667579628, 52.4218463764349 ], [ 13.466676087583464, 52.421884046429668 ], [ 13.466353289788675, 52.421889009659644 ], [ 13.46597719085668, 52.421874111298195 ], [ 13.465489371599318, 52.421824053018888 ], [ 13.465365026207062, 52.421862899986301 ], [ 13.464213788981734, 52.421666860737197 ], [ 13.464075160610312, 52.42196099318636 ], [ 13.463563794348644, 52.421923497240918 ], [ 13.463559836335985, 52.421831515911968 ], [ 13.463138629285572, 52.421823050648364 ], [ 13.463056241420157, 52.422017399293225 ], [ 13.462858448980386, 52.422035521755951 ], [ 13.462853947058212, 52.422090700278538 ], [ 13.4627206096288, 52.422114166904159 ], [ 13.462269694433463, 52.422003168415671 ], [ 13.462021059546608, 52.422053449414392 ], [ 13.462196924014986, 52.422341604092999 ] ] ] } },
{ "type": "Feature", "properties": { "id": "tf_kak_windfeldveraenderung_2022.1400826341000100", "schl5": "1400826341000100", "typklar": "Großsiedlung und Punkthochhäuser (1960er - 1990er), 4 - 11-geschossig und mehr", "art": "Windfeldveränderung" }, "geometry": { "type": "Polygon", "coordinates": [ [ [ 13.452575108094532, 52.42893496059731 ], [ 13.452924165335496, 52.428661927189687 ], [ 13.452647237164499, 52.428528003577533 ], [ 13.452608431287157, 52.427889233496721 ], [ 13.452254882499181, 52.427726327439352 ], [ 13.452309150681868, 52.427437723590018 ], [ 13.452465633662301, 52.426676550733028 ], [ 13.45268990670958, 52.426687706727336 ], [ 13.453198471596554, 52.425866515506392 ], [ 13.453274665709127, 52.425868194782559 ], [ 13.452742848871617, 52.42673469588852 ], [ 13.452524479140161, 52.426723548032776 ], [ 13.452343487356133, 52.427712024374259 ], [ 13.452679398278461, 52.42785686090631 ], [ 13.452729954340242, 52.428510082447119 ], [ 13.452971548771069, 52.428622302867304 ], [ 13.453405147634941, 52.428287770736553 ], [ 13.4535111051994, 52.428175897163008 ], [ 13.453555812173359, 52.428104671502929 ], [ 13.453592135912363, 52.428003966617496 ], [ 13.453519801639668, 52.427330757409528 ], [ 13.453520224441052, 52.427222917801849 ], [ 13.453544169465481, 52.427114216121531 ], [ 13.453584297387273, 52.427002838153456 ], [ 13.453667074395119, 52.426887932420861 ], [ 13.453761471471852, 52.426808087607604 ], [ 13.453866158366282, 52.426729157717979 ], [ 13.454036986655044, 52.426653020332232 ], [ 13.454231246929449, 52.426599383694452 ], [ 13.454413663436837, 52.426566400105315 ], [ 13.454590127906606, 52.426552279174103 ], [ 13.455491380440623, 52.426528425437141 ], [ 13.455685784048393, 52.426437042591914 ], [ 13.455820991370558, 52.426447122725392 ], [ 13.455878257974014, 52.426504711762703 ], [ 13.45588357555285, 52.426656279214804 ], [ 13.454508784152734, 52.426677974764758 ], [ 13.454320512267261, 52.426703760068435 ], [ 13.454138055106297, 52.426746630542581 ], [ 13.453990819713722, 52.426804829068274 ], [ 13.453884721148127, 52.426869377259514 ], [ 13.453813875912905, 52.426941167518578 ], [ 13.453754759067197, 52.427021061097633 ], [ 13.453714279407317, 52.427222304570257 ], [ 13.453709432284265, 52.427333731322157 ], [ 13.453764529708051, 52.427987856057221 ], [ 13.453747522585289, 52.428076096557106 ], [ 13.453713870183893, 52.428160917611038 ], [ 13.453641293558434, 52.428257563604888 ], [ 13.453549307418387, 52.428347391246298 ], [ 13.452752497699564, 52.429018394843879 ], [ 13.453196111205703, 52.429192181799664 ], [ 13.454439459145677, 52.428245147563459 ], [ 13.455599292910758, 52.42751351880451 ], [ 13.456748491223561, 52.426860949187748 ], [ 13.457245887137553, 52.426626956568356 ], [ 13.457255540900206, 52.42587557442053 ], [ 13.453010804857232, 52.425811119302828 ], [ 13.452094860627868, 52.425807512240084 ], [ 13.451873521485128, 52.425783526277918 ], [ 13.451920207769808, 52.425873461930578 ], [ 13.451933098149162, 52.425959754196121 ], [ 13.45192801644259, 52.426129594211815 ], [ 13.451880391420282, 52.426276903696412 ], [ 13.451816719392713, 52.426392739015711 ], [ 13.451674807784675, 52.426590235848167 ], [ 13.4514517561191, 52.42686040343856 ], [ 13.451234724005358, 52.427094634545412 ], [ 13.450287295598992, 52.428002676319139 ], [ 13.452575108094532, 52.42893496059731 ] ] ] } },
{ "type": "Feature", "properties": { "id": "tf_kak_windfeldveraenderung_2022.1400826351000100", "schl5": "1400826351000100", "typklar": "Großsiedlung und Punkthochhäuser (1960er - 1990er), 4 - 11-geschossig und mehr", "art": "Windfeldveränderung" }, "geometry": { "type": "Polygon", "coordinates": [ [ [ 13.458836850646842, 52.431252532987166 ], [ 13.459994820395451, 52.431677242802401 ], [ 13.460096833069866, 52.431662464778164 ], [ 13.460309370215455, 52.431459094936216 ], [ 13.460660749790621, 52.431205954857141 ], [ 13.461266695090387, 52.430883964261426 ], [ 13.461324575159098, 52.430801247489569 ], [ 13.46106469582565, 52.430566978373299 ], [ 13.460881985328321, 52.430525323192448 ], [ 13.460351339437796, 52.430190773850363 ], [ 13.460195773955885, 52.430001299958462 ], [ 13.460122677356173, 52.429891560675088 ], [ 13.460082913378042, 52.429753554007334 ], [ 13.460076083720738, 52.429493123271627 ], [ 13.457813007371591, 52.429489911324573 ], [ 13.457811460866015, 52.429444886036222 ], [ 13.460075833755408, 52.429447548469149 ], [ 13.460069470752243, 52.428406890467741 ], [ 13.460003796343416, 52.428340984204631 ], [ 13.458294212651328, 52.428334339348666 ], [ 13.45820427864224, 52.428370101266189 ], [ 13.458024281325637, 52.42847540559967 ], [ 13.457720358588523, 52.428472860195889 ], [ 13.457748049957837, 52.430004835857353 ], [ 13.458022845344065, 52.429997320504228 ], [ 13.458097751529444, 52.430016300352783 ], [ 13.458172590914407, 52.430053252551673 ], [ 13.458230720464268, 52.430128016594686 ], [ 13.458222210130948, 52.430200156554541 ], [ 13.458161599480492, 52.430257121594899 ], [ 13.458059882549366, 52.430295570051008 ], [ 13.457936261990367, 52.430318884784285 ], [ 13.457869507102551, 52.430546993052381 ], [ 13.457668047480603, 52.430825248152999 ], [ 13.457692528775983, 52.430884012557186 ], [ 13.458836850646842, 52.431252532987166 ] ] ] } },
{ "type": "Feature", "properties": { "id": "tf_kak_windfeldveraenderung_2022.1400826351000200", "schl5": "1400826351000200", "typklar": "Kerngebiet", "art": "Windfeldveränderung" }, "geometry": { "type": "Polygon", "coordinates": [ [ [ 13.454366349986692, 52.429651453223279 ], [ 13.455443784477191, 52.43008437843293 ], [ 13.456461140225647, 52.430471374765055 ], [ 13.457333337600812, 52.430772752793551 ], [ 13.457470627854805, 52.430764559389928 ], [ 13.457616782020374, 52.430591937453919 ], [ 13.457674905290633, 52.430467851113576 ], [ 13.457715121538243, 52.430001432957127 ], [ 13.457748049957837, 52.430004835857353 ], [ 13.457720358588523, 52.428472860195889 ], [ 13.457716144562747, 52.428310986375344 ], [ 13.4577457219279, 52.428265195532369 ], [ 13.457842224207839, 52.428215466495885 ], [ 13.456424228291908, 52.42821276303971 ], [ 13.45641854914499, 52.42814368551619 ], [ 13.455860787973064, 52.427822985518368 ], [ 13.455729947115799, 52.427826432110209 ], [ 13.454943056729963, 52.4283196749167 ], [ 13.454368872040932, 52.42874986123757 ], [ 13.454168576040519, 52.428853567288705 ], [ 13.453563789421978, 52.429315895742505 ], [ 13.454366349986692, 52.429651453223279 ] ] ] } },
{ "type": "Feature", "properties": { "id": "tf_kak_windfeldveraenderung_2022.1400826351000400", "schl5": "1400826351000400", "typklar": "Großsiedlung und Punkthochhäuser (1960er - 1990er), 4 - 11-geschossig und mehr", "art": "Windfeldveränderung" }, "geometry": { "type": "Polygon", "coordinates": [ [ [ 13.460571281392847, 52.426149973231297 ], [ 13.460478992517235, 52.42619364536737 ], [ 13.460253778773232, 52.426199585842788 ], [ 13.459848597117825, 52.426427407915604 ], [ 13.459679243489081, 52.426549186688597 ], [ 13.45964314610123, 52.426621095933584 ], [ 13.459653157291768, 52.42668055436976 ], [ 13.459714324826225, 52.426746342804435 ], [ 13.460764287132099, 52.4273815885701 ], [ 13.460766662365799, 52.426748931414188 ], [ 13.460602633324633, 52.426584244162477 ], [ 13.460512927365643, 52.42659310481455 ], [ 13.460513343168161, 52.426482568727195 ], [ 13.460857337363613, 52.426483051836186 ], [ 13.460854207499722, 52.42731701065938 ], [ 13.461243425968227, 52.42757708080547 ], [ 13.461500267495467, 52.427454840590173 ], [ 13.461790053211152, 52.427369298670357 ], [ 13.462613812462356, 52.427208279065034 ], [ 13.462888680174453, 52.427139013135999 ], [ 13.463772916029678, 52.42660269792475 ], [ 13.463773614864337, 52.426413400539815 ], [ 13.463966862075925, 52.426294015929741 ], [ 13.463395147508063, 52.425945311248775 ], [ 13.462001478524181, 52.425931321800192 ], [ 13.460566954867851, 52.425910108937181 ], [ 13.460571281392847, 52.426149973231297 ] ] ] } },
{ "type": "Feature", "properties": { "id": "tf_kak_windfeldveraenderung_2022.1400826361000100", "schl5": "1400826361000100", "typklar": "Großsiedlung und Punkthochhäuser (1960er - 1990er), 4 - 11-geschossig und mehr", "art": "Windfeldveränderung" }, "geometry": { "type": "Polygon", "coordinates": [ [ [ 13.4576363620814, 52.42575707143147 ], [ 13.457638719294534, 52.425877286729552 ], [ 13.460566954867851, 52.425910108937181 ], [ 13.462001478524181, 52.425931321800192 ], [ 13.462718984864681, 52.425491931249198 ], [ 13.462029675884947, 52.425066852978659 ], [ 13.461791816328853, 52.424789626872389 ], [ 13.461509789718002, 52.424881925851508 ], [ 13.461440825946404, 52.424903726519517 ], [ 13.461158682477695, 52.424462017076749 ], [ 13.461020785903004, 52.424497196367383 ], [ 13.460798897402373, 52.424153265839387 ], [ 13.460622801467549, 52.424089010651109 ], [ 13.459990696871074, 52.424392999385198 ], [ 13.459524436046465, 52.424555728167441 ], [ 13.458978397846176, 52.424684654279801 ], [ 13.458032039856018, 52.424892907348777 ], [ 13.457853354856297, 52.424913817003102 ], [ 13.457660437156935, 52.424925331992888 ], [ 13.4576363620814, 52.42575707143147 ] ] ] } },
{ "type": "Feature", "properties": { "id": "tf_kak_windfeldveraenderung_2022.1400826361000200", "schl5": "1400826361000200", "typklar": "Großsiedlung und Punkthochhäuser (1960er - 1990er), 4 - 11-geschossig und mehr", "art": "Windfeldveränderung" }, "geometry": { "type": "Polygon", "coordinates": [ [ [ 13.463345205712548, 52.425110019777847 ], [ 13.462771963732159, 52.42546144695077 ], [ 13.463362519202839, 52.425826405628655 ], [ 13.464715578350967, 52.425839587358929 ], [ 13.464159982368074, 52.425451478040252 ], [ 13.463937193457653, 52.425273235004262 ], [ 13.463707118577078, 52.425077907208916 ], [ 13.463458071320744, 52.424845706993437 ], [ 13.463242887092072, 52.424600073081301 ], [ 13.462814228156043, 52.424788431070269 ], [ 13.463345205712548, 52.425110019777847 ] ] ] } },
{ "type": "Feature", "properties": { "id": "tf_kak_windfeldveraenderung_2022.1400826401000000", "schl5": "1400826401000000", "typklar": "Großsiedlung und Punkthochhäuser (1960er - 1990er), 4 - 11-geschossig und mehr", "art": "Windfeldveränderung" }, "geometry": { "type": "Polygon", "coordinates": [ [ [ 13.463110492824997, 52.427196466618589 ], [ 13.46452141041566, 52.428023466618725 ], [ 13.465546314115912, 52.427365895380532 ], [ 13.464158710683515, 52.426555011397276 ], [ 13.463110492824997, 52.427196466618589 ] ] ] } },
{ "type": "Feature", "properties": { "id": "tf_kak_windfeldveraenderung_2022.1400826411000000", "schl5": "1400826411000000", "typklar": "Großsiedlung und Punkthochhäuser (1960er - 1990er), 4 - 11-geschossig und mehr", "art": "Windfeldveränderung" }, "geometry": { "type": "Polygon", "coordinates": [ [ [ 13.464366558622402, 52.426437432414055 ], [ 13.464365922373165, 52.426610657160545 ], [ 13.465651490169284, 52.427364252841919 ], [ 13.464573870753741, 52.42805746994155 ], [ 13.46601441365334, 52.428895008103211 ], [ 13.467850172252572, 52.427727019522457 ], [ 13.465183635472947, 52.426117894402104 ], [ 13.464905597027656, 52.425961942495981 ], [ 13.463561813992483, 52.425943115703674 ], [ 13.464366558622402, 52.426437432414055 ] ] ] } },
{ "type": "Feature", "properties": { "id": "tf_kak_windfeldveraenderung_2022.1400826421000100", "schl5": "1400826421000100", "typklar": "Großsiedlung und Punkthochhäuser (1960er - 1990er), 4 - 11-geschossig und mehr", "art": "Windfeldveränderung" }, "geometry": { "type": "Polygon", "coordinates": [ [ [ 13.467046369821972, 52.426886986297525 ], [ 13.467422015621546, 52.427079808634652 ], [ 13.468142257301141, 52.427519326776796 ], [ 13.469540602017785, 52.426616233691064 ], [ 13.469926543930233, 52.426395675012877 ], [ 13.470254980470486, 52.426223565978965 ], [ 13.470471415911632, 52.426128593143453 ], [ 13.470957529623826, 52.425951133955337 ], [ 13.469261794687119, 52.42597965618188 ], [ 13.468543195593071, 52.426006149095109 ], [ 13.465462045214892, 52.425962805019921 ], [ 13.467046369821972, 52.426886986297525 ] ] ] } },
{ "type": "Feature", "properties": { "id": "tf_kak_windfeldveraenderung_2022.1400826421000200", "schl5": "1400826421000200", "typklar": "Großsiedlung und Punkthochhäuser (1960er - 1990er), 4 - 11-geschossig und mehr", "art": "Windfeldveränderung" }, "geometry": { "type": "Polygon", "coordinates": [ [ [ 13.467636540811711, 52.425878654023329 ], [ 13.46856126612343, 52.425869037414998 ], [ 13.468020133380778, 52.424682968818452 ], [ 13.467869242268952, 52.424076662105939 ], [ 13.466776657936123, 52.424078265569435 ], [ 13.466765641797215, 52.424011734889476 ], [ 13.465587066042126, 52.424147753441147 ], [ 13.465592339932842, 52.424441844497835 ], [ 13.465698478442038, 52.424416520117681 ], [ 13.46594552143552, 52.424394389807347 ], [ 13.46738320371268, 52.424389145564817 ], [ 13.467477078634777, 52.424446788107389 ], [ 13.467478209443808, 52.424540250276486 ], [ 13.467383909685264, 52.424601232996039 ], [ 13.467213410738285, 52.424594713172013 ], [ 13.467135658524414, 52.424551471963419 ], [ 13.466965331362841, 52.42449732169235 ], [ 13.465934835947762, 52.424502214862628 ], [ 13.465727472622211, 52.424527995313937 ], [ 13.465527363666567, 52.424578946721525 ], [ 13.465399278009649, 52.424632692059092 ], [ 13.464321090830698, 52.425214375246924 ], [ 13.465223413046271, 52.425824434992052 ], [ 13.467636540811711, 52.425878654023329 ] ] ] } },
{ "type": "Feature", "properties": { "id": "tf_kak_windfeldveraenderung_2022.1400826421000500", "schl5": "1400826421000500", "typklar": "Großsiedlung und Punkthochhäuser (1960er - 1990er), 4 - 11-geschossig und mehr", "art": "Windfeldveränderung" }, "geometry": { "type": "Polygon", "coordinates": [ [ [ 13.463157228291889, 52.423913373895068 ], [ 13.463405356993459, 52.424257771336933 ], [ 13.466320301398039, 52.423526153970236 ], [ 13.466567785002232, 52.422730303356417 ], [ 13.46641608654253, 52.422704987469295 ], [ 13.464468996508733, 52.423029756934362 ], [ 13.463277207624731, 52.423429191877439 ], [ 13.462935125622565, 52.423511575882863 ], [ 13.463157228291889, 52.423913373895068 ] ] ] } },
{ "type": "Feature", "properties": { "id": "tf_kak_windfeldveraenderung_2022.1400826431000000", "schl5": "1400826431000000", "typklar": "Großsiedlung und Punkthochhäuser (1960er - 1990er), 4 - 11-geschossig und mehr", "art": "Windfeldveränderung" }, "geometry": { "type": "Polygon", "coordinates": [ [ [ 13.462908506320252, 52.423468819507164 ], [ 13.463234123278177, 52.423394308182324 ], [ 13.464439687263262, 52.422987687059617 ], [ 13.466304083538162, 52.422676614174939 ], [ 13.463643303444041, 52.422370053065698 ], [ 13.463368262391285, 52.422351690763378 ], [ 13.463139866980091, 52.422352432573469 ], [ 13.462805845294239, 52.42237524228068 ], [ 13.462277804732613, 52.422460190988616 ], [ 13.462908506320252, 52.423468819507164 ] ] ] } },
{ "type": "Feature", "properties": { "id": "tf_kak_windfeldveraenderung_2022.1400826461000000", "schl5": "1400826461000000", "typklar": "Großsiedlung und Punkthochhäuser (1960er - 1990er), 4 - 11-geschossig und mehr", "art": "Windfeldveränderung" }, "geometry": { "type": "Polygon", "coordinates": [ [ [ 13.456640349113487, 52.424369698472653 ], [ 13.45678577686515, 52.424526557380538 ], [ 13.45687090504836, 52.424600793489745 ], [ 13.456975341920975, 52.424670004645975 ], [ 13.457071577108385, 52.42472235907173 ], [ 13.457195384682125, 52.424769700124749 ], [ 13.457344054109019, 52.424800232838237 ], [ 13.45748176111748, 52.424815589149304 ], [ 13.457608492322739, 52.424819139699814 ], [ 13.457823465232307, 52.424804287269488 ], [ 13.458074319065213, 52.424772642128474 ], [ 13.459039506603391, 52.424555041514516 ], [ 13.459422848433549, 52.424461258046271 ], [ 13.459840842956329, 52.424325720372551 ], [ 13.460301757933404, 52.424112486741727 ], [ 13.460507390897909, 52.424006312499287 ], [ 13.459545569061309, 52.423339615684412 ], [ 13.458092267826105, 52.423679486114729 ], [ 13.458133306807794, 52.423755343733973 ], [ 13.456624822973653, 52.424108592630141 ], [ 13.456682300203346, 52.424208055803682 ], [ 13.456549924779225, 52.424239869152004 ], [ 13.456640349113487, 52.424369698472653 ] ] ] } },
{ "type": "Feature", "properties": { "id": "tf_kak_windfeldveraenderung_2022.1400826471000000", "schl5": "1400826471000000", "typklar": "Großsiedlung und Punkthochhäuser (1960er - 1990er), 4 - 11-geschossig und mehr", "art": "Windfeldveränderung" }, "geometry": { "type": "Polygon", "coordinates": [ [ [ 13.455956800020861, 52.423293438166503 ], [ 13.45646656081561, 52.424105229962429 ], [ 13.457904603081218, 52.423760069803208 ], [ 13.457858046649587, 52.423685889809178 ], [ 13.459570569292287, 52.42328575003139 ], [ 13.460568094412659, 52.423982816084653 ], [ 13.460893701952022, 52.423853573900637 ], [ 13.461348770494931, 52.423732934461448 ], [ 13.462485343563923, 52.423449881566619 ], [ 13.461567622178185, 52.421981464842474 ], [ 13.461472887348862, 52.421957251567022 ], [ 13.456040277252209, 52.423225538427772 ], [ 13.455956800020861, 52.423293438166503 ] ] ] } },
{ "type": "Feature", "properties": { "id": "tf_kak_windfeldveraenderung_2022.1400830491000000", "schl5": "1400830491000000", "typklar": "Großsiedlung und Punkthochhäuser (1960er - 1990er), 4 - 11-geschossig und mehr", "art": "Windfeldveränderung" }, "geometry": { "type": "Polygon", "coordinates": [ [ [ 13.475192376356338, 52.420813728063763 ], [ 13.475448103606453, 52.420823042070943 ], [ 13.47775736385343, 52.420803508673146 ], [ 13.47790596780175, 52.420759660794907 ], [ 13.47797540631246, 52.420655501595981 ], [ 13.480214080238884, 52.420641223443141 ], [ 13.480219232041774, 52.420742388539679 ], [ 13.480082292211529, 52.420803688194326 ], [ 13.480092651195132, 52.421317588426518 ], [ 13.480516275589178, 52.422127054910355 ], [ 13.480607830838826, 52.422029251064131 ], [ 13.480667111257317, 52.421882843572384 ], [ 13.480741699886785, 52.421552225804348 ], [ 13.480756882757012, 52.421405761360241 ], [ 13.481266347820663, 52.421139486078452 ], [ 13.480136250878134, 52.420209627265265 ], [ 13.479598952153854, 52.420004497506042 ], [ 13.479327170300625, 52.419915944083257 ], [ 13.479044248649458, 52.419842296051009 ], [ 13.478703683787952, 52.419766096573838 ], [ 13.478398823311059, 52.419721614200704 ], [ 13.478096055941078, 52.419685718435964 ], [ 13.477793209381845, 52.419663918956878 ], [ 13.477428125958749, 52.419655891783755 ], [ 13.476773995960015, 52.419680697511602 ], [ 13.473872497982248, 52.419814192422301 ], [ 13.473863569658031, 52.41997176359267 ], [ 13.473841248361536, 52.420050818564185 ], [ 13.473526649001629, 52.420489860411756 ], [ 13.475192376356338, 52.420813728063763 ] ] ] } },
{ "type": "Feature", "properties": { "id": "tf_kak_windfeldveraenderung_2022.1400836191000100", "schl5": "1400836191000100", "typklar": "Großsiedlung und Punkthochhäuser (1960er - 1990er), 4 - 11-geschossig und mehr", "art": "Windfeldveränderung" }, "geometry": { "type": "Polygon", "coordinates": [ [ [ 13.47145157313318, 52.425818047594426 ], [ 13.47167664973759, 52.425772508698586 ], [ 13.472144335914729, 52.425712911142448 ], [ 13.472422256745681, 52.425689010237647 ], [ 13.472710439598167, 52.4256741082879 ], [ 13.473848370648179, 52.42564143583926 ], [ 13.473294793609979, 52.423766101333591 ], [ 13.471974740746727, 52.423767974655092 ], [ 13.471975641388196, 52.423929736649974 ], [ 13.470768342964364, 52.424053963762368 ], [ 13.470433181915601, 52.424054418499509 ], [ 13.470438066933095, 52.423920524687574 ], [ 13.469631058846524, 52.423914962408922 ], [ 13.469619503221011, 52.423857430544714 ], [ 13.470355907314797, 52.423874583392227 ], [ 13.470360623224703, 52.423788318791814 ], [ 13.470691333971269, 52.423798639215534 ], [ 13.470680410340991, 52.423978358220758 ], [ 13.470745012320579, 52.424000012826596 ], [ 13.471821444169642, 52.423886397911517 ], [ 13.471820669547435, 52.423688690115519 ], [ 13.473270066856362, 52.42369058205184 ], [ 13.473230067566591, 52.423410695067169 ], [ 13.472556177342717, 52.423405006975095 ], [ 13.472151098208414, 52.423424689846186 ], [ 13.469571358122543, 52.423678998758888 ], [ 13.469579300988578, 52.4237699650254 ], [ 13.468744140128122, 52.423864861456373 ], [ 13.468778019639489, 52.425871166063459 ], [ 13.47145157313318, 52.425818047594426 ] ] ] } },
{ "type": "Feature", "properties": { "id": "tf_kak_windfeldveraenderung_2022.1400836201000200", "schl5": "1400836201000200", "typklar": "Großsiedlung und Punkthochhäuser (1960er - 1990er), 4 - 11-geschossig und mehr", "art": "Windfeldveränderung" }, "geometry": { "type": "Polygon", "coordinates": [ [ [ 13.468499593881022, 52.42233886332231 ], [ 13.469759781961043, 52.42228290081821 ], [ 13.469749907544536, 52.422649702836139 ], [ 13.468548769291656, 52.422967755646916 ], [ 13.468571616935694, 52.423263380581545 ], [ 13.468805940644211, 52.423288446636462 ], [ 13.469104150786352, 52.423273510794886 ], [ 13.470773016683887, 52.423146315937082 ], [ 13.470542740860196, 52.422170059060456 ], [ 13.470490101440898, 52.422090906169295 ], [ 13.470424158271562, 52.422033305495347 ], [ 13.470336090837645, 52.421997241794678 ], [ 13.470095162738128, 52.421958280195106 ], [ 13.469499851149923, 52.421955693532155 ], [ 13.469393839221178, 52.422005876215003 ], [ 13.469305375935592, 52.422081248097633 ], [ 13.469152510419226, 52.422078348084959 ], [ 13.469046971686678, 52.421995530778325 ], [ 13.469045821841055, 52.421905662109921 ], [ 13.469146007086385, 52.421841092203287 ], [ 13.470099967691015, 52.421846852352793 ], [ 13.470246912172028, 52.421860526825647 ], [ 13.470395256465448, 52.421893074524213 ], [ 13.470483614809481, 52.421932540591257 ], [ 13.470495636143985, 52.421251526250948 ], [ 13.469472048390964, 52.421244954158922 ], [ 13.469488986974905, 52.421302619591955 ], [ 13.46898329114156, 52.421301945665618 ], [ 13.468605616619257, 52.421453408070107 ], [ 13.468587706666007, 52.421668233180228 ], [ 13.468450566696673, 52.421668049870938 ], [ 13.468499593881022, 52.42233886332231 ] ] ] } },
{ "type": "Feature", "properties": { "id": "tf_kak_windfeldveraenderung_2022.1400836211000000", "schl5": "1400836211000000", "typklar": "Großsiedlung und Punkthochhäuser (1960er - 1990er), 4 - 11-geschossig und mehr", "art": "Windfeldveränderung" }, "geometry": { "type": "Polygon", "coordinates": [ [ [ 13.479637930841042, 52.425487016442993 ], [ 13.479512044841478, 52.424442609650043 ], [ 13.479479917951565, 52.424378764137309 ], [ 13.479430146060549, 52.424315794882069 ], [ 13.479358309622707, 52.424258191826034 ], [ 13.479257037620981, 52.42421133301567 ], [ 13.479035231963971, 52.424161629700798 ], [ 13.477169800897265, 52.424162881453071 ], [ 13.477040408266447, 52.424172601971065 ], [ 13.476830009605752, 52.424228054132044 ], [ 13.476684218890888, 52.424305153745756 ], [ 13.476629659182015, 52.424354510603742 ], [ 13.476577973793621, 52.424423641781168 ], [ 13.476505569577569, 52.424595070354691 ], [ 13.476505337446557, 52.424663353121829 ], [ 13.476583366449358, 52.424709542571705 ], [ 13.4766949734408, 52.425558094211922 ], [ 13.479637930841042, 52.425487016442993 ] ] ] } },
{ "type": "Feature", "properties": { "id": "tf_kak_windfeldveraenderung_2022.1400836711000000", "schl5": "1400836711000000", "typklar": "Großsiedlung und Punkthochhäuser (1960er - 1990er), 4 - 11-geschossig und mehr", "art": "Windfeldveränderung" }, "geometry": { "type": "Polygon", "coordinates": [ [ [ 13.473593808540453, 52.424014519069438 ], [ 13.474052740596967, 52.425631814398798 ], [ 13.476393363565183, 52.425566246832261 ], [ 13.476293025461628, 52.424690395620459 ], [ 13.476299121839988, 52.424540182220497 ], [ 13.476321761854557, 52.424451443928888 ], [ 13.476397572986588, 52.424328631196644 ], [ 13.476508063288742, 52.424233036367255 ], [ 13.476575840977207, 52.424186392578896 ], [ 13.476687722300737, 52.424138904513882 ], [ 13.47681574897066, 52.424098626645495 ], [ 13.477029064109207, 52.424049470798344 ], [ 13.477168749644179, 52.424038863281787 ], [ 13.479038570924795, 52.424042113262139 ], [ 13.479185515334331, 52.424058470303343 ], [ 13.479278059859448, 52.424078358653276 ], [ 13.479366171719727, 52.424104528654254 ], [ 13.479474796950981, 52.424150497421451 ], [ 13.479549617874708, 52.424195523348686 ], [ 13.479625823307837, 52.424265712493977 ], [ 13.4796872849161, 52.424349365903204 ], [ 13.479717872954172, 52.424434776545333 ], [ 13.479851163443557, 52.425463916076595 ], [ 13.481363917725844, 52.425438825042889 ], [ 13.481574315123462, 52.425383366601352 ], [ 13.482144746080687, 52.425366991741271 ], [ 13.482155953288725, 52.424115816232479 ], [ 13.482104674502532, 52.424117245617381 ], [ 13.48210792691237, 52.423869471569041 ], [ 13.481658679338173, 52.423868921302798 ], [ 13.481661012885009, 52.423901762546699 ], [ 13.481368014958257, 52.423904387488271 ], [ 13.481367793356887, 52.423971556369594 ], [ 13.480442437721781, 52.423970415269693 ], [ 13.480440113597531, 52.423934589065439 ], [ 13.480161774668224, 52.423934243545041 ], [ 13.48016413976648, 52.423865398396011 ], [ 13.479544592412971, 52.423864628747616 ], [ 13.479544706516487, 52.423830112415374 ], [ 13.479089967926933, 52.423828612322311 ], [ 13.479090195658401, 52.423760511128279 ], [ 13.4774729696449, 52.423757548065431 ], [ 13.477471563068899, 52.423722095946438 ], [ 13.476325556185728, 52.423720644162806 ], [ 13.476325677066251, 52.423685193729888 ], [ 13.475487914205422, 52.423685059040587 ], [ 13.475487192302205, 52.423449966939906 ], [ 13.473443925479366, 52.423447336113981 ], [ 13.473593808540453, 52.424014519069438 ] ] ] } },
{ "type": "Feature", "properties": { "id": "tf_kak_windfeldveraenderung_2022.1400836721000100", "schl5": "1400836721000100", "typklar": "Großsiedlung und Punkthochhäuser (1960er - 1990er), 4 - 11-geschossig und mehr", "art": "Windfeldveränderung" }, "geometry": { "type": "Polygon", "coordinates": [ [ [ 13.481155122514382, 52.423307069216413 ], [ 13.481153299129218, 52.423860836533819 ], [ 13.481575685276605, 52.423862849147177 ], [ 13.481573356012268, 52.423828515427601 ], [ 13.482181301346744, 52.423830752883838 ], [ 13.482190432409102, 52.424024806666019 ], [ 13.483338375671917, 52.424019545979249 ], [ 13.483389749676942, 52.42404297501659 ], [ 13.48345279768917, 52.424093375166038 ], [ 13.483465914586331, 52.424127540624049 ], [ 13.483443599470124, 52.424209293788529 ], [ 13.4834214541508, 52.424238920453909 ], [ 13.483371393765061, 52.424264023433999 ], [ 13.483284598852833, 52.424284587553174 ], [ 13.482795068546126, 52.424290282561287 ], [ 13.482639200278442, 52.424304472488153 ], [ 13.482586247718855, 52.424315191796303 ], [ 13.48251998612008, 52.42434926101086 ], [ 13.482441802839151, 52.424432741576709 ], [ 13.482403150572567, 52.424564797828992 ], [ 13.482399070188782, 52.425364606576579 ], [ 13.482653295095394, 52.425391875876095 ], [ 13.482833960719981, 52.425437926291266 ], [ 13.483179067265569, 52.425547086466928 ], [ 13.485078321872795, 52.424176837615576 ], [ 13.485080799749619, 52.424064286265093 ], [ 13.482951063235223, 52.422414671602027 ], [ 13.481996314690852, 52.422892976285922 ], [ 13.481038649637355, 52.422885434994797 ], [ 13.481055015165794, 52.423308439066645 ], [ 13.481155122514382, 52.423307069216413 ] ] ] } },
{ "type": "Feature", "properties": { "id": "tf_kak_windfeldveraenderung_2022.1400836731000100", "schl5": "1400836731000100", "typklar": "Großsiedlung und Punkthochhäuser (1960er - 1990er), 4 - 11-geschossig und mehr", "art": "Windfeldveränderung" }, "geometry": { "type": "Polygon", "coordinates": [ [ [ 13.474318470011038, 52.423399955470671 ], [ 13.474317043431434, 52.423371034196641 ], [ 13.474910639939857, 52.423372730100816 ], [ 13.474909616818858, 52.423226263190628 ], [ 13.475300262975583, 52.423226764026097 ], [ 13.475303155106374, 52.423273413104347 ], [ 13.475942478610735, 52.423263553739247 ], [ 13.476234365841908, 52.423264497426693 ], [ 13.477084386040751, 52.423267241135143 ], [ 13.477091122837244, 52.422782630029616 ], [ 13.476713110879956, 52.422764552102677 ], [ 13.476621579806823, 52.422838450384312 ], [ 13.475586762362234, 52.422829942668592 ], [ 13.475300716279106, 52.42265613382007 ], [ 13.473397192284647, 52.42263930441991 ], [ 13.473437992172705, 52.42339788473906 ], [ 13.474318470011038, 52.423399955470671 ] ] ] } },
{ "type": "Feature", "properties": { "id": "tf_kak_windfeldveraenderung_2022.1400836731000200", "schl5": "1400836731000200", "typklar": "Großsiedlung und Punkthochhäuser (1960er - 1990er), 4 - 11-geschossig und mehr", "art": "Windfeldveränderung" }, "geometry": { "type": "Polygon", "coordinates": [ [ [ 13.477091122837244, 52.422782630029616 ], [ 13.477084386040751, 52.423267241135143 ], [ 13.478500362415582, 52.423259468444229 ], [ 13.478516073653932, 52.422706013636507 ], [ 13.479051260142912, 52.422703875600298 ], [ 13.479051174074504, 52.422381649825525 ], [ 13.478869329039327, 52.422342522185424 ], [ 13.478719611071126, 52.4222785291348 ], [ 13.478568544389059, 52.422177690000105 ], [ 13.478479278383825, 52.422058054399741 ], [ 13.478418123727705, 52.421884537091891 ], [ 13.478221965472271, 52.421205797159928 ], [ 13.478176705308092, 52.421114075137091 ], [ 13.478102048749545, 52.421023217249427 ], [ 13.477952367963878, 52.420949338821202 ], [ 13.477786362261755, 52.420922169285106 ], [ 13.475516192371161, 52.420931935895439 ], [ 13.475564773522949, 52.422519791745025 ], [ 13.476619695913174, 52.422527508594769 ], [ 13.476754807005761, 52.422563627050394 ], [ 13.476814796196487, 52.422646381915136 ], [ 13.476785180280158, 52.422710148408093 ], [ 13.476713110879956, 52.422764552102677 ], [ 13.477091122837244, 52.422782630029616 ] ] ] } },
{ "type": "Feature", "properties": { "id": "tf_kak_windfeldveraenderung_2022.1400836731000400", "schl5": "1400836731000400", "typklar": "Großsiedlung und Punkthochhäuser (1960er - 1990er), 4 - 11-geschossig und mehr", "art": "Windfeldveränderung" }, "geometry": { "type": "Polygon", "coordinates": [ [ [ 13.475940610395185, 52.423389907074849 ], [ 13.475562169180675, 52.423390356956425 ], [ 13.475561290932843, 52.423646903717511 ], [ 13.476441776922393, 52.423648025432904 ], [ 13.4764431854374, 52.423682544317117 ], [ 13.477590717864238, 52.423683997525139 ], [ 13.477590598029542, 52.423719447067214 ], [ 13.47920782686967, 52.423721475287678 ], [ 13.479209121649207, 52.423790512261959 ], [ 13.479662337483967, 52.42379107702115 ], [ 13.479662222000943, 52.423825593335565 ], [ 13.480295500534323, 52.423827313007045 ], [ 13.480291302018923, 52.423897088549005 ], [ 13.480562311162167, 52.423898916607627 ], [ 13.480559761328209, 52.423931751764073 ], [ 13.481082262594157, 52.423930903374639 ], [ 13.481084170843024, 52.423351761521097 ], [ 13.480920959168401, 52.4233560697934 ], [ 13.480592226218105, 52.422267298989468 ], [ 13.480189247203889, 52.422368429333119 ], [ 13.479961747703632, 52.422405992444219 ], [ 13.479947278628249, 52.423420049566047 ], [ 13.481001047703618, 52.423461562120977 ], [ 13.480991732475998, 52.423598969657945 ], [ 13.479945398334122, 52.423551789326297 ], [ 13.476229156710385, 52.423414188220292 ], [ 13.476234365841908, 52.423264497426693 ], [ 13.475942478610735, 52.423263553739247 ], [ 13.475940610395185, 52.423389907074849 ] ] ] } },
{ "type": "Feature", "properties": { "id": "tf_kak_windfeldveraenderung_2022.1400836741000000", "schl5": "1400836741000000", "typklar": "Großsiedlung und Punkthochhäuser (1960er - 1990er), 4 - 11-geschossig und mehr", "art": "Windfeldveränderung" }, "geometry": { "type": "Polygon", "coordinates": [ [ [ 13.478146701112083, 52.420857917518106 ], [ 13.478252257345437, 52.420939829548679 ], [ 13.478326945483298, 52.421022600233883 ], [ 13.478386899775822, 52.421114338696455 ], [ 13.47850776645519, 52.421453289750154 ], [ 13.478673490937263, 52.422003480783964 ], [ 13.478688099598658, 52.422030458715362 ], [ 13.478808206910914, 52.422159118880522 ], [ 13.478974061021129, 52.422232117235147 ], [ 13.479184108492616, 52.422278212389983 ], [ 13.479423647649492, 52.422296484041354 ], [ 13.479633852261779, 52.422295846372826 ], [ 13.479919080033339, 52.422277330278639 ], [ 13.480155823667198, 52.422252461076681 ], [ 13.480323524341539, 52.4222131264358 ], [ 13.480455835798999, 52.422161402793066 ], [ 13.480024234461682, 52.421332256266979 ], [ 13.480005790376804, 52.42083064004283 ], [ 13.479780176712834, 52.420728754933592 ], [ 13.478251491325828, 52.42072954158423 ], [ 13.478147069406958, 52.420748280897072 ], [ 13.478115987565243, 52.420812048636947 ], [ 13.478146701112083, 52.420857917518106 ] ] ] } },
{ "type": "Feature", "properties": { "id": "tf_kak_windfeldveraenderung_2022.1400836751000000", "schl5": "1400836751000000", "typklar": "Großsiedlung und Punkthochhäuser (1960er - 1990er), 4 - 11-geschossig und mehr", "art": "Windfeldveränderung" }, "geometry": { "type": "Polygon", "coordinates": [ [ [ 13.475492756503971, 52.422519699276677 ], [ 13.475417190503702, 52.420926305715433 ], [ 13.475120196207689, 52.420906662639823 ], [ 13.47343802994782, 52.420612862948467 ], [ 13.473328595790155, 52.420803237783907 ], [ 13.473298861191603, 52.420900255596059 ], [ 13.473294048924959, 52.421016177211335 ], [ 13.473366769671493, 52.422510755656276 ], [ 13.475492756503971, 52.422519699276677 ] ] ] } }
]
}
