{"type": "FeatureCollection", "name": "tk_kak_leitbahnkorridor_2022_neukoelln", "features": [{"type": "Feature", "properties": {"id": "tk_kak_leitbahnkorridor_2022.1400830061000700", "schl5": "1400830061000700", "typklar": "Kleingartenanlage", "art": "Leitbahnkorridor"}, "geometry": {"type": "Polygon", "coordinates": [[[13.490719246545307, 52.4049001173023], [13.49088656645879, 52.404961420624275], [13.493702408656532, 52.404288823870885], [13.494177304934613, 52.40418870462254], [13.494615380006547, 52.404117301554], [13.495060755554531, 52.40406118392479], [13.496092413339504, 52.403998522533115], [13.49743499795572, 52.39880047175307], [13.495035556950459, 52.39857259063798], [13.494311758014861, 52.398444646437866], [13.490617280922796, 52.40471056706855], [13.490719246545307, 52.4049001173023]]]}}, {"type": "Feature", "properties": {"id": "tk_kak_leitbahnkorridor_2022.1400830781000100", "schl5": "1400830781000100", "typklar": "Landwirtschaft", "art": "Leitbahnkorridor"}, "geometry": {"type": "Polygon", "coordinates": [[[13.498717700897597, 52.40617241532284], [13.498685210539682, 52.40622304707653], [13.498254647815656, 52.40613163438037], [13.498069011941766, 52.40614922624483], [13.497708878477379, 52.40621237189922], [13.497402073867606, 52.406241960659365], [13.497017568734806, 52.40626029103783], [13.496156559758688, 52.40625874501819], [13.495975467775786, 52.406297652725975], [13.495878782181165, 52.40637849978145], [13.49568840115917, 52.40670747113014], [13.49548943317854, 52.4070074057362], [13.49510468090096, 52.40751993835423], [13.495078256933319, 52.407609837780264], [13.495195138774955, 52.4076882699999], [13.496634648595984, 52.40817541403564], [13.496536349899, 52.40827209244899], [13.49587177050582, 52.408052892376126], [13.495241560808614, 52.40885113808567], [13.495132897775937, 52.40904959418826], [13.495004192303014, 52.40923667210613], [13.494861834141929, 52.40937488013179], [13.494715274418226, 52.409440768336104], [13.49452924014796, 52.4094649005689], [13.49430567224194, 52.4094449106274], [13.494047333176727, 52.409359500247554], [13.493807890083426, 52.409233148022224], [13.493558314089631, 52.40947669137493], [13.49328830058587, 52.40967955051284], [13.493748499099706, 52.41049187403886], [13.494262518635411, 52.410421788537874], [13.494371351499186, 52.41039564395324], [13.494457577445022, 52.41035568510363], [13.49462102220273, 52.41023932209149], [13.49659687323469, 52.408328775300355], [13.497428790471035, 52.40750776488579], [13.498731467963367, 52.406283577488175], [13.49881468266651, 52.40619776748328], [13.498717700897597, 52.40617241532284]]]}}, {"type": "Feature", "properties": {"id": "tk_kak_leitbahnkorridor_2022.1400830781000300", "schl5": "1400830781000300", "typklar": "Park / Grünfläche", "art": "Leitbahnkorridor"}, "geometry": {"type": "Polygon", "coordinates": [[[13.498752519547832, 52.406118155538756], [13.498422259614438, 52.40604617394065], [13.498184007498853, 52.40596728098478], [13.498085691007997, 52.40592152217356], [13.49795771220889, 52.40584001977671], [13.497827828732305, 52.405675519342935], [13.497707907556613, 52.40562005576293], [13.497414305661344, 52.40553120050936], [13.49691564320018, 52.40541096738586], [13.496320819208368, 52.40531855835257], [13.496215696828292, 52.40527789296991], [13.496188311333013, 52.40520931361299], [13.496349993864012, 52.404394039196006], [13.496412940849341, 52.404224260230954], [13.496505899092645, 52.40419147146564], [13.497332341911502, 52.4041639515817], [13.497323497370527, 52.404069972677554], [13.496197930163964, 52.404090304031556], [13.495916578799262, 52.40532386396333], [13.495678789669507, 52.40623125612837], [13.495530842601813, 52.406570789658815], [13.495396414972607, 52.40680968478362], [13.49469202742739, 52.40770153415108], [13.49587177050582, 52.408052892376126], [13.496536349899, 52.40827209244899], [13.496634648595984, 52.40817541403564], [13.495195138774955, 52.4076882699999], [13.495078256933319, 52.407609837780264], [13.49510468090096, 52.40751993835423], [13.49548943317854, 52.4070074057362], [13.49568840115917, 52.40670747113014], [13.495878782181165, 52.40637849978145], [13.495975467775786, 52.406297652725975], [13.496156559758688, 52.40625874501819], [13.497017568734806, 52.40626029103783], [13.497402073867606, 52.406241960659365], [13.497708878477379, 52.40621237189922], [13.498069011941766, 52.40614922624483], [13.498254647815656, 52.40613163438037], [13.498685210539682, 52.40622304707653], [13.498717700897597, 52.40617241532284], [13.498752519547832, 52.406118155538756]], [[13.495976500357953, 52.4057316556084], [13.496037759761782, 52.40567763142633], [13.496315270418535, 52.40558053863785], [13.497458632046767, 52.405844540916824], [13.497117055641032, 52.40597564269135], [13.497062065441607, 52.40598798336122], [13.496042964979416, 52.40596432126719], [13.495961873802978, 52.405856567536716], [13.495976500357953, 52.4057316556084]]]}}, {"type": "Feature", "properties": {"id": "tk_kak_leitbahnkorridor_2022.1400830781000500", "schl5": "1400830781000500", "typklar": "Park / Grünfläche", "art": "Leitbahnkorridor"}, "geometry": {"type": "Polygon", "coordinates": [[[13.497765423003301, 52.407714558544015], [13.497868547021639, 52.40760862653385], [13.498172375005916, 52.407743758302644], [13.498409464696532, 52.407557091778], [13.499240283378285, 52.40633939708265], [13.49981022271529, 52.406413701841835], [13.499905206422827, 52.4060732059862], [13.500060457416959, 52.40523581347574], [13.50015396715387, 52.40439386281489], [13.500160024321175, 52.40433096224515], [13.500213093375717, 52.40381798166099], [13.500098830195107, 52.40387556575203], [13.499076050268728, 52.40391960403451], [13.497393961366152, 52.40396805399134], [13.497410258212973, 52.40416450239454], [13.499001927467848, 52.40411708167649], [13.499018639054762, 52.40411716800898], [13.499035223121666, 52.40411841257673], [13.49905147425698, 52.40412080377669], [13.499067187957255, 52.40412430304605], [13.49908213034599, 52.40412887145784], [13.49909614161582, 52.404134453036015], [13.499109018489905, 52.404140973263154], [13.499120602373207, 52.4041483402211], [13.499130734386304, 52.404156470974506], [13.499139315628826, 52.404165247374536], [13.499146188121829, 52.40417455952998], [13.499151297057288, 52.404184289856325], [13.49915455823396, 52.40419432040418], [13.499155947144928, 52.404204507002106], [13.499162381814068, 52.40435937901198], [13.499165372710653, 52.40441856150751], [13.499193041824741, 52.405099989583256], [13.499105043470227, 52.4057051491268], [13.499039456259595, 52.405926959012696], [13.498899923262623, 52.406109867535356], [13.49881468266651, 52.40619776748328], [13.498731467963367, 52.406283577488175], [13.497428790471035, 52.40750776488579], [13.49659687323469, 52.408328775300355], [13.49462102220273, 52.41023932209149], [13.494457577445022, 52.41035568510363], [13.494371351499186, 52.41039564395324], [13.494262518635411, 52.410421788537874], [13.493748499099706, 52.41049187403886], [13.493935758660637, 52.41074242749421], [13.494422603959535, 52.410600084089836], [13.494937255406802, 52.41049641377568], [13.497765423003301, 52.407714558544015]]]}}, {"type": "Feature", "properties": {"id": "tk_kak_leitbahnkorridor_2022.1400830781000700", "schl5": "1400830781000700", "typklar": "Landwirtschaft", "art": "Leitbahnkorridor"}, "geometry": {"type": "Polygon", "coordinates": [[[13.49881468266651, 52.40619776748328], [13.498899923262623, 52.406109867535356], [13.499039456259595, 52.405926959012696], [13.499105043470227, 52.4057051491268], [13.499193041824741, 52.405099989583256], [13.499165372710653, 52.40441856150751], [13.499162381814068, 52.40435937901198], [13.499155947144928, 52.404204507002106], [13.49915455823396, 52.40419432040418], [13.499151297057288, 52.404184289856325], [13.499146188121829, 52.40417455952998], [13.499139315628826, 52.404165247374536], [13.499130734386304, 52.404156470974506], [13.499120602373207, 52.4041483402211], [13.499109018489905, 52.404140973263154], [13.49909614161582, 52.404134453036015], [13.49908213034599, 52.40412887145784], [13.499067187957255, 52.40412430304605], [13.49905147425698, 52.40412080377669], [13.499035223121666, 52.40411841257673], [13.499018639054762, 52.40411716800898], [13.499001927467848, 52.40411708167649], [13.497410258212973, 52.40416450239454], [13.497332341911502, 52.4041639515817], [13.496505899092645, 52.40419147146564], [13.496412940849341, 52.404224260230954], [13.496349993864012, 52.404394039196006], [13.496188311333013, 52.40520931361299], [13.496215696828292, 52.40527789296991], [13.496320819208368, 52.40531855835257], [13.49691564320018, 52.40541096738586], [13.497414305661344, 52.40553120050936], [13.497707907556613, 52.40562005576293], [13.497827828732305, 52.405675519342935], [13.49795771220889, 52.40584001977671], [13.498085691007997, 52.40592152217356], [13.498184007498853, 52.40596728098478], [13.498422259614438, 52.40604617394065], [13.498752519547832, 52.406118155538756], [13.498717700897597, 52.40617241532284], [13.49881468266651, 52.40619776748328]]]}}, {"type": "Feature", "properties": {"id": "tk_kak_leitbahnkorridor_2022.1400830941000200", "schl5": "1400830941000200", "typklar": "Kleingartenanlage", "art": "Leitbahnkorridor"}, "geometry": {"type": "Polygon", "coordinates": [[[13.483846774323828, 52.41746880604429], [13.48340987215725, 52.41702198058768], [13.483429370540765, 52.41698740540622], [13.482096500980497, 52.41746890639187], [13.483098415300981, 52.417739336112724], [13.483846774323828, 52.41746880604429]]]}}, {"type": "Feature", "properties": {"id": "tk_kak_leitbahnkorridor_2022.1400830951000200", "schl5": "1400830951000200", "typklar": "Kleingartenanlage", "art": "Leitbahnkorridor"}, "geometry": {"type": "Polygon", "coordinates": [[[13.48166968332566, 52.41737444470418], [13.483595895471023, 52.416674156329336], [13.482921627105686, 52.41611616388057], [13.480374527944605, 52.41702069278871], [13.480444993179995, 52.41704594113215], [13.48043652654163, 52.41704900797301], [13.48166968332566, 52.41737444470418]]]}}, {"type": "Feature", "properties": {"id": "tk_kak_leitbahnkorridor_2022.1400831081000200", "schl5": "1400831081000200", "typklar": "Kleingartenanlage", "art": "Leitbahnkorridor"}, "geometry": {"type": "Polygon", "coordinates": [[[13.481129689329306, 52.416217318280026], [13.481443280565705, 52.41650168305226], [13.482791187497826, 52.416003671563786], [13.482099261403123, 52.41545733480488], [13.481646125240951, 52.415152131787224], [13.480997961792717, 52.416135834893865], [13.481129689329306, 52.416217318280026]]]}}, {"type": "Feature", "properties": {"id": "tk_kak_leitbahnkorridor_2022.1400831461000200", "schl5": "1400831461000200", "typklar": "Park / Grünfläche", "art": "Leitbahnkorridor"}, "geometry": {"type": "Polygon", "coordinates": [[[13.48381069265476, 52.416607914395115], [13.487859461293837, 52.41513953362521], [13.488231041417832, 52.414985758181494], [13.488566819683811, 52.414812348477376], [13.488843558559978, 52.41463420547306], [13.489049170469057, 52.41448212971336], [13.489198513298774, 52.41433276460126], [13.489297934752456, 52.414248465769624], [13.489434685069247, 52.41409557046904], [13.489923037052195, 52.41349255331044], [13.489677291825299, 52.41349198625691], [13.489644805943028, 52.41354137483008], [13.488405137675477, 52.413396039696245], [13.488267095935464, 52.41342087472935], [13.488237974283935, 52.41347395814411], [13.488698292482312, 52.41356184297157], [13.489032819474797, 52.41373837114262], [13.489225140039983, 52.41380419766858], [13.489111544417257, 52.413943359825296], [13.488831094788084, 52.413860756633234], [13.488614344492898, 52.41409705870973], [13.48903258296216, 52.41424184936635], [13.48869677443468, 52.41451609721228], [13.488384018263385, 52.41472054770248], [13.488101913202755, 52.41485986388432], [13.487553055527696, 52.41509662030194], [13.483757500396324, 52.4164652901986], [13.48407922530162, 52.41585123052356], [13.484195768933393, 52.41565295922982], [13.483126157421916, 52.416042721719464], [13.48381069265476, 52.416607914395115]]]}}, {"type": "Feature", "properties": {"id": "tk_kak_leitbahnkorridor_2022.1400831481000200", "schl5": "1400831481000200", "typklar": "Kleingartenanlage", "art": "Leitbahnkorridor"}, "geometry": {"type": "Polygon", "coordinates": [[[13.482460690289411, 52.41549462178359], [13.483000112654736, 52.4159347285365], [13.484273583962349, 52.41547310408949], [13.484577524554926, 52.41495887634498], [13.483879711996515, 52.41480706716086], [13.482189368928704, 52.41441948511774], [13.481806745999043, 52.41502292150768], [13.482460690289411, 52.41549462178359]]]}}, {"type": "Feature", "properties": {"id": "tk_kak_leitbahnkorridor_2022.1400831511000000", "schl5": "1400831511000000", "typklar": "Park / Grünfläche", "art": "Leitbahnkorridor"}, "geometry": {"type": "Polygon", "coordinates": [[[13.484776298769985, 52.413213186104706], [13.48521782335134, 52.41248881267071], [13.483695876658594, 52.41198073886202], [13.483152852564011, 52.41283570340716], [13.484776298769985, 52.413213186104706]]]}}, {"type": "Feature", "properties": {"id": "tk_kak_leitbahnkorridor_2022.1400831641000200", "schl5": "1400831641000200", "typklar": "Park / Grünfläche", "art": "Leitbahnkorridor"}, "geometry": {"type": "Polygon", "coordinates": [[[13.484060774536632, 52.408340466714485], [13.484205850449577, 52.40846555601382], [13.484891613964336, 52.40907388087133], [13.485048417090441, 52.40920886939172], [13.48525060584056, 52.409396933110536], [13.485234968596744, 52.40942198792358], [13.486259797346941, 52.4107060067184], [13.486615598373525, 52.41110086005188], [13.4860345002201, 52.41176861612594], [13.486850489107294, 52.41206877139889], [13.48753908129781, 52.412066499252646], [13.487579927058732, 52.41210920820888], [13.487820744486571, 52.412447576150846], [13.48746644023958, 52.41305714353094], [13.48808401515668, 52.41319096620012], [13.488890946908638, 52.41327950117923], [13.488230541325313, 52.412618119371196], [13.488077872229095, 52.41238992049405], [13.488010775691507, 52.412281492499986], [13.487834403636986, 52.41202253986856], [13.487590997486365, 52.41163656134772], [13.48666497620894, 52.41052286179765], [13.486116971282353, 52.409881007349604], [13.48469068026188, 52.408349696671], [13.484466570916116, 52.40814485665563], [13.48376768713528, 52.40756992206026], [13.483361859219864, 52.407716844112116], [13.484060774536632, 52.408340466714485]]]}}, {"type": "Feature", "properties": {"id": "tk_kak_leitbahnkorridor_2022.1400831641000300", "schl5": "1400831641000300", "typklar": "Park / Grünfläche", "art": "Leitbahnkorridor"}, "geometry": {"type": "Polygon", "coordinates": [[[13.48746644023958, 52.41305714353094], [13.487820744486571, 52.412447576150846], [13.487579927058732, 52.41210920820888], [13.48753908129781, 52.412066499252646], [13.486850489107294, 52.41206877139889], [13.4860345002201, 52.41176861612594], [13.485490196618755, 52.412394069073606], [13.48746644023958, 52.41305714353094]]]}}, {"type": "Feature", "properties": {"id": "tk_kak_leitbahnkorridor_2022.1400831911000200", "schl5": "1400831911000200", "typklar": "Kleingartenanlage", "art": "Leitbahnkorridor"}, "geometry": {"type": "Polygon", "coordinates": [[[13.510232109687491, 52.41725683183051], [13.510526196904987, 52.41699656881591], [13.51193935679062, 52.41755215387173], [13.513808510540658, 52.41591604044559], [13.511767768383152, 52.41508011143439], [13.50963092469428, 52.417011682619446], [13.510232109687491, 52.41725683183051]]]}}, {"type": "Feature", "properties": {"id": "tk_kak_leitbahnkorridor_2022.1400831911000300", "schl5": "1400831911000300", "typklar": "Park / Grünfläche", "art": "Leitbahnkorridor"}, "geometry": {"type": "Polygon", "coordinates": [[[13.51137262187731, 52.4180482009149], [13.51193935679062, 52.41755215387173], [13.510526196904987, 52.41699656881591], [13.510232109687491, 52.41725683183051], [13.50963092469428, 52.417011682619446], [13.5092465037811, 52.41736983318974], [13.51137262187731, 52.4180482009149]]]}}, {"type": "Feature", "properties": {"id": "tk_kak_leitbahnkorridor_2022.1400832011000000", "schl5": "1400832011000000", "typklar": "Kleingartenanlage", "art": "Leitbahnkorridor"}, "geometry": {"type": "Polygon", "coordinates": [[[13.491296679135298, 52.41162552083527], [13.491742177592332, 52.4110724497057], [13.492141568243465, 52.410699059903244], [13.492969048954416, 52.409686299917965], [13.492282090541245, 52.40846512818399], [13.489305952904012, 52.41002808597709], [13.491296679135298, 52.41162552083527]]]}}, {"type": "Feature", "properties": {"id": "tk_kak_leitbahnkorridor_2022.1400832021000200", "schl5": "1400832021000200", "typklar": "Park / Grünfläche", "art": "Leitbahnkorridor"}, "geometry": {"type": "Polygon", "coordinates": [[[13.484466570916116, 52.40814485665563], [13.48469068026188, 52.408349696671], [13.486116971282353, 52.409881007349604], [13.48666497620894, 52.41052286179765], [13.487282851682174, 52.410279134580456], [13.487397081147279, 52.41009409150219], [13.486743059583, 52.40975723990743], [13.486899405369241, 52.40942780570192], [13.485586072489278, 52.40874466196305], [13.485760836984074, 52.4083705562426], [13.485076551208566, 52.40810157443215], [13.485413237869475, 52.40756757611855], [13.48483298687774, 52.4072088778994], [13.48471509538755, 52.407199594786526], [13.48376768713528, 52.40756992206026], [13.484466570916116, 52.40814485665563]]]}}, {"type": "Feature", "properties": {"id": "tk_kak_leitbahnkorridor_2022.1400832311000300", "schl5": "1400832311000300", "typklar": "Kleingartenanlage", "art": "Leitbahnkorridor"}, "geometry": {"type": "Polygon", "coordinates": [[[13.495810553571209, 52.40516502623932], [13.496061176663012, 52.404126099435025], [13.49556153968673, 52.40414711398952], [13.495005991956985, 52.404195024547825], [13.494796886264789, 52.40506244256023], [13.495810553571209, 52.40516502623932]]]}}, {"type": "Feature", "properties": {"id": "tk_kak_leitbahnkorridor_2022.1400832551000000", "schl5": "1400832551000000", "typklar": "Kleingartenanlage", "art": "Leitbahnkorridor"}, "geometry": {"type": "Polygon", "coordinates": [[[13.513908659169841, 52.415834357494845], [13.516380896669029, 52.41363148908221], [13.514300046280045, 52.41279808308068], [13.511848821318047, 52.414995715467384], [13.513908659169841, 52.415834357494845]]]}}, {"type": "Feature", "properties": {"id": "tk_kak_leitbahnkorridor_2022.1400832571000200", "schl5": "1400832571000200", "typklar": "Kleingartenanlage", "art": "Leitbahnkorridor"}, "geometry": {"type": "Polygon", "coordinates": [[[13.518872737830456, 52.41669272005114], [13.519031429701283, 52.416714433685925], [13.522126117366795, 52.41732889626601], [13.522139292076211, 52.4172639811292], [13.522143003084194, 52.41722550490794], [13.522147296722641, 52.41720879920421], [13.52216141823799, 52.417154959914875], [13.522205561717016, 52.41693745379086], [13.52249892450162, 52.416252400017925], [13.522799275578524, 52.41570119047337], [13.519791274696235, 52.41502710446493], [13.519741475603121, 52.415110456776816], [13.518887521908677, 52.41666218003616], [13.518872737830456, 52.41669272005114]]]}}, {"type": "Feature", "properties": {"id": "tk_kak_leitbahnkorridor_2022.1400832601000000", "schl5": "1400832601000000", "typklar": "Baumschule / Gartenbau", "art": "Leitbahnkorridor"}, "geometry": {"type": "Polygon", "coordinates": [[[13.520779363754711, 52.412255029958125], [13.523014743159885, 52.41032667271892], [13.522732794885625, 52.40961108477478], [13.522536384709243, 52.40906963954794], [13.522345222694348, 52.408561029388785], [13.519237415275043, 52.41127415586248], [13.518992729879663, 52.4114877490295], [13.520779363754711, 52.412255029958125]]]}}, {"type": "Feature", "properties": {"id": "tk_kak_leitbahnkorridor_2022.1400832621000200", "schl5": "1400832621000200", "typklar": "Park / Grünfläche", "art": "Leitbahnkorridor"}, "geometry": {"type": "Polygon", "coordinates": [[[13.509517313999147, 52.408006279745685], [13.51018087812652, 52.40738734220656], [13.509974570198164, 52.407314061852546], [13.509751552909302, 52.40704686870911], [13.509751729620604, 52.406980126331064], [13.509997876853554, 52.40675344255317], [13.509753053503582, 52.40647955485332], [13.509524426876162, 52.40627242485131], [13.509326095393247, 52.406016289154145], [13.508406950339525, 52.40698199694513], [13.507912549005543, 52.40750142361368], [13.509517313999147, 52.408006279745685]], [[13.508898823581678, 52.40658382732959], [13.509008207685225, 52.406488826856965], [13.50909019334716, 52.40643718201701], [13.509128624708568, 52.40634878599895], [13.509155928948648, 52.40634047102676], [13.509259414266946, 52.40641232310417], [13.50934399905786, 52.406409068664345], [13.509373912469611, 52.406445807735615], [13.509398425526816, 52.40646084878656], [13.509433890832394, 52.40646255295808], [13.50946925984542, 52.406499296960114], [13.509441765446104, 52.40657936136999], [13.509413858535513, 52.40681460264891], [13.509478908024372, 52.406976519323045], [13.509366843608998, 52.407053162541686], [13.50931779477693, 52.40702975334682], [13.509296050227158, 52.40699969787876], [13.509279838909734, 52.40693961263952], [13.50917081426596, 52.40689945902251], [13.509099992540682, 52.406856004579375], [13.508879515437004, 52.40666223082119], [13.50887686779403, 52.406632194080274], [13.508898823581678, 52.40658382732959]]]}}, {"type": "Feature", "properties": {"id": "tk_kak_leitbahnkorridor_2022.1400832671000200", "schl5": "1400832671000200", "typklar": "Kleingartenanlage", "art": "Leitbahnkorridor"}, "geometry": {"type": "Polygon", "coordinates": [[[13.49937255561656, 52.403500607669], [13.50023434493115, 52.40365057761545], [13.500534254489551, 52.400913985127005], [13.500662388979404, 52.39974469039913], [13.499823430706936, 52.39966909259555], [13.499586897621187, 52.4020767919372], [13.499470099455394, 52.40273475723755], [13.499375018585592, 52.40310523078399], [13.499236019107515, 52.403487130916936], [13.49937255561656, 52.403500607669]]]}}, {"type": "Feature", "properties": {"id": "tk_kak_leitbahnkorridor_2022.1400836031000300", "schl5": "1400836031000300", "typklar": "Park / Grünfläche", "art": "Leitbahnkorridor"}, "geometry": {"type": "Polygon", "coordinates": [[[13.517270275589128, 52.42021164439895], [13.517974601679562, 52.41959043465987], [13.519289673837717, 52.41988674691287], [13.520647261127618, 52.42019436477849], [13.520648186500624, 52.42019022973076], [13.52068966011968, 52.42005418175604], [13.520829456368103, 52.41954416275393], [13.52210942433507, 52.418429155531534], [13.52214832834107, 52.41832938382919], [13.522156344776935, 52.418296644406546], [13.522148390561822, 52.418117622456656], [13.522133388344411, 52.41787056679027], [13.522131663112093, 52.41750437098005], [13.522126117366795, 52.41732889626601], [13.519031429701283, 52.416714433685925], [13.518976925724086, 52.41676470966518], [13.516924770744405, 52.41869315890089], [13.515967758772248, 52.419628702903125], [13.517270275589128, 52.42021164439895]], [[13.516871013821797, 52.41947984285765], [13.516907537123835, 52.419453406913796], [13.516957718264853, 52.419432556722434], [13.517014696570527, 52.41942703615757], [13.517067093395363, 52.41943126467449], [13.517174128692579, 52.419455047184535], [13.517360859437876, 52.4195011937063], [13.517449623319013, 52.419541677030246], [13.517492837561194, 52.41957375877079], [13.517513262020778, 52.419607213570124], [13.517506285932273, 52.41966432556673], [13.517481114740617, 52.41970748900592], [13.517437721532529, 52.419747850680444], [13.51735782511065, 52.41980628877374], [13.517255142643585, 52.419864705370536], [13.517154794490674, 52.41990083438824], [13.51705908561622, 52.419903532424286], [13.517024923651439, 52.419896535019475], [13.516979414009139, 52.41987141668093], [13.516879509063257, 52.419729222761696], [13.516859138954944, 52.41967347873319], [13.516848121413167, 52.419523008678524], [13.516871013821797, 52.41947984285765]]]}}, {"type": "Feature", "properties": {"id": "tk_kak_leitbahnkorridor_2022.1400836031000500", "schl5": "1400836031000500", "typklar": "Park / Grünfläche", "art": "Leitbahnkorridor"}, "geometry": {"type": "Polygon", "coordinates": [[[13.515464836981973, 52.419420614348745], [13.515967758772248, 52.419628702903125], [13.516924770744405, 52.41869315890089], [13.518976925724086, 52.41676470966518], [13.517627084875151, 52.41648821605482], [13.51534030649864, 52.41936074603115], [13.515464836981973, 52.419420614348745]]]}}, {"type": "Feature", "properties": {"id": "tk_kak_leitbahnkorridor_2022.1400836081000300", "schl5": "1400836081000300", "typklar": "Park / Grünfläche", "art": "Leitbahnkorridor"}, "geometry": {"type": "Polygon", "coordinates": [[[13.51016702441491, 52.4082833959008], [13.509677174397932, 52.408745049178975], [13.510252944183955, 52.40895145706465], [13.511459633082868, 52.407824396593824], [13.510353529206677, 52.407396206539325], [13.509592462733872, 52.40810984548275], [13.51016702441491, 52.4082833959008]], [[13.510230376585875, 52.407677976953785], [13.510249808681275, 52.407654303703794], [13.510312796654127, 52.40764103900713], [13.51043861614664, 52.40767373916661], [13.510557138931947, 52.40771827845399], [13.51062725904385, 52.40775536644777], [13.510665886649276, 52.407798346905146], [13.510779184112625, 52.40798947678502], [13.510764373055322, 52.408097557514544], [13.510723123488892, 52.408131574474574], [13.51066495317978, 52.40815372935669], [13.5106165283303, 52.40815368118049], [13.510529401100614, 52.408138787430815], [13.51050280962561, 52.408122473373716], [13.510324196688059, 52.40790906735362], [13.510220516126255, 52.40774460087535], [13.510230376585875, 52.407677976953785]]]}}, {"type": "Feature", "properties": {"id": "tk_kak_leitbahnkorridor_2022.1400836091000200", "schl5": "1400836091000200", "typklar": "Friedhof", "art": "Leitbahnkorridor"}, "geometry": {"type": "Polygon", "coordinates": [[[13.511140855767557, 52.411456070111626], [13.511368448517514, 52.411533577788056], [13.513825406965742, 52.40924526641372], [13.515105945766086, 52.40805580836341], [13.514403244557686, 52.40778356419128], [13.513638398087918, 52.40808138053447], [13.512917493748649, 52.40779512332259], [13.512269048028056, 52.40839762016529], [13.512277410716251, 52.40840080306851], [13.512113873293496, 52.408556114286], [13.511811449228354, 52.408436297804094], [13.509184818867332, 52.410860789657754], [13.511140855767557, 52.411456070111626]]]}}, {"type": "Feature", "properties": {"id": "tk_kak_leitbahnkorridor_2022.1400836091000300", "schl5": "1400836091000300", "typklar": "Landwirtschaft", "art": "Leitbahnkorridor"}, "geometry": {"type": "Polygon", "coordinates": [[[13.517108807496827, 52.40620565015567], [13.517057440755806, 52.406099422326776], [13.51706287335868, 52.40593744561288], [13.517122366866058, 52.405705004976106], [13.517265569566302, 52.40548151842437], [13.51747641391342, 52.405167976404975], [13.517758572785537, 52.40484742419381], [13.518000515795881, 52.40456984270564], [13.518254318083358, 52.40434199442913], [13.517182455381297, 52.403648030936154], [13.51712633164708, 52.403614944501506], [13.517041821840523, 52.40356490074542], [13.517039520073963, 52.40356353804506], [13.514898830345492, 52.40554374951866], [13.514747115735442, 52.405689190496226], [13.51335505832214, 52.406991168652944], [13.515380102784626, 52.407802564885905], [13.516553221996228, 52.40671889451018], [13.517108807496827, 52.40620565015567]]]}}, {"type": "Feature", "properties": {"id": "tk_kak_leitbahnkorridor_2022.1400836091000700", "schl5": "1400836091000700", "typklar": "Friedhof", "art": "Leitbahnkorridor"}, "geometry": {"type": "Polygon", "coordinates": [[[13.51335505832214, 52.406991168652944], [13.511972061200721, 52.40828457988596], [13.512269048028056, 52.40839762016529], [13.512917493748649, 52.40779512332259], [13.513638398087918, 52.40808138053447], [13.514403244557686, 52.40778356419128], [13.515105945766086, 52.40805580836341], [13.515380102784626, 52.407802564885905], [13.51335505832214, 52.406991168652944]]]}}, {"type": "Feature", "properties": {"id": "tk_kak_leitbahnkorridor_2022.1400836131000100", "schl5": "1400836131000100", "typklar": "Sportanlage, ungedeckt", "art": "Leitbahnkorridor"}, "geometry": {"type": "Polygon", "coordinates": [[[13.51651341189905, 52.41352547025373], [13.516571285617683, 52.41352047006928], [13.517929705755067, 52.412338707071704], [13.515815538495492, 52.411458242321665], [13.514411901929408, 52.41269204699657], [13.51651341189905, 52.41352547025373]]]}}, {"type": "Feature", "properties": {"id": "tk_kak_leitbahnkorridor_2022.1400836131000200", "schl5": "1400836131000200", "typklar": "Sportanlage, ungedeckt", "art": "Leitbahnkorridor"}, "geometry": {"type": "Polygon", "coordinates": [[[13.517929705755067, 52.412338707071704], [13.5189428344093, 52.41145894582419], [13.518992729879663, 52.4114877490295], [13.519237415275043, 52.41127415586248], [13.518647436521288, 52.410993532911114], [13.519830415206755, 52.409950387935766], [13.518191603375975, 52.409281611800736], [13.516839347849311, 52.41049234001143], [13.515815538495492, 52.411458242321665], [13.517929705755067, 52.412338707071704]]]}}, {"type": "Feature", "properties": {"id": "tk_kak_leitbahnkorridor_2022.1400836131000300", "schl5": "1400836131000300", "typklar": "Baumschule / Gartenbau", "art": "Leitbahnkorridor"}, "geometry": {"type": "Polygon", "coordinates": [[[13.519830415206755, 52.409950387935766], [13.518647436521288, 52.410993532911114], [13.519237415275043, 52.41127415586248], [13.522345222694348, 52.408561029388785], [13.522338995181872, 52.408544460322425], [13.52229908950184, 52.408452388338624], [13.522084889432678, 52.4080163044609], [13.521788784753166, 52.40744220500152], [13.521743616555597, 52.407386947318464], [13.521730817683014, 52.40737129286914], [13.521651401902234, 52.40728948236248], [13.521284149975182, 52.406953071391285], [13.521037081834804, 52.4067336697614], [13.518191603375975, 52.409281611800736], [13.519830415206755, 52.409950387935766]]]}}, {"type": "Feature", "properties": {"id": "tk_kak_leitbahnkorridor_2022.1400836131000500", "schl5": "1400836131000500", "typklar": "Landwirtschaft", "art": "Leitbahnkorridor"}, "geometry": {"type": "Polygon", "coordinates": [[[13.520007326695442, 52.40605222239215], [13.519902538775376, 52.40628795444509], [13.519792440460213, 52.40650139660483], [13.519645524518367, 52.4067291940233], [13.519443378978888, 52.40697852102591], [13.519186005456477, 52.40724938004972], [13.519005487965483, 52.40739527119631], [13.518844247679105, 52.40750806911564], [13.5186291446944, 52.40760167286091], [13.518365732849018, 52.407690966393965], [13.518072797533495, 52.40775766682357], [13.517805441968788, 52.40778394589638], [13.517563541372477, 52.407773504756456], [13.517370939124538, 52.407737754709956], [13.517143257465184, 52.407664526361266], [13.516970681001622, 52.407573469949355], [13.516829242835461, 52.407456877233685], [13.516718942966097, 52.40731474832876], [13.516633726798089, 52.407147007343596], [13.516575584597215, 52.4068944180412], [13.516553221996228, 52.40671889451018], [13.515380102784626, 52.407802564885905], [13.515105945766086, 52.40805580836341], [13.513825406965742, 52.40924526641372], [13.516839347849311, 52.41049234001143], [13.518191603375975, 52.409281611800736], [13.521037081834804, 52.4067336697614], [13.52101599150456, 52.406714941110984], [13.520999960434729, 52.406700724812644], [13.52058175561306, 52.406399128244104], [13.520682150786214, 52.406275774000335], [13.520622014054794, 52.40623280852272], [13.52057265847196, 52.406197867047936], [13.520066919893523, 52.40584533341223], [13.520007326695442, 52.40605222239215]]]}}, {"type": "Feature", "properties": {"id": "tk_kak_leitbahnkorridor_2022.1400836131000800", "schl5": "1400836131000800", "typklar": "Park / Grünfläche", "art": "Leitbahnkorridor"}, "geometry": {"type": "Polygon", "coordinates": [[[13.519902538775376, 52.40628795444509], [13.520007326695442, 52.40605222239215], [13.520066919893523, 52.40584533341223], [13.519115897390916, 52.405182385314305], [13.519063602511423, 52.4052432050222], [13.519003085403092, 52.405313588930895], [13.51891013670448, 52.40538751804052], [13.518798868423215, 52.40542959941449], [13.518661762085573, 52.405471356891034], [13.518595445997617, 52.40552190637386], [13.518579879038718, 52.40560075746167], [13.518576834626435, 52.40569162295598], [13.518495879006814, 52.405793368569746], [13.518440230092096, 52.405911241269145], [13.518397897868715, 52.406017423386956], [13.518278314091438, 52.40611473219041], [13.518094929268523, 52.40618752792495], [13.517743324901723, 52.40626611819171], [13.517470032081453, 52.406321975573995], [13.517353094974316, 52.40634027136549], [13.517249607677337, 52.40634292489993], [13.517166823683718, 52.40630631585709], [13.517108807496827, 52.40620565015567], [13.516553221996228, 52.40671889451018], [13.516575584597215, 52.4068944180412], [13.516633726798089, 52.407147007343596], [13.516718942966097, 52.40731474832876], [13.516829242835461, 52.407456877233685], [13.516970681001622, 52.407573469949355], [13.517143257465184, 52.407664526361266], [13.517370939124538, 52.407737754709956], [13.517563541372477, 52.407773504756456], [13.517805441968788, 52.40778394589638], [13.518072797533495, 52.40775766682357], [13.518365732849018, 52.407690966393965], [13.5186291446944, 52.40760167286091], [13.518844247679105, 52.40750806911564], [13.519005487965483, 52.40739527119631], [13.519186005456477, 52.40724938004972], [13.519443378978888, 52.40697852102591], [13.519645524518367, 52.4067291940233], [13.519792440460213, 52.40650139660483], [13.519902538775376, 52.40628795444509]]]}}, {"type": "Feature", "properties": {"id": "tk_kak_leitbahnkorridor_2022.1400836221000200", "schl5": "1400836221000200", "typklar": "Wald", "art": "Leitbahnkorridor"}, "geometry": {"type": "Polygon", "coordinates": [[[13.487590997486365, 52.41163656134772], [13.487834403636986, 52.41202253986856], [13.488769451424735, 52.41164961858514], [13.487282851682174, 52.410279134580456], [13.48666497620894, 52.41052286179765], [13.487590997486365, 52.41163656134772]]]}}, {"type": "Feature", "properties": {"id": "tk_kak_leitbahnkorridor_2022.1400836251000000", "schl5": "1400836251000000", "typklar": "Kleingartenanlage", "art": "Leitbahnkorridor"}, "geometry": {"type": "Polygon", "coordinates": [[[13.488230541325313, 52.412618119371196], [13.488890946908638, 52.41327950117923], [13.489552939819673, 52.413309413360444], [13.49071241598558, 52.41189804443815], [13.49077005502549, 52.41179206739009], [13.490793798059682, 52.4117175068259], [13.490764970877532, 52.411534144253814], [13.490732877828158, 52.41145682264176], [13.49065824129144, 52.411355187097925], [13.489611596357037, 52.41050502196258], [13.488990357966122, 52.41078139566412], [13.489524236980115, 52.411217187035504], [13.489075798387177, 52.4119094048682], [13.488298839428909, 52.41225698311883], [13.488318749071661, 52.41228144902212], [13.488077872229095, 52.41238992049405], [13.488230541325313, 52.412618119371196]]]}}, {"type": "Feature", "properties": {"id": "tk_kak_leitbahnkorridor_2022.1400836381000300", "schl5": "1400836381000300", "typklar": "Park / Grünfläche", "art": "Leitbahnkorridor"}, "geometry": {"type": "Polygon", "coordinates": [[[13.493861203574914, 52.41684321648139], [13.492575095028922, 52.41617977761328], [13.49146318186779, 52.41479890830357], [13.491062920855411, 52.41428166942006], [13.490608296223668, 52.414011629157145], [13.491070100170491, 52.41362659614312], [13.490507849553339, 52.4135339232949], [13.490085885351672, 52.41350023849011], [13.48974062293383, 52.41392252332232], [13.489537088567301, 52.414155041607096], [13.489361384967948, 52.41430659589491], [13.489543818345503, 52.414424795587536], [13.490023818997805, 52.41501832648736], [13.490150709655873, 52.415216224222256], [13.490354633441301, 52.41519906516116], [13.490468884613199, 52.4152290115761], [13.490512650263007, 52.41530772032121], [13.490996923424948, 52.415225127329], [13.49099978333533, 52.415228919423264], [13.491140560564716, 52.4155613143221], [13.491429810583304, 52.416203691570324], [13.491712244580526, 52.416833048226096], [13.491842901397282, 52.41712365539553], [13.492187985353146, 52.41708046368216], [13.492239331624056, 52.41725710973118], [13.491920709602693, 52.41729727738793], [13.49205183492685, 52.417556949149], [13.491323260758628, 52.41763648306692], [13.491360180143534, 52.41775931788159], [13.49137921056857, 52.418103158845234], [13.491303913128876, 52.41833287034968], [13.491042002675067, 52.418602713606525], [13.489574745693506, 52.41973221637685], [13.489831718205288, 52.419840152192336], [13.493357934733638, 52.41717085133328], [13.493861203574914, 52.41684321648139]]]}}, {"type": "Feature", "properties": {"id": "tk_kak_leitbahnkorridor_2022.1400836431000500", "schl5": "1400836431000500", "typklar": "Landwirtschaft", "art": "Leitbahnkorridor"}, "geometry": {"type": "Polygon", "coordinates": [[[13.509014559668854, 52.41314248878149], [13.509436251590131, 52.413316536328665], [13.509978094686769, 52.4128140832903], [13.510051019225672, 52.41274620702553], [13.510582952452625, 52.412251883767794], [13.508419657507817, 52.411590107447175], [13.506926627799663, 52.412987167890634], [13.508487406361006, 52.41362891363313], [13.509014559668854, 52.41314248878149]]]}}, {"type": "Feature", "properties": {"id": "tk_kak_leitbahnkorridor_2022.1400836431000600", "schl5": "1400836431000600", "typklar": "Landwirtschaft", "art": "Leitbahnkorridor"}, "geometry": {"type": "Polygon", "coordinates": [[[13.510582952452625, 52.412251883767794], [13.511281517127506, 52.41160268916711], [13.509104881526481, 52.41094889235626], [13.508419657507817, 52.411590107447175], [13.510582952452625, 52.412251883767794]]]}}, {"type": "Feature", "properties": {"id": "tk_kak_leitbahnkorridor_2022.1400836531000000", "schl5": "1400836531000000", "typklar": "Kleingartenanlage", "art": "Leitbahnkorridor"}, "geometry": {"type": "Polygon", "coordinates": [[[13.513872515771464, 52.42193177918161], [13.513598706572866, 52.42266393175462], [13.51356907490624, 52.422754668551285], [13.513426909713655, 52.423146349745416], [13.513252517837877, 52.42352901563588], [13.514460326061148, 52.4237305706747], [13.51549188293497, 52.420957360510464], [13.514503673855758, 52.42055292645056], [13.51435375971457, 52.420976012614766], [13.514312005840479, 52.42106280483857], [13.514149060502287, 52.42104070781475], [13.513863960366049, 52.42182842431336], [13.513872515771464, 52.42193177918161]]]}}, {"type": "Feature", "properties": {"id": "tk_kak_leitbahnkorridor_2022.1400836661000200", "schl5": "1400836661000200", "typklar": "Kleingartenanlage", "art": "Leitbahnkorridor"}, "geometry": {"type": "Polygon", "coordinates": [[[13.492818928195257, 52.408079452157004], [13.493025713243867, 52.407938703433764], [13.493284784989264, 52.40772070102776], [13.492815655572189, 52.407548871019046], [13.492772028708032, 52.407459331369516], [13.492867492427335, 52.40734310375586], [13.492801984270727, 52.40723116785498], [13.49349572350722, 52.40636054325155], [13.4936435592905, 52.4061215019069], [13.493898398930149, 52.40513835581149], [13.494694332628551, 52.40520763087491], [13.494923679379509, 52.40420481801018], [13.494647342808367, 52.40423865729092], [13.494243080686816, 52.404303808109056], [13.490953785410088, 52.40508191838782], [13.490865287437709, 52.40519145501924], [13.492513518421571, 52.40824964932086], [13.492818928195257, 52.408079452157004]]]}}, {"type": "Feature", "properties": {"id": "tk_kak_leitbahnkorridor_2022.1400836981000100", "schl5": "1400836981000100", "typklar": "Kleingartenanlage", "art": "Leitbahnkorridor"}, "geometry": {"type": "Polygon", "coordinates": [[[13.491784536083193, 52.41354498117766], [13.492869533046798, 52.41251158816528], [13.492854772106748, 52.412480459733985], [13.493519670569471, 52.4118431270244], [13.49356382150878, 52.411830430461784], [13.493904243321257, 52.411493114537045], [13.493050455274854, 52.41124146765282], [13.49219959309924, 52.410979929256364], [13.49207852345242, 52.41161562985367], [13.490674731111321, 52.41336919598198], [13.491784536083193, 52.41354498117766]]]}}, {"type": "Feature", "properties": {"id": "tk_kak_leitbahnkorridor_2022.1400836981000200", "schl5": "1400836981000200", "typklar": "Park / Grünfläche", "art": "Leitbahnkorridor"}, "geometry": {"type": "Polygon", "coordinates": [[[13.493050455274854, 52.41124146765282], [13.493904243321257, 52.411493114537045], [13.494048549241914, 52.411352750328035], [13.493058478533865, 52.40975649722176], [13.492261897745934, 52.41075581100133], [13.49219959309924, 52.410979929256364], [13.493050455274854, 52.41124146765282]], [[13.49244064988342, 52.41090643890384], [13.492535096364072, 52.41076812090321], [13.492597916206568, 52.410723470056304], [13.49270255609289, 52.41066821961473], [13.493037095222878, 52.4105940624301], [13.493197436058018, 52.41054526245139], [13.49332284253955, 52.41053262615535], [13.493388950213413, 52.41055186725232], [13.493454987384743, 52.410594534684215], [13.493572960346606, 52.410737350691214], [13.493611074720953, 52.410801282243824], [13.493596958621778, 52.41086302421442], [13.493600255761374, 52.410924787580704], [13.49362793576195, 52.410984446648165], [13.493829450173463, 52.41114013495794], [13.493881521313943, 52.41119556331526], [13.493905757157092, 52.41124244250339], [13.493912569755164, 52.41129356020462], [13.493992468781029, 52.41135966844989], [13.49389122723963, 52.411442609217794], [13.493536275064391, 52.41135489600238], [13.49336230571024, 52.411303589139116], [13.493251001003689, 52.41125874157183], [13.493118775815462, 52.41122238907093], [13.492997062703013, 52.411164751784185], [13.49294496842411, 52.411117841821635], [13.492875452957458, 52.41107304113228], [13.492746771116213, 52.4110175256498], [13.492523932116645, 52.41100449540544], [13.492468283030474, 52.410981006731234], [13.492437050623238, 52.4109447671149], [13.49244064988342, 52.41090643890384]]]}}, {"type": "Feature", "properties": {"id": "tk_kak_leitbahnkorridor_2022.1400839231000000", "schl5": "1400839231000000", "typklar": "Brachfläche", "art": "Leitbahnkorridor"}, "geometry": {"type": "Polygon", "coordinates": [[[13.478899807121802, 52.418504355563535], [13.481884131165048, 52.41742066004849], [13.481818042137007, 52.417405302364564], [13.483688292235469, 52.416735377014135], [13.483595895471023, 52.416674156329336], [13.48166968332566, 52.41737444470418], [13.478808979657087, 52.41841437522973], [13.478899807121802, 52.418504355563535]]]}}, {"type": "Feature", "properties": {"id": "tk_kak_leitbahnkorridor_2022.1400839241000000", "schl5": "1400839241000000", "typklar": "Brachfläche", "art": "Leitbahnkorridor"}, "geometry": {"type": "Polygon", "coordinates": [[[13.483882529927817, 52.41666371842913], [13.487566656512435, 52.415325114855264], [13.487909255247782, 52.41519989316668], [13.488292777328832, 52.41503462857443], [13.488650041897403, 52.414847314397264], [13.48889975432177, 52.41470203893476], [13.489274730802, 52.414398815474385], [13.489361384967948, 52.41430659589491], [13.489537088567301, 52.414155041607096], [13.48974062293383, 52.41392252332232], [13.490085885351672, 52.41350023849011], [13.489923037052195, 52.41349255331044], [13.489434685069247, 52.41409557046904], [13.489297934752456, 52.414248465769624], [13.489198513298774, 52.41433276460126], [13.489049170469057, 52.41448212971336], [13.488843558559978, 52.41463420547306], [13.488566819683811, 52.414812348477376], [13.488231041417832, 52.414985758181494], [13.487859461293837, 52.41513953362521], [13.48381069265476, 52.416607914395115], [13.483882529927817, 52.41666371842913]]]}}, {"type": "Feature", "properties": {"id": "tk_kak_leitbahnkorridor_2022.1400839261000000", "schl5": "1400839261000000", "typklar": "Brachfläche", "art": "Leitbahnkorridor"}, "geometry": {"type": "Polygon", "coordinates": [[[13.493162302122382, 52.409439384780924], [13.49321922958544, 52.40956616148602], [13.49469202742739, 52.40770153415108], [13.495396414972607, 52.40680968478362], [13.495530842601813, 52.406570789658815], [13.495678789669507, 52.40623125612837], [13.495916578799262, 52.40532386396333], [13.496197930163964, 52.404090304031556], [13.49620981238395, 52.40404807911009], [13.497544739333176, 52.398811389447474], [13.497543538428523, 52.39881119327909], [13.497489064617255, 52.39880600526728], [13.497435781513365, 52.39880054292821], [13.49743499795572, 52.39880047175307], [13.496092413339504, 52.403998522533115], [13.496061176663012, 52.404126099435025], [13.495810553571209, 52.40516502623932], [13.495580673920223, 52.40611791417903], [13.49544154662266, 52.40645656004264], [13.495230311507274, 52.40682927229879], [13.493940480923953, 52.40845725709808], [13.493162302122382, 52.409439384780924]]]}}, {"type": "Feature", "properties": {"id": "tk_kak_leitbahnkorridor_2022.1501260051000100", "schl5": "1501260051000100", "typklar": "Gewerbe- und Industriegebiet, großflächiger Einzelhandel, geringe Bebauung", "art": "Leitbahnkorridor"}, "geometry": {"type": "MultiPolygon", "coordinates": [[[[13.518430244086055, 52.42292748763495], [13.519328596626346, 52.42422209002569], [13.519171286326587, 52.42399088025825], [13.519147858892751, 52.423952671452994], [13.518788262909313, 52.42342509291541], [13.518514354955988, 52.42302215136785], [13.518437754100876, 52.42290965713587], [13.51845863798528, 52.42284604622182], [13.518535748958513, 52.42260906361493], [13.51853950285311, 52.42259754812704], [13.518547950103716, 52.422571498929415], [13.518548392513818, 52.422570146820235], [13.518556723157854, 52.422544589529814], [13.518548295462486, 52.42253645692979], [13.518430244086055, 52.42292748763495]]], [[[13.519591500393705, 52.424670026100536], [13.519606468708872, 52.42463049773756], [13.519602140027642, 52.42462413557703], [13.519591500393705, 52.424670026100536]]], [[[13.520222278454815, 52.4257174594739], [13.52036359696449, 52.425973954220986], [13.520367102106317, 52.425970830853785], [13.52028494748184, 52.42582282798805], [13.520232694207998, 52.425727435063735], [13.520214975233987, 52.42569965565294], [13.520202082971572, 52.42567662999206], [13.52007187612481, 52.42548078404091], [13.52005246161001, 52.4254515313303], [13.520222278454815, 52.4257174594739]]]]}}, {"type": "Feature", "properties": {"id": "tk_kak_leitbahnkorridor_2022.1501261001000100", "schl5": "1501261001000100", "typklar": "Park / Grünfläche", "art": "Leitbahnkorridor"}, "geometry": {"type": "MultiPolygon", "coordinates": [[[[13.516648453441844, 52.40333196939398], [13.516651759142789, 52.40333386205683], [13.516764385518591, 52.40316644041536], [13.51686467546753, 52.403013762054364], [13.51686490234014, 52.40301341621613], [13.516648453441844, 52.40333196939398]]], [[[13.518254318083358, 52.40434199442913], [13.518269015825975, 52.40433023873275], [13.517547118179124, 52.40386300935833], [13.517182455381297, 52.403648030936154], [13.518254318083358, 52.40434199442913]]], [[[13.519263206455843, 52.404914896818816], [13.519254392210094, 52.40494917107912], [13.519225726482084, 52.40500954888428], [13.519330755634675, 52.40494016550162], [13.519265026920086, 52.40490781824577], [13.519263206455843, 52.404914896818816]]], [[[13.519115897390916, 52.405182385314305], [13.520066919893523, 52.40584533341223], [13.520068629701582, 52.40584103794054], [13.519813024154853, 52.40566008101021], [13.519464641250172, 52.40541416310047], [13.519123780771917, 52.405173216553834], [13.519115897390916, 52.405182385314305]]]]}}, {"type": "Feature", "properties": {"id": "tk_kak_leitbahnkorridor_2022.1501261001000200", "schl5": "1501261001000200", "typklar": "Park / Grünfläche", "art": "Leitbahnkorridor"}, "geometry": {"type": "Polygon", "coordinates": [[[13.520066919893523, 52.40584533341223], [13.52057265847196, 52.406197867047936], [13.520068629701582, 52.40584103794054], [13.520066919893523, 52.40584533341223]]]}}, {"type": "Feature", "properties": {"id": "tk_kak_leitbahnkorridor_2022.1501262061000100", "schl5": "1501262061000100", "typklar": "Park / Grünfläche", "art": "Leitbahnkorridor"}, "geometry": {"type": "MultiPolygon", "coordinates": [[[[13.52280040197139, 52.41522228005069], [13.522880039805361, 52.415332620046925], [13.522803854070347, 52.41522163077678], [13.52280040197139, 52.41522228005069]]], [[[13.522799275578524, 52.41570119047337], [13.52249892450162, 52.416252400017925], [13.522205561717016, 52.41693745379086], [13.52216141823799, 52.417154959914875], [13.522222496013795, 52.41692209651726], [13.522369431087386, 52.41656743671078], [13.522498771789227, 52.41625472500257], [13.522805775904587, 52.415702040437225], [13.52288929310778, 52.41556649924718], [13.522799275578524, 52.41570119047337]]], [[[13.522126117366795, 52.41732889626601], [13.522131663112093, 52.41750437098005], [13.522130938618826, 52.417350590879465], [13.522139292076211, 52.4172639811292], [13.522126117366795, 52.41732889626601]]], [[[13.52210942433507, 52.418429155531534], [13.520829456368103, 52.41954416275393], [13.52068966011968, 52.42005418175604], [13.520845381461033, 52.41954336129734], [13.52159108583639, 52.41889815625106], [13.522123236221539, 52.41843186097991], [13.52214832834107, 52.41832938382919], [13.52210942433507, 52.418429155531534]]], [[[13.520498948295874, 52.420836560585286], [13.520192782812389, 52.42102052878493], [13.520503618012148, 52.4208362369044], [13.520580904581456, 52.42049088032825], [13.520498948295874, 52.420836560585286]]], [[[13.520166147647824, 52.421036533277714], [13.519930940794888, 52.421325775593864], [13.520107106420372, 52.42111572492619], [13.520180950442827, 52.421027638599206], [13.520166147647824, 52.421036533277714]]], [[[13.519885036199142, 52.421352252803466], [13.5199129521575, 52.42134722430319], [13.519913146409687, 52.421346992687056], [13.519885036199142, 52.421352252803466]]], [[[13.518644540436666, 52.4222507683742], [13.518650551382995, 52.422256588061416], [13.51865103290021, 52.42225508182325], [13.518682106519641, 52.42222967576201], [13.518734832332571, 52.42218659478495], [13.518801123576376, 52.422131923410056], [13.518851994791177, 52.422079003022105], [13.518644540436666, 52.4222507683742]]]]}}, {"type": "Feature", "properties": {"id": "tk_kak_leitbahnkorridor_2022.1501266251000100", "schl5": "1501266251000100", "typklar": "Park / Grünfläche", "art": "Leitbahnkorridor"}, "geometry": {"type": "MultiPolygon", "coordinates": [[[[13.523409442974927, 52.412397367171835], [13.523255107274155, 52.412295231325764], [13.523254519705484, 52.41229477443137], [13.52301412036345, 52.41213567493741], [13.523013016534732, 52.41213674553761], [13.523409449943891, 52.412397526803204], [13.523409442974927, 52.412397367171835]]], [[[13.523600668142905, 52.413177096621446], [13.523776048663258, 52.41333399978491], [13.523599015628461, 52.41317476741661], [13.523600668142905, 52.413177096621446]]]]}}, {"type": "Feature", "properties": {"id": "tk_kak_leitbahnkorridor_2022.1501266261000100", "schl5": "1501266261000100", "typklar": "Park / Grünfläche", "art": "Leitbahnkorridor"}, "geometry": {"type": "MultiPolygon", "coordinates": [[[[13.522622147143771, 52.41415824574805], [13.522569290384665, 52.41432830479584], [13.522586798605628, 52.41432248112529], [13.522625964075065, 52.41415674964458], [13.522622147143771, 52.41415824574805]]], [[[13.522261140336756, 52.41442942370624], [13.52226148112957, 52.41442992476125], [13.522267626175857, 52.414427886387024], [13.52236306210143, 52.41439643584573], [13.522261140336756, 52.41442942370624]]], [[[13.52280040197139, 52.41522228005069], [13.522803854070347, 52.41522163077678], [13.522792238733297, 52.4152047092654], [13.522704661394448, 52.41507666077563], [13.522613411782734, 52.41494411573542], [13.522610623869445, 52.41493998095934], [13.522522591955617, 52.414811486079785], [13.522431496411741, 52.41467876299181], [13.522357983747192, 52.414571808974266], [13.52280040197139, 52.41522228005069]]]]}}]}