{"type": "FeatureCollection", "name": "tm_kak_gew_2022_neukoelln", "features": [{"type": "Feature", "properties": {"id": "tm_kak_gew_2022.0600158651000000", "schl5": "0600158651000000", "art": "Gewässer"}, "geometry": {"type": "MultiPolygon", "coordinates": [[[[13.422611927251026, 52.49541016627876], [13.422619211659924, 52.495408003675685], [13.422750587317752, 52.49536715555374], [13.422834931040112, 52.495339760316064], [13.422855722294816, 52.495333015461824], [13.424452888737875, 52.494813864431265], [13.422611927251026, 52.49541016627876]]], [[[13.422344526393001, 52.49548799727675], [13.422353529623809, 52.49548554248802], [13.422486815587446, 52.49544730956271], [13.422544214698602, 52.49543026885345], [13.422344526393001, 52.49548799727675]]], [[[13.42125857351461, 52.49573820344734], [13.420485416531823, 52.495855420058945], [13.420486425017096, 52.495858484081616], [13.420696819849676, 52.49583045354525], [13.42089410121081, 52.49580084499077], [13.420969696011678, 52.49578950025561], [13.421111891674512, 52.49576620508925], [13.421253053380417, 52.4957409269082], [13.421393657352803, 52.495713941803196], [13.421533514010862, 52.49568560689], [13.42167250048114, 52.49565565079962], [13.421810747900338, 52.49562452483854], [13.421947391474106, 52.49559169599126], [13.422083895237844, 52.49555741755859], [13.42217251362868, 52.495534341208554], [13.42125857351461, 52.49573820344734]]]]}}, {"type": "Feature", "properties": {"id": "tm_kak_gew_2022.0600158671000000", "schl5": "0600158671000000", "art": "Gewässer"}, "geometry": {"type": "MultiPolygon", "coordinates": [[[[13.439628010999739, 52.48965955097713], [13.43961627828948, 52.48969251982384], [13.439632630387287, 52.489694743163014], [13.439629034009274, 52.48965968276526], [13.439628010999739, 52.48965955097713]]], [[[13.439236690792482, 52.489641610393804], [13.439252853400236, 52.489643768235744], [13.439259513031699, 52.48962392338087], [13.439236690792482, 52.489641610393804]]], [[[13.43878751068916, 52.48998972059555], [13.439227897517183, 52.489660539991455], [13.43923353161585, 52.489644058724906], [13.43878751068916, 52.48998972059555]]], [[[13.439635647882483, 52.4897241601435], [13.439643202703655, 52.4898340077509], [13.439651426390832, 52.4898779817876], [13.439635647882483, 52.4897241601435]]]]}}, {"type": "Feature", "properties": {"id": "tm_kak_gew_2022.1300698501000000", "schl5": "1300698501000000", "art": "Gewässer"}, "geometry": {"type": "Polygon", "coordinates": [[[13.420874454525533, 52.45639696774134], [13.420863036112662, 52.45639855027563], [13.42088247686678, 52.45641915259837], [13.421035412279755, 52.456581245839836], [13.421035701359992, 52.456581552232464], [13.420874454525533, 52.45639696774134]]]}}, {"type": "Feature", "properties": {"id": "tm_kak_gew_2022.1400758501000000", "schl5": "1400758501000000", "art": "Gewässer"}, "geometry": {"type": "Polygon", "coordinates": [[[13.439703741668897, 52.489481839412925], [13.439814190388672, 52.48916258474124], [13.440326724376652, 52.487681013030695], [13.440547268720795, 52.48739648600256], [13.440798688154011, 52.48712099334999], [13.44112518705435, 52.4868447192475], [13.441451525100279, 52.486605289332076], [13.444460784434751, 52.485101116102726], [13.44424510423078, 52.48493003883803], [13.441240077477337, 52.48647824668357], [13.440838665057285, 52.486717557771726], [13.44049872527361, 52.48703964322822], [13.440247342586735, 52.48730614826529], [13.440026640292608, 52.487627519865875], [13.43939033917654, 52.48944180309984], [13.439703741668897, 52.489481839412925]]]}}, {"type": "Feature", "properties": {"id": "tm_kak_gew_2022.1400768511000000", "schl5": "1400768511000000", "art": "Gewässer"}, "geometry": {"type": "Polygon", "coordinates": [[[13.44466877013194, 52.4849971916672], [13.452049824160271, 52.481201604786214], [13.451817931579555, 52.481033213456016], [13.444466278193431, 52.484840513876314], [13.44466877013194, 52.4849971916672]]]}}, {"type": "Feature", "properties": {"id": "tm_kak_gew_2022.1400778521000000", "schl5": "1400778521000000", "art": "Gewässer"}, "geometry": {"type": "Polygon", "coordinates": [[[13.452265129902388, 52.48109857660325], [13.45532989812254, 52.47951153378186], [13.455112682164481, 52.479353054491185], [13.452034675976428, 52.48093827580411], [13.452265129902388, 52.48109857660325]]]}}, {"type": "Feature", "properties": {"id": "tm_kak_gew_2022.1400778531000000", "schl5": "1400778531000000", "art": "Gewässer"}, "geometry": {"type": "Polygon", "coordinates": [[[13.455546624036323, 52.47941748861482], [13.457185207927944, 52.47854096239129], [13.457152152843502, 52.47833332407375], [13.457033350282819, 52.478226213924565], [13.455272467791687, 52.47914030426286], [13.455546624036323, 52.47941748861482]]]}}, {"type": "Feature", "properties": {"id": "tm_kak_gew_2022.1400778541000000", "schl5": "1400778541000000", "art": "Gewässer"}, "geometry": {"type": "Polygon", "coordinates": [[[13.457699754815796, 52.474085243340916], [13.458270439993493, 52.476866511236224], [13.457830737222627, 52.47754257535747], [13.457537103378707, 52.47812268934984], [13.457583252960674, 52.47836988725997], [13.45884411628523, 52.477721053371326], [13.457900204638221, 52.47307347443397], [13.457551343550708, 52.4732528810785], [13.457699754815796, 52.474085243340916]]]}}, {"type": "Feature", "properties": {"id": "tm_kak_gew_2022.1400778551000000", "schl5": "1400778551000000", "art": "Gewässer"}, "geometry": {"type": "Polygon", "coordinates": [[[13.457166863441051, 52.47090983502094], [13.457204912682448, 52.47114052712912], [13.457194913557775, 52.471420893951816], [13.4574877160562, 52.472883634958826], [13.457828878274352, 52.47271589923462], [13.457397819876446, 52.47058679779127], [13.457204097783745, 52.470339239061495], [13.45693516858795, 52.47041256318913], [13.457020293206254, 52.47055059162047], [13.457166863441051, 52.47090983502094]]]}}, {"type": "Feature", "properties": {"id": "tm_kak_gew_2022.1400778561000000", "schl5": "1400778561000000", "art": "Gewässer"}, "geometry": {"type": "Polygon", "coordinates": [[[13.456752918918047, 52.47021970672543], [13.456865902115407, 52.47020084753589], [13.45705299573471, 52.47014642880517], [13.45639561580313, 52.46919466474131], [13.455934979420356, 52.46920927763585], [13.456752918918047, 52.47021970672543]]]}}, {"type": "Feature", "properties": {"id": "tm_kak_gew_2022.1400778571000000", "schl5": "1400778571000000", "art": "Gewässer"}, "geometry": {"type": "Polygon", "coordinates": [[[13.454187679378883, 52.46681535177987], [13.453897509584145, 52.46689676024187], [13.453878282971324, 52.46691844355232], [13.455389296748715, 52.46886758190722], [13.455435851701738, 52.46889910481005], [13.45562914132284, 52.468863013954916], [13.455691854394258, 52.468914166673315], [13.4557108349942, 52.46895283608199], [13.455788740449286, 52.468973615642454], [13.456161083196692, 52.46895977675835], [13.456147951077083, 52.468931000226945], [13.456110193662076, 52.46891777330659], [13.453876229716649, 52.46604667797228], [13.453651736154665, 52.46611649170491], [13.454187679378883, 52.46681535177987]]]}}, {"type": "Feature", "properties": {"id": "tm_kak_gew_2022.1400778581000000", "schl5": "1400778581000000", "art": "Gewässer"}, "geometry": {"type": "Polygon", "coordinates": [[[13.452017591404294, 52.468531361807955], [13.452416562249182, 52.46848072758488], [13.453479286018112, 52.46616300002724], [13.453651736154665, 52.46611649170491], [13.453876229716649, 52.46604667797228], [13.453372201050408, 52.46538804441275], [13.452914892475608, 52.465379721126844], [13.45267503738267, 52.46674309731107], [13.451863173714528, 52.46850956658757], [13.452017591404294, 52.468531361807955]]]}}, {"type": "Feature", "properties": {"id": "tm_kak_gew_2022.1400778591000000", "schl5": "1400778591000000", "art": "Gewässer"}, "geometry": {"type": "MultiPolygon", "coordinates": [[[[13.454658896073541, 52.460996311503834], [13.453278627813685, 52.46243265987319], [13.452901732285417, 52.46282637898517], [13.4524999830782, 52.463458084176104], [13.452987502862563, 52.463471531870546], [13.453285692370985, 52.46299568087028], [13.45337885719315, 52.462875395448826], [13.453475066255585, 52.46277373883899], [13.45360373969433, 52.46263777945061], [13.454651402873194, 52.46153075286457], [13.455063887261039, 52.46111461711288], [13.454658896073541, 52.460996311503834]]], [[[13.452860110894054, 52.46418990069986], [13.452687659016494, 52.46420101350266], [13.452484107348093, 52.464241361845865], [13.452396443722499, 52.46424939646782], [13.452463909050518, 52.464722622544215], [13.452696673367784, 52.46511285661571], [13.45275743537982, 52.465150765847824], [13.453200203715934, 52.46514500656522], [13.453094267167117, 52.46495741829492], [13.452982812171308, 52.46475452054077], [13.452950845878028, 52.464687895628245], [13.452932778011796, 52.464622307556944], [13.452870955145922, 52.46425523424921], [13.452860110894054, 52.46418990069986]]]]}}, {"type": "Feature", "properties": {"id": "tm_kak_gew_2022.1400778611000000", "schl5": "1400778611000000", "art": "Gewässer"}, "geometry": {"type": "Polygon", "coordinates": [[[13.456817284088805, 52.45960139118502], [13.457030004393587, 52.45961191790945], [13.457262228963367, 52.45964404622894], [13.4576621223562, 52.459630270200535], [13.459694460814449, 52.45956023796113], [13.460808170610559, 52.45952311379998], [13.464558639295928, 52.459418826919574], [13.465595862564324, 52.45940586574479], [13.471498923941004, 52.45920077799555], [13.47191681322099, 52.459178858843806], [13.47188973212393, 52.45892989488885], [13.471498412765794, 52.45892848292946], [13.465495464421949, 52.45910198170326], [13.458609038547346, 52.459274549089216], [13.458323289657974, 52.45920782387572], [13.45733678908004, 52.45923751469993], [13.457271165375504, 52.45920730275903], [13.45725237562973, 52.45922891042077], [13.457229709935035, 52.459258735877334], [13.457123212565097, 52.45925678911076], [13.457121842826727, 52.45925637566685], [13.457121566847745, 52.45925637203133], [13.457106761963143, 52.45925182363601], [13.457040336220928, 52.45923177358881], [13.457039569195699, 52.459231180498506], [13.457037996737991, 52.45923069740394], [13.45699418280154, 52.45920135607052], [13.456991322780619, 52.459189279042775], [13.456974871820838, 52.45915331735996], [13.456977601561006, 52.45913133836524], [13.456975364266217, 52.45912189092692], [13.456637940496055, 52.459614275490004], [13.456817284088805, 52.45960139118502]]]}}, {"type": "Feature", "properties": {"id": "tm_kak_gew_2022.1400778621000000", "schl5": "1400778621000000", "art": "Gewässer"}, "geometry": {"type": "Polygon", "coordinates": [[[13.472144857516325, 52.45917466444514], [13.474943019985322, 52.45913329468744], [13.474965447778715, 52.458859874424604], [13.474967022414116, 52.458824709600535], [13.474967092463944, 52.45882317447325], [13.472109501444967, 52.45892625988151], [13.472144857516325, 52.45917466444514]]]}}, {"type": "Feature", "properties": {"id": "tm_kak_gew_2022.1400796041000300", "schl5": "1400796041000300", "art": "Gewässer"}, "geometry": {"type": "Polygon", "coordinates": [[[13.411956414008708, 52.48258682604978], [13.412052109881163, 52.482612851577116], [13.412112952422994, 52.48256799350413], [13.412156368902485, 52.48240110073339], [13.412341496260394, 52.48219424297114], [13.412467355568827, 52.48216167605643], [13.412796415981157, 52.48211280428983], [13.412894987145659, 52.48205893587028], [13.412860406792664, 52.48198044435581], [13.412614476534959, 52.481971434948754], [13.412543365331734, 52.48195525509454], [13.412425929137756, 52.481927035653406], [13.412319997180184, 52.48192561386271], [13.41219102378738, 52.481958138817426], [13.412150074046318, 52.4820565515678], [13.41199124345137, 52.48205251596452], [13.411896815053167, 52.48207789248717], [13.41179368912393, 52.482171663504296], [13.411686269900182, 52.48218992699442], [13.411690118975732, 52.48219120776386], [13.411638481458745, 52.48241317921109], [13.411548091460856, 52.48249950916297], [13.4115232658958, 52.48258291358443], [13.411586228083378, 52.482652271325506], [13.411647513330779, 52.48268164103385], [13.41173156829218, 52.48268467219649], [13.411841645980793, 52.48265760339415], [13.411956414008708, 52.48258682604978]]]}}, {"type": "Feature", "properties": {"id": "tm_kak_gew_2022.1400800071001200", "schl5": "1400800071001200", "art": "Gewässer"}, "geometry": {"type": "Polygon", "coordinates": [[[13.414703297730757, 52.43558160450649], [13.414831170618848, 52.435688324136486], [13.41498670243101, 52.435764266290455], [13.415142490396807, 52.435786964158886], [13.415298359608936, 52.43579284672047], [13.415371802306456, 52.43577616428447], [13.41540399195068, 52.435756605621954], [13.41538124028486, 52.435720134618926], [13.41528956401611, 52.43571436538473], [13.415289886753957, 52.43564710945695], [13.415217154319928, 52.43551526811258], [13.415318228436309, 52.43547341304893], [13.415419369589081, 52.43541754695529], [13.415456278596487, 52.435369972998096], [13.415579969356417, 52.4353926123759], [13.415689973371835, 52.435401216431636], [13.415767947027875, 52.43539575070953], [13.415781394254957, 52.43546022854613], [13.415872868746737, 52.435508032019854], [13.415978246814943, 52.43552503451386], [13.41607921355753, 52.43550559774649], [13.416189429801053, 52.4354693625153], [13.416235602689422, 52.43540218937873], [13.416245120239644, 52.4353293436283], [13.41619958861751, 52.43526200575562], [13.416126494420851, 52.435205828920786], [13.41596642934155, 52.43511867038217], [13.415865892083314, 52.43504843216554], [13.41585692321215, 52.435006379872625], [13.415870919534674, 52.43495596328569], [13.415949105885849, 52.434905659529946], [13.416068557935477, 52.43485543020996], [13.416137655878705, 52.43478829628272], [13.416198063199475, 52.434620262063696], [13.41628543093049, 52.4345671724301], [13.416382312674807, 52.43454348002296], [13.416486202675081, 52.43454719298061], [13.41678558901545, 52.434713549533114], [13.416924096407152, 52.4347208518688], [13.41707987351531, 52.43473876914688], [13.417154683447276, 52.43478829601324], [13.41721200854557, 52.43487307421914], [13.417222750538633, 52.43504244712282], [13.417285949313056, 52.435106066772846], [13.417435886970347, 52.435138085380814], [13.417591683303955, 52.43515247409854], [13.417863013631548, 52.4351494255938], [13.418047672867328, 52.43516386365398], [13.418191824449442, 52.43519940034703], [13.418295398603474, 52.43527014652948], [13.418335523287192, 52.43533019673354], [13.41831694066271, 52.435598306641275], [13.418345439496328, 52.435675977750925], [13.418448898534482, 52.43577142098093], [13.418650463028028, 52.43587409335045], [13.419030850884361, 52.43600530469668], [13.419198030170937, 52.43605499354389], [13.419417411857086, 52.436051850196236], [13.419636977414529, 52.43600989583385], [13.419810473572594, 52.43594316431429], [13.419960648663384, 52.43592578540036], [13.420116463100111, 52.43593664197464], [13.420231490103253, 52.436028576085434], [13.420357782460927, 52.43618050937656], [13.420547593769204, 52.43632902473903], [13.420576111400472, 52.43640316560183], [13.420484945259487, 52.43647007561153], [13.420422143848162, 52.43653308289656], [13.420391706720189, 52.4366492970663], [13.42050316374732, 52.43664284773473], [13.420546933583191, 52.43658146803066], [13.420617763879216, 52.43654505050025], [13.420696669071326, 52.436525256656005], [13.420789062554151, 52.43652707874205], [13.420878591933668, 52.43656045296406], [13.420943537281321, 52.436620360795935], [13.420989946044207, 52.43657559587792], [13.42100101006039, 52.43653409116995], [13.420957767467737, 52.43648252568778], [13.42090631709617, 52.43644257325648], [13.420879427205891, 52.436381070618765], [13.420920756116605, 52.436259892112176], [13.421079261985733, 52.43607081807326], [13.421095778552695, 52.436026000092006], [13.42107436207981, 52.43595620251006], [13.420987814748669, 52.435866359684844], [13.42085871626642, 52.43575403253793], [13.420778463598888, 52.435704704191735], [13.420450447832849, 52.43568142947699], [13.420308145041231, 52.43566226260071], [13.42016603663385, 52.43560147354451], [13.420024106742968, 52.43550284738307], [13.42001200787009, 52.435442285750355], [13.420179780638875, 52.43531014560457], [13.420303775313329, 52.435272524395664], [13.420502095592639, 52.43522746406638], [13.420620023063858, 52.435163345429906], [13.420645050251455, 52.43510663258756], [13.420627077734615, 52.43497795190942], [13.420565489214725, 52.43490973591762], [13.420410964671227, 52.43485649390452], [13.420175960774108, 52.434803110558455], [13.420003627021893, 52.434587132679916], [13.419910960762696, 52.434545349561084], [13.419787144696233, 52.434545132511424], [13.419626078467964, 52.4345675535145], [13.4194712891076, 52.434571066162654], [13.41937211304473, 52.4345973783234], [13.419291206682834, 52.434688047972465], [13.419210424171824, 52.43475223034467], [13.419123628890018, 52.43477856486685], [13.419043254215929, 52.434755721665894], [13.419000150976046, 52.43470645634147], [13.418988213530932, 52.43461183999542], [13.418871318536915, 52.43445649909254], [13.41887791849165, 52.43436948360715], [13.419176051764037, 52.43416189888466], [13.419281809854446, 52.4340523537293], [13.41929461795065, 52.43396156580411], [13.419245643044826, 52.433844182282535], [13.419134832485932, 52.43371155463383], [13.418915045557629, 52.43348605821662], [13.418741976491528, 52.43336826472575], [13.418481899424265, 52.433292006246425], [13.418134834990175, 52.43325349449478], [13.417843292565985, 52.43327572009726], [13.417588826372054, 52.433324540781086], [13.41711668586087, 52.43350941541219], [13.416998924297452, 52.43349783611917], [13.416875124657691, 52.43345213617538], [13.41685690134981, 52.433372514503795], [13.416888317707665, 52.43328539980205], [13.416876277834362, 52.43320957787331], [13.416845651685742, 52.43312993308089], [13.416852535822382, 52.43298592462598], [13.416921301405216, 52.432868556606934], [13.41707669793776, 52.43278924278491], [13.417269135031972, 52.43274410284641], [13.417374727286385, 52.43270638942605], [13.417580246773749, 52.43251725244001], [13.417729223989925, 52.43248340653256], [13.417909025865935, 52.43248751375164], [13.418045494604272, 52.43247638440016], [13.418306262016214, 52.43240483465036], [13.41851142024711, 52.43229149580882], [13.41867962131153, 52.43212503070471], [13.418804597545206, 52.43192059031707], [13.41881797917332, 52.43171216238309], [13.418799983926547, 52.43158327062607], [13.418831771310181, 52.4314165660136], [13.418825964263954, 52.43133317524365], [13.418764154186515, 52.431291376731004], [13.418578247364714, 52.43126830946133], [13.418330514629368, 52.431207233625365], [13.418107474787352, 52.43116893950604], [13.417865619305836, 52.431176092625705], [13.417660842970715, 52.4312098410845], [13.417505434946419, 52.43129294708282], [13.417213024549344, 52.43150087936599], [13.417131483044855, 52.43169781565406], [13.417174003817037, 52.43188360130318], [13.417235489917303, 52.43199362044185], [13.417197801337771, 52.43209588502091], [13.41691850405222, 52.432152239093654], [13.416685812734167, 52.43223491521901], [13.416553566810933, 52.43232575686723], [13.416524360178391, 52.43244130240578], [13.416517363094652, 52.432707514682285], [13.416567943978023, 52.43291778175121], [13.416515812365919, 52.43303328729612], [13.416389478505947, 52.433085607033036], [13.416177310665644, 52.43310975029674], [13.416096807214112, 52.43316565432895], [13.416073550383583, 52.4332356717301], [13.415987599304495, 52.43323201530604], [13.415925159808973, 52.4331057977477], [13.415839393522974, 52.43306360932063], [13.415696216025436, 52.43304233645929], [13.415575763139527, 52.4330631391491], [13.415489476374363, 52.43312954069358], [13.41546047098404, 52.43320305133515], [13.415465917534789, 52.433262611735664], [13.415368084495299, 52.43334650812558], [13.415350303537178, 52.433469079361764], [13.415400745140557, 52.43370737054907], [13.415360208738118, 52.43379487243751], [13.415250996687956, 52.433861232686475], [13.41518736652065, 52.433983722525646], [13.415198326396476, 52.434088830591946], [13.415329910648868, 52.43413810721274], [13.415467022939204, 52.43422942946288], [13.415529682529193, 52.43431010989877], [13.415546609458533, 52.434366187202905], [13.415529503609108, 52.43443971795094], [13.41545124894044, 52.43450403236008], [13.415340980998824, 52.434551476403676], [13.41509736914013, 52.43467714723453], [13.415042067859224, 52.43473589781688], [13.415003976508281, 52.435030078264965], [13.414939369591137, 52.43511683563643], [13.414745907826997, 52.43530144444579], [13.414685802398694, 52.435405024273784], [13.414671631106268, 52.435491872404775], [13.414703297730757, 52.43558160450649]], [[13.4175953167046, 52.43381127660289], [13.417694783369244, 52.43375979184518], [13.417717012360976, 52.43372164667817], [13.417706700615028, 52.433571137635234], [13.41774359772017, 52.43353975680935], [13.417795110797918, 52.4335263713905], [13.417997036968563, 52.43356715818792], [13.418169766438767, 52.43356521640151], [13.418243223396074, 52.433574331658], [13.418279824508266, 52.43360584084971], [13.418279623129058, 52.43364851744393], [13.418231700003881, 52.43367987859894], [13.418158096368225, 52.43370221068965], [13.418099161024337, 52.43373130614007], [13.417973565869804, 52.43386809871008], [13.417903572791534, 52.43390391356403], [13.417826367530093, 52.43391051485909], [13.417727027710056, 52.433935046789564], [13.417686636556233, 52.43392823670527], [13.417584205588355, 52.433829226222684], [13.4175953167046, 52.43381127660289]], [[13.418614259696009, 52.434924060011745], [13.418627018885958, 52.43490395737397], [13.418623346378702, 52.434876858328025], [13.418579348138103, 52.434807116974525], [13.418587227792072, 52.43474752820127], [13.418621487431576, 52.43473365539723], [13.418640447955164, 52.43474143010349], [13.418665511900588, 52.43479797990375], [13.418740149875173, 52.43481591478884], [13.418819746286864, 52.43485630483946], [13.418937352495774, 52.43489366599054], [13.418992916973854, 52.43492782197039], [13.418985070971397, 52.43498044396471], [13.419000041709863, 52.435028461874346], [13.41895906307711, 52.435124372068415], [13.41892228122823, 52.43513591759385], [13.418894418861926, 52.43513586868871], [13.418784517608508, 52.435076073280506], [13.418684480864776, 52.435072801408126], [13.41854944555231, 52.43497116279434], [13.418614259696009, 52.434924060011745]]]}}, {"type": "Feature", "properties": {"id": "tm_kak_gew_2022.1400800071001300", "schl5": "1400800071001300", "art": "Gewässer"}, "geometry": {"type": "Polygon", "coordinates": [[[13.412544678378744, 52.43339377286498], [13.41255315696315, 52.43345407813776], [13.41255105315688, 52.43351261482632], [13.412575875446871, 52.433554778648826], [13.412586511933723, 52.433676486660964], [13.412613909612451, 52.433749487923336], [13.412658882127005, 52.43378597639408], [13.412875551145621, 52.43385884810456], [13.413032606620735, 52.433898746152586], [13.413097389795675, 52.43394090225309], [13.413172807406733, 52.43396561519584], [13.413267365265625, 52.43397988186544], [13.413329962682798, 52.43397842827342], [13.413390582050706, 52.43396242196023], [13.413523112129655, 52.43389462481553], [13.41354518919679, 52.4338720340096], [13.41355376138856, 52.43384233159088], [13.413503185336205, 52.43382253862133], [13.413415414153071, 52.43375866628412], [13.413347945910965, 52.43361713172244], [13.413291502628345, 52.43358655682636], [13.413255118343981, 52.433554720802604], [13.413167706453239, 52.43345270083669], [13.41312382068826, 52.43342076499239], [13.413063489719743, 52.433393959953456], [13.412993994084788, 52.433378500118586], [13.412890760705011, 52.43337403673245], [13.412690145889155, 52.433388808969944], [13.412626023127663, 52.43338426440817], [13.412543927674122, 52.43333652405281], [13.4125159003061, 52.43335067478971], [13.412544678378744, 52.43339377286498]]]}}, {"type": "Feature", "properties": {"id": "tm_kak_gew_2022.1400800071001400", "schl5": "1400800071001400", "art": "Gewässer"}, "geometry": {"type": "Polygon", "coordinates": [[[13.411718319052648, 52.433227444935675], [13.411862266369114, 52.43321753537638], [13.412080460706523, 52.43323767691884], [13.41218991579206, 52.43327497044105], [13.412308387941396, 52.43326980092686], [13.412341692999396, 52.43326507463426], [13.412366237909271, 52.43325016057952], [13.412359434083255, 52.43323997752174], [13.412284236294544, 52.43320334379569], [13.412255016035735, 52.433173375822015], [13.412190949946217, 52.43306197342969], [13.412170455429667, 52.43304937219024], [13.412098110211677, 52.43303009456189], [13.412050169430616, 52.43302522124696], [13.411987456521942, 52.43303827032263], [13.41177726884398, 52.4331832782297], [13.411735116864898, 52.4331951665781], [13.41171154424141, 52.433211877414124], [13.411718319052648, 52.433227444935675]]]}}, {"type": "Feature", "properties": {"id": "tm_kak_gew_2022.1400800071001500", "schl5": "1400800071001500", "art": "Gewässer"}, "geometry": {"type": "Polygon", "coordinates": [[[13.42715975999794, 52.44147580132094], [13.427214741235717, 52.44152198830698], [13.4272936606948, 52.44156371846795], [13.427389198650852, 52.441591985062225], [13.427666800020608, 52.441635173990015], [13.428258492337216, 52.44179018872212], [13.428313668573743, 52.44179365454559], [13.428344989318873, 52.44178358897341], [13.42837457239993, 52.44175103591486], [13.428349329063359, 52.4416363212992], [13.428246857491104, 52.44151360660771], [13.428045147136876, 52.44136711716478], [13.427901898996298, 52.4413117881942], [13.427638820079903, 52.44131247012859], [13.427329655532592, 52.441333309884854], [13.427232054817605, 52.44135450578382], [13.427180437783411, 52.44137802787949], [13.427143441504828, 52.441422934779744], [13.42715975999794, 52.44147580132094]]]}}, {"type": "Feature", "properties": {"id": "tm_kak_gew_2022.1400800781000400", "schl5": "1400800781000400", "art": "Gewässer"}, "geometry": {"type": "Polygon", "coordinates": [[[13.45095671139455, 52.4486244894516], [13.45104712445823, 52.448703339019836], [13.451191946190072, 52.44878892069461], [13.451278883014178, 52.44882896206261], [13.45134233005804, 52.44884457708209], [13.451404031753247, 52.44884245132712], [13.45146761815444, 52.448822590072886], [13.451505836940626, 52.44879382087777], [13.451509668105214, 52.44874282849897], [13.45149907233004, 52.44866964055456], [13.451470229138758, 52.44862192554002], [13.45138156585761, 52.44855970939664], [13.451274729396328, 52.448504118091556], [13.451187752133333, 52.44847405541787], [13.451124303601716, 52.44845954800086], [13.451068045365421, 52.44846168197134], [13.451013522209315, 52.448483774642945], [13.450962560679308, 52.44852250075151], [13.450936974332846, 52.448569027264725], [13.45095671139455, 52.4486244894516]]]}}, {"type": "Feature", "properties": {"id": "tm_kak_gew_2022.1400800791000300", "schl5": "1400800791000300", "art": "Gewässer"}, "geometry": {"type": "Polygon", "coordinates": [[[13.448081589418603, 52.44828512906165], [13.448120395601894, 52.44832660276982], [13.448186328512566, 52.448365010431885], [13.448277735775669, 52.44838896195164], [13.448499692027022, 52.44839654428286], [13.448733579435297, 52.44838654234126], [13.448877697731982, 52.44836605215843], [13.449106660344427, 52.448316698202625], [13.449115577097931, 52.448205926811404], [13.448903994423604, 52.448147628850705], [13.448702508958476, 52.44810694619175], [13.448568705446904, 52.448091214104736], [13.448353531168053, 52.44808364176724], [13.44825861984012, 52.44808764085703], [13.448173818473261, 52.4481061493459], [13.448116100354554, 52.448131946257874], [13.448073582549098, 52.44817019032904], [13.448066498047895, 52.44824576210073], [13.448081589418603, 52.44828512906165]]]}}, {"type": "Feature", "properties": {"id": "tm_kak_gew_2022.1400800871000400", "schl5": "1400800871000400", "art": "Gewässer"}, "geometry": {"type": "Polygon", "coordinates": [[[13.443204617467142, 52.450270699899505], [13.443313328265054, 52.450313203351314], [13.443600029166666, 52.45040134258742], [13.443738361456052, 52.45046203701438], [13.443861760961303, 52.450543875195834], [13.443930650695227, 52.450640748418074], [13.443989269362456, 52.45082832551232], [13.44404743450294, 52.451124764648675], [13.444140650975285, 52.45132449071457], [13.44428341237446, 52.45151219731615], [13.444377164770007, 52.451581892609184], [13.44445624556577, 52.45160923099153], [13.444520554117153, 52.45161840177125], [13.444614656379438, 52.45160342673274], [13.444713821658686, 52.45156124365994], [13.444734030944906, 52.45146148328219], [13.44468973406507, 52.45140093623749], [13.444596080516321, 52.451307049197], [13.444502565011804, 52.45117989766408], [13.444438733437359, 52.451055816775906], [13.444297522350421, 52.450493139985724], [13.444248589540486, 52.45035698659739], [13.444154976324217, 52.45025402676827], [13.443893271548951, 52.4501054477248], [13.443759750669825, 52.45007802548965], [13.443512270784213, 52.45008066561883], [13.443338904176391, 52.45011366114706], [13.443229880841505, 52.45014675633368], [13.443200058061509, 52.450176949710865], [13.443185045492998, 52.45021623747311], [13.443204617467142, 52.450270699899505]]]}}, {"type": "Feature", "properties": {"id": "tm_kak_gew_2022.1400800921001000", "schl5": "1400800921001000", "art": "Gewässer"}, "geometry": {"type": "Polygon", "coordinates": [[[13.433704591220282, 52.44986004097327], [13.433746939892663, 52.44991082724218], [13.433834101533218, 52.449935027726454], [13.43389475254181, 52.44993707805086], [13.433953336382782, 52.449925469520416], [13.434016280714268, 52.44989045904879], [13.434033436008123, 52.44986122768947], [13.434036880829721, 52.44980336323811], [13.433993442936954, 52.449758426661994], [13.433960526292122, 52.4497414668507], [13.433926510301168, 52.44973230845555], [13.433836051344864, 52.44973216059503], [13.433794503349104, 52.449741845821144], [13.433727278308087, 52.44978270125685], [13.433704708622383, 52.44983338202814], [13.433704591220282, 52.44986004097327]]]}}, {"type": "Feature", "properties": {"id": "tm_kak_gew_2022.1400800921001500", "schl5": "1400800921001500", "art": "Gewässer"}, "geometry": {"type": "Polygon", "coordinates": [[[13.433224885856445, 52.44861791349675], [13.433297257498166, 52.44867349079758], [13.433440247747539, 52.44872425378071], [13.43370645293829, 52.44873578038968], [13.433827578948168, 52.44871256197766], [13.43386614063201, 52.44865839852542], [13.433896966899203, 52.448527811382895], [13.43388305831711, 52.44847972332551], [13.433848918935713, 52.44844515972212], [13.433800621271752, 52.44841920011571], [13.433534386625498, 52.44841506762209], [13.433405246572216, 52.4484259480265], [13.433330511750523, 52.44844924206642], [13.43323955059378, 52.448493461920165], [13.433184755070618, 52.44856978271676], [13.433224885856445, 52.44861791349675]]]}}, {"type": "Feature", "properties": {"id": "tm_kak_gew_2022.1400800921002100", "schl5": "1400800921002100", "art": "Gewässer"}, "geometry": {"type": "Polygon", "coordinates": [[[13.429005054290295, 52.445519456958586], [13.429032618375063, 52.445558756605465], [13.429086503259937, 52.4455891792056], [13.429155059628682, 52.44560356677292], [13.429228076301118, 52.44560012027965], [13.429254443831367, 52.44558053897515], [13.42924153572113, 52.445528773638685], [13.429253373986745, 52.445493108386295], [13.429239161139543, 52.445406548884925], [13.429215973413301, 52.44536814809365], [13.429186896091762, 52.44534044404434], [13.429153387938683, 52.44532433004991], [13.429084772327746, 52.445323323207106], [13.429030706248316, 52.4453339382676], [13.429001349298876, 52.445368682031116], [13.428993635506883, 52.445461449950955], [13.429005054290295, 52.445519456958586]]]}}, {"type": "Feature", "properties": {"id": "tm_kak_gew_2022.1400800951000300", "schl5": "1400800951000300", "art": "Gewässer"}, "geometry": {"type": "Polygon", "coordinates": [[[13.435670434740477, 52.4473674647316], [13.435650002662987, 52.44742660603612], [13.435645540012978, 52.44752522107757], [13.43587858133016, 52.4477573609539], [13.435914620527798, 52.44782152452537], [13.435978258183109, 52.44803613216831], [13.436054641328049, 52.448102826218694], [13.436131193470287, 52.4481300702642], [13.436179669930736, 52.44811782077503], [13.43625265450086, 52.448036573743465], [13.436286095959735, 52.447767880858855], [13.436347006678472, 52.447679218266984], [13.436423887335831, 52.447630030173286], [13.436605737568126, 52.447568683852104], [13.436735268267453, 52.44747520001984], [13.43682829893188, 52.44742357278743], [13.436913028930647, 52.447426173657895], [13.437138491995295, 52.44754488305125], [13.437235324704378, 52.447547504281644], [13.437324289509416, 52.44750326668435], [13.437336511777783, 52.44747616439723], [13.43732053008166, 52.447439155202034], [13.43724013299646, 52.44736752494194], [13.437224149953156, 52.44733051571463], [13.437313284939371, 52.44724682909184], [13.437309461018911, 52.447197510760596], [13.436992132437608, 52.44685921895273], [13.436083066686836, 52.447126504567045], [13.435893052294409, 52.44721002751448], [13.435727171995424, 52.44731084827863], [13.435670434740477, 52.4473674647316]]]}}, {"type": "Feature", "properties": {"id": "tm_kak_gew_2022.1400808631000000", "schl5": "1400808631000000", "art": "Gewässer"}, "geometry": {"type": "Polygon", "coordinates": [[[13.464251241610691, 52.449406407236374], [13.46382647072577, 52.44972305184571], [13.4633781649057, 52.45003786513924], [13.46302696206012, 52.45034561938591], [13.462664056769295, 52.450633588410405], [13.46237310615528, 52.45095310933693], [13.462718305773446, 52.451076705094295], [13.463002966773624, 52.450866810956256], [13.46367584602539, 52.45028271139778], [13.46461522599072, 52.449618991704085], [13.465611737435628, 52.449011058432106], [13.467315059334744, 52.44816772220544], [13.47614855190505, 52.44388818321593], [13.476550342653661, 52.44379972714473], [13.478101489394673, 52.44304231617068], [13.478440559929805, 52.44281264247131], [13.478101768966015, 52.44255818270436], [13.476943858470516, 52.44311544568671], [13.476520006448037, 52.443206571511915], [13.475041051355047, 52.44391642372405], [13.474640287333806, 52.44420102775289], [13.465734870021384, 52.44852379033028], [13.464763804410557, 52.449098040752695], [13.464251241610691, 52.449406407236374]]]}}, {"type": "Feature", "properties": {"id": "tm_kak_gew_2022.1400808641000000", "schl5": "1400808641000000", "art": "Gewässer"}, "geometry": {"type": "Polygon", "coordinates": [[[13.456975364266217, 52.45912189092692], [13.456979538079539, 52.45911574613742], [13.45698048517218, 52.4591081204504], [13.457017474495578, 52.45905506110014], [13.45703456728795, 52.459034730798166], [13.457435542213922, 52.45844440575808], [13.457436005236062, 52.458443705014055], [13.457436023547057, 52.45844367732273], [13.457480750956305, 52.4582865722927], [13.458777257154996, 52.45662669086427], [13.460409215626617, 52.4542474868131], [13.46059003488383, 52.45398385716291], [13.461336463531799, 52.452826273579454], [13.461709558177187, 52.452574271552564], [13.462061555355186, 52.45206072531511], [13.462475465338528, 52.45150952270421], [13.462622296923758, 52.451184412888146], [13.462271230235116, 52.451056314241335], [13.461941029077442, 52.451249067124564], [13.461401854815774, 52.45186210005968], [13.461176900909212, 52.45222844010596], [13.461151093400984, 52.452449268189376], [13.461148024720158, 52.4524755317108], [13.460182997054853, 52.45391123708049], [13.460009895732634, 52.45416530929557], [13.458510512194959, 52.45636661292094], [13.45762712877521, 52.45732779839951], [13.456921932203736, 52.457849801971285], [13.456593097870346, 52.45805065082108], [13.456352773560987, 52.45818780672429], [13.455932685029927, 52.45839838679068], [13.455558340152349, 52.45857308410196], [13.4548835234939, 52.4588380888156], [13.454599195482304, 52.45893924495446], [13.453924619591499, 52.45914046005585], [13.45275557459096, 52.459378688692794], [13.451887185811543, 52.45947895787289], [13.451317659389879, 52.45952484451846], [13.450748242904433, 52.45954287095075], [13.45017893389117, 52.459533934442135], [13.449668507152358, 52.459515198055335], [13.449024391532497, 52.459451326018396], [13.448124475989438, 52.459341232620176], [13.447589273208647, 52.45926763109215], [13.447435300258169, 52.45950644190028], [13.448820287235984, 52.45971971820118], [13.449299700521298, 52.45976716836196], [13.449951938304872, 52.45981378890731], [13.450149810784607, 52.45982595410424], [13.45086187332108, 52.459824320654995], [13.45498909884271, 52.45968390266873], [13.455110854503257, 52.45977394580183], [13.455029614850677, 52.45985740351538], [13.45328307476398, 52.45991865913062], [13.45304322226288, 52.46030473210529], [13.454782221043802, 52.46067302707554], [13.45490505759833, 52.46076976310196], [13.454789806724179, 52.4608980994952], [13.455183925530399, 52.46098482798949], [13.45542847275389, 52.46080410839398], [13.45580570106591, 52.46031400475245], [13.45584154358096, 52.46031843691497], [13.456312204655477, 52.45977443616784], [13.456523070419406, 52.459646236717816], [13.456637940496055, 52.459614275490004], [13.456975364266217, 52.45912189092692]]]}}, {"type": "Feature", "properties": {"id": "tm_kak_gew_2022.1400808651000000", "schl5": "1400808651000000", "art": "Gewässer"}, "geometry": {"type": "Polygon", "coordinates": [[[13.447069133169935, 52.45946814245552], [13.447220146025188, 52.45923382116349], [13.441601805077015, 52.458521508006505], [13.441527267224119, 52.45875504357653], [13.447069133169935, 52.45946814245552]]]}}, {"type": "Feature", "properties": {"id": "tm_kak_gew_2022.1400808661000000", "schl5": "1400808661000000", "art": "Gewässer"}, "geometry": {"type": "Polygon", "coordinates": [[[13.440214184152532, 52.45859930889369], [13.441361138875077, 52.45872782296409], [13.441426830860735, 52.458498767173985], [13.440116623356554, 52.45836100922266], [13.436520957830698, 52.458066812363946], [13.436378621936266, 52.45832360133912], [13.440214184152532, 52.45859930889369]]]}}, {"type": "Feature", "properties": {"id": "tm_kak_gew_2022.1400808671000000", "schl5": "1400808671000000", "art": "Gewässer"}, "geometry": {"type": "Polygon", "coordinates": [[[13.428226565553592, 52.456795061976806], [13.428821795220912, 52.456920074674876], [13.429606611649158, 52.457086737713254], [13.43223415411563, 52.45771745315708], [13.433268941518264, 52.45791775388], [13.4336878953152, 52.45799033133018], [13.434259804567686, 52.45807304154195], [13.435089078005353, 52.45817503765111], [13.435911175728126, 52.45823657639163], [13.43601518395642, 52.4579985994047], [13.435429858377194, 52.45795631420009], [13.434829932906982, 52.457888842949096], [13.434262409795904, 52.45781243429564], [13.433565592454244, 52.45769986362668], [13.432992315225228, 52.457595580178165], [13.432369115059206, 52.45746964510821], [13.429546136436567, 52.45679367452018], [13.428270380709604, 52.45653811684856], [13.427879334669372, 52.45647994599827], [13.42746027012704, 52.45643790359414], [13.427129920293437, 52.45662157240438], [13.428226565553592, 52.456795061976806]]]}}, {"type": "Feature", "properties": {"id": "tm_kak_gew_2022.1400808681000000", "schl5": "1400808681000000", "art": "Gewässer"}, "geometry": {"type": "Polygon", "coordinates": [[[13.421035701359992, 52.456581552232464], [13.421088697154616, 52.4566377218313], [13.422009553093098, 52.45651935836585], [13.422749737866143, 52.456469413736045], [13.423442726674136, 52.45644544366155], [13.42425919119936, 52.45644145135273], [13.425137334704889, 52.45646092525461], [13.425952094861882, 52.4565081434976], [13.426787342633348, 52.45658055387211], [13.427100188049584, 52.45636450451685], [13.42674030784968, 52.456246170256286], [13.425284449182504, 52.45613675978268], [13.423559007847192, 52.456111341311214], [13.42271881578159, 52.45615752507224], [13.420874454525533, 52.45639696774134], [13.421035701359992, 52.456581552232464]]]}}, {"type": "Feature", "properties": {"id": "tm_kak_gew_2022.1400816351000200", "schl5": "1400816351000200", "art": "Gewässer"}, "geometry": {"type": "Polygon", "coordinates": [[[13.412363255115695, 52.423848204454025], [13.412405891531668, 52.42388369071114], [13.412463742545091, 52.423897650448694], [13.41267279526629, 52.42388879231448], [13.412743528343558, 52.423842736047014], [13.412819398802363, 52.4237751356845], [13.412877548256892, 52.42372751766637], [13.412983459722017, 52.423696920031595], [13.413013781587093, 52.42367542183033], [13.413018960134783, 52.423646180962386], [13.412905881134591, 52.42359671385636], [13.41268935028331, 52.423590164489646], [13.412565908908343, 52.42360071618871], [13.412492815327495, 52.42361443979734], [13.412432268126894, 52.42363742193331], [13.412353891730506, 52.42370193768524], [13.412350984601844, 52.423781984985894], [13.412363255115695, 52.423848204454025]]]}}, {"type": "Feature", "properties": {"id": "tm_kak_gew_2022.1400816391000300", "schl5": "1400816391000300", "art": "Gewässer"}, "geometry": {"type": "Polygon", "coordinates": [[[13.431462989528566, 52.422332632158124], [13.43152030459533, 52.422403190155265], [13.431607837480135, 52.42246708734034], [13.43181877640762, 52.422549641751445], [13.431988809755854, 52.42257340934085], [13.432060143936265, 52.42257688195633], [13.432139769050499, 52.4225669471621], [13.432203041284573, 52.42253182067388], [13.432241731927155, 52.42246980915732], [13.432280505094537, 52.4223893434454], [13.432300046643173, 52.42231387983342], [13.432300429841016, 52.42222663998701], [13.432391090632633, 52.42220330166702], [13.43236652527372, 52.422173062303095], [13.432267596331082, 52.422204776828416], [13.431892142596606, 52.42209175315734], [13.431755054991912, 52.42206468392938], [13.431675489391644, 52.422061197230576], [13.431626004641851, 52.422081248328475], [13.431468900020354, 52.42223701393777], [13.431457737759136, 52.422278938230534], [13.431462989528566, 52.422332632158124]]]}}, {"type": "Feature", "properties": {"id": "tm_kak_gew_2022.1400826041000500", "schl5": "1400826041000500", "art": "Gewässer"}, "geometry": {"type": "Polygon", "coordinates": [[[13.449185680855347, 52.42828516319662], [13.449278409942504, 52.42837744179608], [13.449289281915995, 52.42843030216762], [13.449237955246252, 52.42851558968448], [13.449224459009287, 52.42856434875798], [13.449230865534835, 52.42862533340151], [13.449257274077477, 52.428672797875976], [13.449299243319132, 52.42870944599485], [13.449372224104087, 52.4287515592481], [13.449456342416564, 52.428780140291245], [13.449564937458167, 52.42878572283022], [13.449604881083534, 52.42877494296549], [13.449633784250178, 52.42875330716482], [13.449653863544382, 52.42872081663046], [13.449647425535117, 52.42866796318989], [13.449605483453407, 52.428624540725494], [13.449419845319095, 52.42848469818323], [13.449373457919847, 52.428443978515745], [13.449362462763704, 52.42842228253498], [13.449362624632984, 52.42838163210009], [13.449389404825618, 52.428336958380825], [13.449436133326978, 52.42829231340697], [13.449462928117207, 52.42824357406784], [13.449463047705024, 52.42821376459972], [13.449429913806114, 52.42818525970177], [13.449365751277865, 52.42815535342678], [13.449281514466541, 52.428156582688906], [13.449177093299799, 52.42821604531973], [13.449185680855347, 52.42828516319662]]]}}, {"type": "Feature", "properties": {"id": "tm_kak_gew_2022.1400830061000600", "schl5": "1400830061000600", "art": "Gewässer"}, "geometry": {"type": "Polygon", "coordinates": [[[13.490755121517585, 52.39985832258139], [13.490785079098305, 52.39989840187807], [13.490876910440234, 52.39995586880672], [13.490938777961865, 52.39997542049974], [13.491055558362914, 52.39997555461669], [13.491105126382672, 52.399966954394934], [13.491165351604739, 52.399945376612926], [13.491207907334084, 52.3999162032196], [13.491252293359734, 52.399866468857866], [13.491270324121597, 52.39975717793792], [13.491254508415835, 52.399721443975515], [13.491162644409918, 52.39967480045739], [13.490975175597852, 52.399646446214234], [13.490861913618541, 52.39965389150977], [13.490782154855333, 52.39969817410737], [13.490750142613608, 52.39975116913501], [13.490755121517585, 52.39985832258139]]]}}, {"type": "Feature", "properties": {"id": "tm_kak_gew_2022.1400830781000400", "schl5": "1400830781000400", "art": "Gewässer"}, "geometry": {"type": "Polygon", "coordinates": [[[13.496042964979416, 52.40596432126719], [13.497062065441607, 52.40598798336122], [13.497117055641032, 52.40597564269135], [13.497458632046767, 52.405844540916824], [13.496315270418535, 52.40558053863785], [13.496037759761782, 52.40567763142633], [13.495976500357953, 52.4057316556084], [13.495961873802978, 52.405856567536716], [13.496042964979416, 52.40596432126719]]]}}, {"type": "Feature", "properties": {"id": "tm_kak_gew_2022.1400831421000200", "schl5": "1400831421000200", "art": "Gewässer"}, "geometry": {"type": "Polygon", "coordinates": [[[13.495325228892654, 52.418221025879554], [13.495343945298101, 52.41825200739604], [13.495384344751391, 52.41828920530106], [13.495439266020824, 52.418308728072645], [13.495498539054132, 52.41832383221948], [13.495588232782724, 52.41832658576059], [13.495660608245336, 52.418315165556564], [13.495743211552766, 52.41826925788179], [13.49573757825306, 52.41821705935225], [13.495707281704965, 52.41818783486583], [13.4956119144855, 52.418147036170275], [13.495516469647999, 52.41813189253776], [13.495464381402975, 52.41813360419658], [13.49540938619728, 52.418138850100675], [13.495342760163581, 52.4181635458715], [13.495325301647492, 52.41819625630298], [13.495325228892654, 52.418221025879554]]]}}, {"type": "Feature", "properties": {"id": "tm_kak_gew_2022.1400832621000300", "schl5": "1400832621000300", "art": "Gewässer"}, "geometry": {"type": "Polygon", "coordinates": [[[13.508879515437004, 52.40666223082119], [13.509099992540682, 52.406856004579375], [13.50917081426596, 52.40689945902251], [13.509279838909734, 52.40693961263952], [13.509296050227158, 52.40699969787876], [13.50931779477693, 52.40702975334682], [13.509366843608998, 52.407053162541686], [13.509478908024372, 52.406976519323045], [13.509413858535513, 52.40681460264891], [13.509441765446104, 52.40657936136999], [13.50946925984542, 52.406499296960114], [13.509433890832394, 52.40646255295808], [13.509398425526816, 52.40646084878656], [13.509373912469611, 52.406445807735615], [13.50934399905786, 52.406409068664345], [13.509259414266946, 52.40641232310417], [13.509155928948648, 52.40634047102676], [13.509128624708568, 52.40634878599895], [13.50909019334716, 52.40643718201701], [13.509008207685225, 52.406488826856965], [13.508898823581678, 52.40658382732959], [13.50887686779403, 52.406632194080274], [13.508879515437004, 52.40666223082119]]]}}, {"type": "Feature", "properties": {"id": "tm_kak_gew_2022.1400832631000400", "schl5": "1400832631000400", "art": "Gewässer"}, "geometry": {"type": "Polygon", "coordinates": [[[13.512869125569596, 52.403360464072556], [13.512978465988725, 52.40343517564404], [13.513060545442242, 52.403462661829124], [13.513117786105989, 52.40346880710712], [13.513219898330197, 52.40345063385759], [13.513317077011031, 52.40341418517896], [13.51345419361538, 52.403336664686094], [13.513713621957132, 52.40312831938774], [13.513696571941958, 52.40298213520303], [13.51377900366725, 52.4028710651027], [13.51379406484561, 52.402822357211086], [13.513786678363436, 52.40279037556213], [13.513724518811646, 52.402761387073525], [13.513592530263706, 52.40278105431425], [13.513537726943868, 52.40279622816923], [13.51338316798834, 52.40288134446231], [13.513305904141006, 52.40291781260223], [13.513163943711938, 52.40294356050703], [13.513171342273273, 52.40297097306775], [13.51308900542305, 52.40304397827451], [13.512979275903168, 52.40312000150103], [13.512864408178643, 52.40325844641032], [13.512851824906328, 52.403311724977726], [13.512869125569596, 52.403360464072556]]]}}, {"type": "Feature", "properties": {"id": "tm_kak_gew_2022.1400836031000400", "schl5": "1400836031000400", "art": "Gewässer"}, "geometry": {"type": "Polygon", "coordinates": [[[13.516859138954944, 52.41967347873319], [13.516879509063257, 52.419729222761696], [13.516979414009139, 52.41987141668093], [13.517024923651439, 52.419896535019475], [13.51705908561622, 52.419903532424286], [13.517154794490674, 52.41990083438824], [13.517255142643585, 52.419864705370536], [13.51735782511065, 52.41980628877374], [13.517437721532529, 52.419747850680444], [13.517481114740617, 52.41970748900592], [13.517506285932273, 52.41966432556673], [13.517513262020778, 52.419607213570124], [13.517492837561194, 52.41957375877079], [13.517449623319013, 52.419541677030246], [13.517360859437876, 52.4195011937063], [13.517174128692579, 52.419455047184535], [13.517067093395363, 52.41943126467449], [13.517014696570527, 52.41942703615757], [13.516957718264853, 52.419432556722434], [13.516907537123835, 52.419453406913796], [13.516871013821797, 52.41947984285765], [13.516848121413167, 52.419523008678524], [13.516859138954944, 52.41967347873319]]]}}, {"type": "Feature", "properties": {"id": "tm_kak_gew_2022.1400836081000400", "schl5": "1400836081000400", "art": "Gewässer"}, "geometry": {"type": "Polygon", "coordinates": [[[13.510324196688059, 52.40790906735362], [13.51050280962561, 52.408122473373716], [13.510529401100614, 52.408138787430815], [13.5106165283303, 52.40815368118049], [13.51066495317978, 52.40815372935669], [13.510723123488892, 52.408131574474574], [13.510764373055322, 52.408097557514544], [13.510779184112625, 52.40798947678502], [13.510665886649276, 52.407798346905146], [13.51062725904385, 52.40775536644777], [13.510557138931947, 52.40771827845399], [13.51043861614664, 52.40767373916661], [13.510312796654127, 52.40764103900713], [13.510249808681275, 52.407654303703794], [13.510230376585875, 52.407677976953785], [13.510220516126255, 52.40774460087535], [13.510324196688059, 52.40790906735362]]]}}, {"type": "Feature", "properties": {"id": "tm_kak_gew_2022.1400836091000400", "schl5": "1400836091000400", "art": "Gewässer"}, "geometry": {"type": "Polygon", "coordinates": [[[13.518254318083358, 52.40434199442913], [13.518000515795881, 52.40456984270564], [13.517758572785537, 52.40484742419381], [13.51747641391342, 52.405167976404975], [13.517265569566302, 52.40548151842437], [13.517122366866058, 52.405705004976106], [13.51706287335868, 52.40593744561288], [13.517057440755806, 52.406099422326776], [13.517108807496827, 52.40620565015567], [13.517810663944818, 52.40555238024934], [13.51848067341771, 52.404931103808636], [13.518761719511767, 52.4046704933657], [13.518254318083358, 52.40434199442913]]]}}, {"type": "Feature", "properties": {"id": "tm_kak_gew_2022.1400836131000700", "schl5": "1400836131000700", "art": "Gewässer"}, "geometry": {"type": "Polygon", "coordinates": [[[13.51848067341771, 52.404931103808636], [13.517810663944818, 52.40555238024934], [13.517108807496827, 52.40620565015567], [13.517166823683718, 52.40630631585709], [13.517249607677337, 52.40634292489993], [13.517353094974316, 52.40634027136549], [13.517470032081453, 52.406321975573995], [13.517743324901723, 52.40626611819171], [13.518094929268523, 52.40618752792495], [13.518278314091438, 52.40611473219041], [13.518397897868715, 52.406017423386956], [13.518440230092096, 52.405911241269145], [13.518495879006814, 52.405793368569746], [13.518576834626435, 52.40569162295598], [13.518579879038718, 52.40560075746167], [13.518595445997617, 52.40552190637386], [13.518661762085573, 52.405471356891034], [13.518798868423215, 52.40542959941449], [13.51891013670448, 52.40538751804052], [13.519003085403092, 52.405313588930895], [13.519063602511423, 52.4052432050222], [13.519115897390916, 52.405182385314305], [13.519123780771917, 52.405173216553834], [13.519053344147212, 52.405123426500246], [13.519225726482084, 52.40500954888428], [13.519254392210094, 52.40494917107912], [13.519263206455843, 52.404914896818816], [13.51876688935936, 52.404673839904184], [13.518761719511767, 52.4046704933657], [13.51848067341771, 52.404931103808636]]]}}, {"type": "Feature", "properties": {"id": "tm_kak_gew_2022.1400836151000200", "schl5": "1400836151000200", "art": "Gewässer"}, "geometry": {"type": "Polygon", "coordinates": [[[13.496588230102223, 52.424018943129084], [13.496704306342147, 52.424058802144486], [13.496881579579854, 52.424048160175346], [13.496942622811263, 52.42405063557504], [13.496984036008174, 52.424031417614295], [13.497003824984178, 52.423998932595715], [13.49700193458295, 52.423972444162736], [13.49698230182274, 52.42395195560843], [13.496895719617687, 52.42392778099574], [13.496592413926498, 52.42393587541304], [13.496568611379205, 52.4239936381531], [13.496588230102223, 52.424018943129084]]]}}, {"type": "Feature", "properties": {"id": "tm_kak_gew_2022.1400836421000300", "schl5": "1400836421000300", "art": "Gewässer"}, "geometry": {"type": "Polygon", "coordinates": [[[13.5003167775033, 52.41729198112086], [13.500353692778704, 52.41733874101332], [13.500453065146685, 52.417406804548136], [13.500681937287403, 52.41753446891131], [13.500813743759318, 52.41759690415616], [13.500947911001527, 52.41764376781917], [13.501195505981686, 52.417702078332795], [13.501466370191594, 52.41772077087759], [13.501600675009552, 52.417719497173415], [13.501718795787838, 52.417709711324676], [13.501892570701115, 52.41767025329147], [13.501932013663035, 52.4176419788863], [13.501957592336963, 52.41760377973576], [13.501964730519632, 52.41753583001429], [13.501937088803913, 52.41748483286129], [13.501888583313887, 52.41744230796367], [13.501657392163125, 52.41731464353468], [13.501379809290352, 52.41721666001009], [13.501011867770561, 52.417138402091126], [13.500889195176597, 52.41712128206685], [13.500759535770033, 52.41711831252354], [13.500632175176934, 52.41712100851511], [13.5005279421046, 52.41713363798357], [13.500368042149198, 52.41717877257277], [13.500358721021595, 52.417199999212656], [13.500309994084878, 52.41723534191694], [13.5003167775033, 52.41729198112086]]]}}, {"type": "Feature", "properties": {"id": "tm_kak_gew_2022.1400836491000300", "schl5": "1400836491000300", "art": "Gewässer"}, "geometry": {"type": "Polygon", "coordinates": [[[13.506937931823266, 52.40717519100509], [13.506987349686455, 52.40724684856457], [13.507046738391756, 52.40730152464748], [13.507124046047162, 52.40733437269912], [13.507193451418834, 52.4073538617163], [13.507294675128293, 52.407349108746274], [13.507336390159862, 52.407334587082346], [13.507376210745315, 52.40728608025186], [13.507394222558172, 52.40723026878281], [13.50737850111914, 52.40717320957528], [13.50731912884569, 52.407112465764456], [13.507192358700017, 52.40702373831978], [13.507124955194001, 52.406998183103404], [13.507049553319877, 52.40699446515052], [13.506995968395367, 52.40699562525217], [13.506942330479593, 52.40701620366665], [13.506916436929082, 52.407051373522364], [13.506937931823266, 52.40717519100509]]]}}, {"type": "Feature", "properties": {"id": "tm_kak_gew_2022.1400836981000300", "schl5": "1400836981000300", "art": "Gewässer"}, "geometry": {"type": "Polygon", "coordinates": [[[13.492468283030474, 52.410981006731234], [13.492523932116645, 52.41100449540544], [13.492746771116213, 52.4110175256498], [13.492875452957458, 52.41107304113228], [13.49294496842411, 52.411117841821635], [13.492997062703013, 52.411164751784185], [13.493118775815462, 52.41122238907093], [13.493251001003689, 52.41125874157183], [13.49336230571024, 52.411303589139116], [13.493536275064391, 52.41135489600238], [13.49389122723963, 52.411442609217794], [13.493992468781029, 52.41135966844989], [13.493912569755164, 52.41129356020462], [13.493905757157092, 52.41124244250339], [13.493881521313943, 52.41119556331526], [13.493829450173463, 52.41114013495794], [13.49362793576195, 52.410984446648165], [13.493600255761374, 52.410924787580704], [13.493596958621778, 52.41086302421442], [13.493611074720953, 52.410801282243824], [13.493572960346606, 52.410737350691214], [13.493454987384743, 52.410594534684215], [13.493388950213413, 52.41055186725232], [13.49332284253955, 52.41053262615535], [13.493197436058018, 52.41054526245139], [13.493037095222878, 52.4105940624301], [13.49270255609289, 52.41066821961473], [13.492597916206568, 52.410723470056304], [13.492535096364072, 52.41076812090321], [13.49244064988342, 52.41090643890384], [13.492437050623238, 52.4109447671149], [13.492468283030474, 52.410981006731234]]]}}, {"type": "Feature", "properties": {"id": "tm_kak_gew_2022.1400838611000000", "schl5": "1400838611000000", "art": "Gewässer"}, "geometry": {"type": "Polygon", "coordinates": [[[13.519727881643792, 52.426479792291616], [13.520095660265255, 52.42620037654364], [13.519894780953232, 52.426172787624026], [13.51922147642903, 52.42619823773837], [13.518114157250087, 52.42627195127944], [13.516611827077725, 52.426371943044714], [13.516424902685797, 52.42638438254751], [13.515663271349311, 52.4264564628391], [13.514841234973032, 52.426547351239655], [13.514050068667151, 52.42664724976936], [13.512454325590387, 52.42692071138356], [13.51200865913269, 52.42702632292124], [13.51151597387456, 52.42710492505621], [13.511291104245567, 52.42707954507754], [13.511139739503204, 52.42705423347872], [13.510976435130686, 52.42709271677302], [13.510815758200996, 52.42726779935546], [13.510116957237997, 52.42745852644014], [13.508452896805197, 52.427961925672975], [13.507851936180783, 52.42785168434587], [13.507641527061885, 52.42792786068513], [13.50749206503913, 52.42829077100516], [13.506763608364674, 52.42856322677523], [13.506152802134928, 52.428818724834585], [13.506065051077906, 52.428858484144], [13.505555155236834, 52.429089510896105], [13.503188258323352, 52.43023840806563], [13.50205304931407, 52.430766825590275], [13.501003729321425, 52.43129868950464], [13.497967183640437, 52.432747414256994], [13.497790993192902, 52.43292187497308], [13.49762335364676, 52.43306788299904], [13.497377384315275, 52.433217685806284], [13.497649799661671, 52.43343403572796], [13.498387622642305, 52.43316731646845], [13.506009860124838, 52.42947190825724], [13.506427883453098, 52.429281817952145], [13.506804725344338, 52.429114151331675], [13.507361047649265, 52.42889544051291], [13.508620663760668, 52.42844737286393], [13.509415201854331, 52.42819743431908], [13.510237699599447, 52.427947520895195], [13.510764395458937, 52.427802455216735], [13.511776421792536, 52.42755990384466], [13.512670703009544, 52.4273882264892], [13.513200181777737, 52.42729437662431], [13.51469735102471, 52.42705945480295], [13.515245883762598, 52.426989876419626], [13.516234023450634, 52.42688925467702], [13.517123579172859, 52.426828074677005], [13.519369302099232, 52.426700720102076], [13.519727881643792, 52.426479792291616]]]}}, {"type": "Feature", "properties": {"id": "tm_kak_gew_2022.1400838621000000", "schl5": "1400838621000000", "art": "Gewässer"}, "geometry": {"type": "Polygon", "coordinates": [[[13.478618541128373, 52.44268889361578], [13.478679458492348, 52.44265654070293], [13.478941640481827, 52.44255533097502], [13.484159056944016, 52.440020669479914], [13.484246419888134, 52.43998213510563], [13.484711048124618, 52.43986281196597], [13.489086032119506, 52.43771215618647], [13.489296931873858, 52.43751020207378], [13.494495132810945, 52.43499088044244], [13.494896848064974, 52.43488798209319], [13.497136441548852, 52.4338030729811], [13.49719308585812, 52.43372700998266], [13.497533221406071, 52.43348953809607], [13.497226970080975, 52.43326280203312], [13.49702157493377, 52.43336350068614], [13.49661415193667, 52.43341427611286], [13.494393642401448, 52.43451178021964], [13.494185766690224, 52.43469846732448], [13.494091467651165, 52.434763067619116], [13.493953373894593, 52.434829925125584], [13.49137464494306, 52.43607833125926], [13.489905360969132, 52.436774292415194], [13.485208571428947, 52.43905871456164], [13.485109908580206, 52.43909769737985], [13.484597556975386, 52.43928939562124], [13.478935676553183, 52.44206112270625], [13.478657323513131, 52.44218299358678], [13.478543666581833, 52.442308664382516], [13.478427072495398, 52.44240422476864], [13.478320747900073, 52.442459222614836], [13.478618541128373, 52.44268889361578]]]}}, {"type": "Feature", "properties": {"id": "tm_kak_gew_2022.1501208051000000", "schl5": "1501208051000000", "art": "Gewässer"}, "geometry": {"type": "Polygon", "coordinates": [[[13.474953218443138, 52.45913305456681], [13.474953480037847, 52.45912713851746], [13.474965447778715, 52.458859874424604], [13.474943019985322, 52.45913329468744], [13.474953218443138, 52.45913305456681]]]}}, {"type": "Feature", "properties": {"id": "tm_kak_gew_2022.1501248001000000", "schl5": "1501248001000000", "art": "Gewässer"}, "geometry": {"type": "MultiPolygon", "coordinates": [[[[13.456977601561006, 52.45913133836524], [13.456979538079539, 52.45911574613742], [13.456975364266217, 52.45912189092692], [13.456977601561006, 52.45913133836524]]], [[[13.45699418280154, 52.45920135607052], [13.457037996737991, 52.45923069740394], [13.457039569195699, 52.459231180498506], [13.456994575754617, 52.45919639002115], [13.456991322780619, 52.459189279042775], [13.45699418280154, 52.45920135607052]]], [[[13.457121566847745, 52.45925637203133], [13.457121842826727, 52.45925637566685], [13.457106761963143, 52.45925182363601], [13.457121566847745, 52.45925637203133]]], [[[13.457271165375504, 52.45920730275903], [13.45733678908004, 52.45923751469993], [13.458323289657974, 52.45920782387572], [13.45832324088349, 52.459207812474276], [13.457338810101604, 52.45923633265921], [13.457269485253347, 52.459206396116976], [13.45725237562973, 52.45922891042077], [13.457271165375504, 52.45920730275903]]], [[[13.45703456728795, 52.459034730798166], [13.457188173436068, 52.45885203043485], [13.457230803395412, 52.45878370579971], [13.45728581773337, 52.458671000829064], [13.457435542213922, 52.45844440575808], [13.45703456728795, 52.459034730798166]]]]}}, {"type": "Feature", "properties": {"id": "tm_kak_gew_2022.1501258031000000", "schl5": "1501258031000000", "art": "Gewässer"}, "geometry": {"type": "Polygon", "coordinates": [[[13.520504825167793, 52.4265448895286], [13.520504450369918, 52.42654213643045], [13.52049714432585, 52.42649244517888], [13.520482725335317, 52.426504272901525], [13.520454967547325, 52.42654145786653], [13.520504825167793, 52.4265448895286]]]}}, {"type": "Feature", "properties": {"id": "tm_kak_gew_2022.1501261001000400", "schl5": "1501261001000400", "art": "Gewässer"}, "geometry": {"type": "Polygon", "coordinates": [[[13.518761719511767, 52.4046704933657], [13.51876688935936, 52.404673839904184], [13.519263206455843, 52.404914896818816], [13.519265026920086, 52.40490781824577], [13.518769847718746, 52.40466412432266], [13.518362767063362, 52.404390916769565], [13.518269015825975, 52.40433023873275], [13.518254318083358, 52.40434199442913], [13.518761719511767, 52.4046704933657]]]}}]}