{"type": "FeatureCollection", "name": "versorggruen_wald_2020_neukoelln", "features": [{"type": "Feature", "properties": {"id": "versorggruen_wald_2020.297", "importid": 297, "typ": "Wald"}, "geometry": {"type": "Polygon", "coordinates": [[[13.43891544, 52.4339802], [13.44120362, 52.43150498], [13.44246367, 52.43017282], [13.44269406, 52.42994092], [13.44410435, 52.42844579], [13.44359968, 52.4282643], [13.44213456, 52.42980104], [13.44191038, 52.43003751], [13.43841232, 52.43369902], [13.43598249, 52.43652213], [13.43596153, 52.43684733], [13.43525763, 52.43765209], [13.43523197, 52.43815425], [13.43891544, 52.4339802]]]}}, {"type": "Feature", "properties": {"id": "versorggruen_wald_2020.2443", "importid": 2443, "typ": "Wald"}, "geometry": {"type": "Polygon", "coordinates": [[[13.44623861, 52.42482691], [13.44632186, 52.42489585], [13.44669157, 52.42495405], [13.44688257, 52.42385878], [13.44691449, 52.42367576], [13.44644209, 52.42364488], [13.44623861, 52.42482691]]]}}]}